{
"type": "FeatureCollection",
"name": "clusters",
"crs": { "type": "name", "properties": { "name": "urn:ogc:def:crs:OGC:1.3:CRS84" } },
"features": [
{ "type": "Feature", "properties": { "cluster_id": "C0", "name": "FactoryCluster_auto_0", "node_type": "factory", "n_members": 2, "n_industrial": 2, "n_warehouse": 0, "member_names": "", "is_named_seed": false, "area_m2": 37561.253604055884 }, "geometry": { "type": "Point", "coordinates": [ 137.087800072410943, 35.112129444211803 ] } },
{ "type": "Feature", "properties": { "cluster_id": "C1", "name": "LogisticsCluster_auto_1", "node_type": "logistics", "n_members": 10209, "n_industrial": 2190, "n_warehouse": 8019, "member_names": "(株)デンソー池田工場; (株)中部理化; ESR 名古屋南ディストリビューションセンター1; ESR名古屋大高ディストリビューションセンター; NAITO; SBS三愛ロジスティクス 物流センター一宮; Tokai Parts Industry Co., Ltd (TBK); Toyota Stowage Areas; Toyota Tobishima Wharf Center; UBEマシナリー株式会社; みよし市拠点防災備蓄倉庫; みよし市消防団明知下分団; アイカ工業 甚目寺工場; アイシン高丘; アサヒビール; アスカ(株)豊田工場; アストモス ガス; アラクス 清須工場; アロン化成 名古屋工場; アーク引越センター東海物流センター; エヌケーオート; エーエスペイント; カゴメ上野工場; キリンビール株式会社 名古屋工場; クリーンパーク新川; コンテナシティ島田住宅; コープあいち倉庫; サッポログループ物流; サンエイ株式会社; サンエイ株式会社物流センター; センチュリーBOX繁蔵ハウス; デンソー安城製作所; トヨタ自動車; トヨタ自動車　下山工場; トヨタ自動車　堤工場; トヨタ自動車　明知工場; トヨタ車体富士松工場; ニチハ株式会社 名古屋工場; パイロットインキ 東郷工場; フジパン 豊明工場; ブラザー工業 港工場; ブラザー工業株式会社 星崎工場; ブラザー工業株式会社 瑞穂工場; ブラザー精密工業; ポッカサッポロフード&ビバレッジ(株)名古屋工場; ミヨシ油脂 名古屋工場; ヤマイチプライメタル; ユシロ; ロジポート名古屋; 三五 福田工場; 三五 高岡工場; 三五　三好工場; 三五　八和田山工場; 三五三好第三工場; 三井化学株式会社 名古屋工場; 三栄工業株式会社本社工場; 三栄組; 三洋化成 名古屋工場; 三菱重工業名古屋航空宇宙システム（製）; 三菱重工業株式会社 名古屋航空宇宙システム製作所; 三菱重工（株）名冷地区枇杷島工場; 三菱電機; 三菱電機ビルソリューションズ・稲沢ビルシステム製作所; 上野浄水場; 中外三好工場; 中央パイプ; 中央化工機 株式会社; 中央発條; 中央発條 三好西工場; 中央発條技術センター; 中川口ポンプ所; 中川西応急給水センター; 中川西配水場; 中立電機 株式会社; 中部鋼鈑 株式会社; 中部電力パワーグリッド 黒石変電所; 中部電力パワーグリッド株式会社 名古屋資材センター; 丸一鋼管; 丸五産業; 五条川右岸浄化センター; 京楽産業. 日進倉庫; 住友軽金属工業 名古屋製造所; 刈谷上水道一ツ木配水場; 刈谷紙器; 刈鈑工業; 刈鈑工業　製品倉庫; 則武新町物流倉庫; 助光ポンプ所; 北名古屋水道企業団; 名古屋ダイレクトメールセンター守山分室; 名古屋市上下水道局 八剱ポンプ所; 名古屋市上下水道局 六条ポンプ所; 名古屋市上下水道局 技術教育センター実習場; 名古屋市上下水道局 篠原ポンプ所; 名古屋市上下水道局　災害用機材倉庫; 名古屋市上下水道局上小田井ポンプ所; 名古屋市五条川工場; 名古屋市交通局 いりなか換気所; 名古屋市交通局 山中ポンプ換気所; 名古屋市交通局野並営業所; 名古屋市営バス如意営業所; 名古屋市営バス鳴尾営業所; 名古屋市環境局 南陽工場; 名古屋市環境局 富田工場; 名古屋市鳴海工場; 名機製作所; 名糖アダムス株式会社; 名糖（株）名古屋工場; 名鉄バス転回場; 名鉄自動車整備株式会社; 大同特殊鋼 築地工場; 大同特殊鋼株式会社 星崎工場; 大同特殊鋼株式会社 滝春テクノセンター; 大宝運輸(株) 三好支店; 大日本木材防腐 名古屋本社工場; 大江破砕工場; 天白水防倉庫; 安田工機(株); 寿がきや食品 株式会社 本社工場; 山城産業; 山崎製パン株式会社 名古屋工場; 岡田金属株式会社; 岡谷鋼機株式会社 第三倉庫; 市営バス待機場; 市立学校給食センター; 市立学校給食センター栄調理場; 平岩工業所; 愛三工業株式会社; 愛知中部水道企業団 双峰配水場; 愛知時計電機 株式会社; 愛知機械工業 永徳工場; 愛知機械工業 熱田工場; 愛知製鋼; 愛知製鋼　知多工場; 戸田ポンプ所; 戸田川排水機場; 敷島製パン株式会社 刈谷工場; 新名古屋火力発電所; 新家工業株式会社 名古屋工場; 新川西部浄化センター; 新茶屋排水機場; 日光川排水機場 日光川河口排水機場; 日本ガイシ 株式会社; 日本ルートサービス (株); 日本品質保証機構 師勝試験所; 日本街路灯製造株式会社 豊明工場; 日本車両 鳴海製作所; 日本軽金属; 日本通運 名古屋物流センター; 日清製粉 名古屋工場; 旭化成ファーマ; 明電舎　名古屋事業所; 東レ 愛知工場; 東レ 東海工場; 東レ株式会社 名古屋事業場; 東光高岳名古屋工場; 東洋フォーム印刷; 東海染工（株）名古屋事務所; 東邦ガス 守山供給所; 東邦ガス 日比津基地; 東邦ガス 株式会社; 東邦ガスネットワーク 整圧所; 東邦ガスネットワーク 神ノ倉整圧所; 東郷製作所 本社工場; 東郷製作所 第5工場; 東郷製作所第6工場; 松村石油; 栗田商会 緑配送センター; 株式会社 メイキコウ; 株式会社 天野研磨工業所 大久伝工場; 株式会社アイシン; 株式会社クリタテクノ; 株式会社ジェイテクト; 株式会社デンソー北工場; 株式会社パロマ 清洲工場; 株式会社和田工業; 株式会社成田製作所 南工場; 株式会社成田製作所 本社工場; 株式会社豊田自動織機 共和工場; 桒島製作所; 橋本製作所; 河村工機製作所; 清須市学校給食センター; 港北ポンプ所; 知立水防倉庫; 石塚硝子 本社・岩倉工場; 福屋排水機場; 福屋第一排水機場; 福山通運; 福田ポンプ所; 秋田工業株式会社; 竹田印刷; 笹徳印刷 株式会社; 笹徳印刷寺前工場; 茶屋後揚水機場; 荒子川ポンプ所; 菅沼建築 倉庫; 藤高排水機場; 西濃運輸; 西濃運輸株式会社 大曽根支店; 西濃運輸株式会社 枇杷島支店; 西濃運輸株式会社 笠寺支店; 西福田揚水機場; 豊田スチールセンター; 野田工業製作所; 防災倉庫; 青山産業; 青山鉄工所; 高木工業(株); 高砂電気工業; 鳴海合金製作所; 鳴海改良土センター; 鳴海水処理センター; 鳴海製陶; （株）山宗; ＵＳＳ名古屋; ＵＳＳ名古屋西ストックハウス", "is_named_seed": false, "area_m2": 43123127.578166738 }, "geometry": { "type": "Point", "coordinates": [ 136.929774793327027, 35.148461607215509 ] } },
{ "type": "Feature", "properties": { "cluster_id": "C2", "name": "FactoryCluster_auto_2", "node_type": "factory", "n_members": 2, "n_industrial": 1, "n_warehouse": 1, "member_names": "車庫・倉庫", "is_named_seed": false, "area_m2": 1745.0597172299758 }, "geometry": { "type": "Point", "coordinates": [ 137.093561867656689, 35.295795524118091 ] } },
{ "type": "Feature", "properties": { "cluster_id": "C3", "name": "FactoryCluster_auto_3", "node_type": "factory", "n_members": 43, "n_industrial": 43, "n_warehouse": 0, "member_names": "パナソニックエコシステムズ", "is_named_seed": false, "area_m2": 3430873.7682859208 }, "geometry": { "type": "Point", "coordinates": [ 136.955651339099177, 35.279244727064849 ] } },
{ "type": "Feature", "properties": { "cluster_id": "C4", "name": "FactoryCluster_auto_4", "node_type": "factory", "n_members": 3, "n_industrial": 3, "n_warehouse": 0, "member_names": "Tobishima Logistics Service; 西名古屋火力発電所", "is_named_seed": false, "area_m2": 5482266.5034129918 }, "geometry": { "type": "Point", "coordinates": [ 136.824528802898385, 35.034129341116497 ] } },
{ "type": "Feature", "properties": { "cluster_id": "C5", "name": "FactoryCluster_auto_5", "node_type": "factory", "n_members": 3, "n_industrial": 3, "n_warehouse": 0, "member_names": "ENEOS知多製造所; IHI愛知工場; 知多第二火力発電所", "is_named_seed": false, "area_m2": 2117882.0908292858 }, "geometry": { "type": "Point", "coordinates": [ 136.858154445937004, 35.003127085612093 ] } },
{ "type": "Feature", "properties": { "cluster_id": "C6", "name": "FactoryCluster_auto_6", "node_type": "factory", "n_members": 2, "n_industrial": 2, "n_warehouse": 0, "member_names": "Nagoya Tokai Power Station", "is_named_seed": false, "area_m2": 7174924.0054796338 }, "geometry": { "type": "Point", "coordinates": [ 136.869163483985631, 35.028071816568961 ] } },
{ "type": "Feature", "properties": { "cluster_id": "C7", "name": "FactoryCluster_auto_7", "node_type": "factory", "n_members": 3, "n_industrial": 2, "n_warehouse": 1, "member_names": "ヤマト運輸(株) 愛知主管支店; ライスセンター", "is_named_seed": false, "area_m2": 14729.197887064012 }, "geometry": { "type": "Point", "coordinates": [ 137.07235723236812, 35.177843802010599 ] } },
{ "type": "Feature", "properties": { "cluster_id": "C8", "name": "FactoryCluster_auto_8", "node_type": "factory", "n_members": 3, "n_industrial": 3, "n_warehouse": 0, "member_names": "株式会社豊田自動織機 大府工場", "is_named_seed": false, "area_m2": 368963.14224127715 }, "geometry": { "type": "Point", "coordinates": [ 136.968457824702227, 35.00622244218264 ] } },
{ "type": "Feature", "properties": { "cluster_id": "C9", "name": "FactoryCluster_auto_9", "node_type": "factory", "n_members": 3, "n_industrial": 2, "n_warehouse": 1, "member_names": "トヨタ自動車 日進研修センター; 折戸区防災倉庫", "is_named_seed": false, "area_m2": 143746.08231138962 }, "geometry": { "type": "Point", "coordinates": [ 137.04357355505968, 35.121367723063152 ] } },
{ "type": "Feature", "properties": { "cluster_id": "C10", "name": "FactoryCluster_auto_10", "node_type": "factory", "n_members": 2, "n_industrial": 2, "n_warehouse": 0, "member_names": "", "is_named_seed": false, "area_m2": 40067.756805720652 }, "geometry": { "type": "Point", "coordinates": [ 136.915445050806539, 35.290505989837762 ] } },
{ "type": "Feature", "properties": { "cluster_id": "C11", "name": "FactoryCluster_auto_11", "node_type": "factory", "n_members": 2, "n_industrial": 2, "n_warehouse": 0, "member_names": "", "is_named_seed": false, "area_m2": 10984.008443030409 }, "geometry": { "type": "Point", "coordinates": [ 137.076573346489994, 35.00007563217379 ] } },
{ "type": "Feature", "properties": { "cluster_id": "C12", "name": "FactoryCluster_auto_12", "node_type": "factory", "n_members": 1, "n_industrial": 1, "n_warehouse": 0, "member_names": "", "is_named_seed": false, "area_m2": 99358.358487184742 }, "geometry": { "type": "Point", "coordinates": [ 137.1007497548527, 35.135508426487903 ] } },
{ "type": "Feature", "properties": { "cluster_id": "C13", "name": "FactoryCluster_auto_13", "node_type": "factory", "n_members": 1, "n_industrial": 1, "n_warehouse": 0, "member_names": "王子製紙春日井工場", "is_named_seed": false, "area_m2": 664895.33311246743 }, "geometry": { "type": "Point", "coordinates": [ 136.974476397930658, 35.234021459669385 ] } },
{ "type": "Feature", "properties": { "cluster_id": "C14", "name": "FactoryCluster_auto_14", "node_type": "factory", "n_members": 1, "n_industrial": 1, "n_warehouse": 0, "member_names": "豊田自動織機 長草工場", "is_named_seed": false, "area_m2": 276911.87377912313 }, "geometry": { "type": "Point", "coordinates": [ 136.940344036777645, 35.012541351317118 ] } },
{ "type": "Feature", "properties": { "cluster_id": "C15", "name": "FactoryCluster_auto_15", "node_type": "factory", "n_members": 1, "n_industrial": 1, "n_warehouse": 0, "member_names": "", "is_named_seed": false, "area_m2": 227818.57731268057 }, "geometry": { "type": "Point", "coordinates": [ 137.050784012965067, 35.295429010923414 ] } },
{ "type": "Feature", "properties": { "cluster_id": "C16", "name": "FactoryCluster_auto_16", "node_type": "factory", "n_members": 1, "n_industrial": 1, "n_warehouse": 0, "member_names": "定光寺変電所", "is_named_seed": false, "area_m2": 1322.3320997634578 }, "geometry": { "type": "Point", "coordinates": [ 137.074046499492852, 35.269694858603671 ] } },
{ "type": "Feature", "properties": { "cluster_id": "C17", "name": "LogisticsCluster_auto_17", "node_type": "logistics", "n_members": 1, "n_industrial": 0, "n_warehouse": 1, "member_names": "東海市防災倉庫", "is_named_seed": false, "area_m2": 1127.8504140390994 }, "geometry": { "type": "Point", "coordinates": [ 136.904036447922039, 35.022331132151535 ] } },
{ "type": "Feature", "properties": { "cluster_id": "C18", "name": "LogisticsCluster_auto_18", "node_type": "logistics", "n_members": 1, "n_industrial": 0, "n_warehouse": 1, "member_names": "", "is_named_seed": false, "area_m2": 12.124862076260673 }, "geometry": { "type": "Point", "coordinates": [ 137.073713677686868, 35.239658346068957 ] } },
{ "type": "Feature", "properties": { "cluster_id": "C19", "name": "LogisticsCluster_auto_19", "node_type": "logistics", "n_members": 1, "n_industrial": 0, "n_warehouse": 1, "member_names": "", "is_named_seed": false, "area_m2": 55.33052443072593 }, "geometry": { "type": "Point", "coordinates": [ 137.076455262376072, 35.213539543929222 ] } }
]
}
