{
"type": "FeatureCollection",
"name": "clusters",
"crs": { "type": "name", "properties": { "name": "urn:ogc:def:crs:OGC:1.3:CRS84" } },
"features": [
{ "type": "Feature", "properties": { "cluster_id": "C0", "name": "FactoryCluster_auto_0", "node_type": "factory", "n_members": 7, "n_industrial": 7, "n_warehouse": 0, "member_names": "Electronic Hardware and Technology Park; Hero MotoCorp; Infocity; Pace City I; Pace CityII; Rico Auto Industries Ltd", "is_named_seed": false, "area_m2": 2808548.7796274056 }, "geometry": { "type": "Point", "coordinates": [ 77.010151021005385, 28.432949027837839 ] } },
{ "type": "Feature", "properties": { "cluster_id": "C1", "name": "IMT Manesar", "node_type": "factory", "n_members": 30, "n_industrial": 29, "n_warehouse": 1, "member_names": "Maruti Manesar Power Station; Maruti Suzuki India; Minda Industries; Mindarika; Sector 10; Sector 11; Sector 12; Sector 14; Sector 15; Sector 3; Sector 3A; Sector 4; Sector 5; Sector 6; Sector 7; Sector 8; Sector 9; Uno Minda", "is_named_seed": true, "area_m2": 21082152.499095574 }, "geometry": { "type": "Point", "coordinates": [ 76.912930665604861, 28.373732353012393 ] } },
{ "type": "Feature", "properties": { "cluster_id": "C2", "name": "Udyog Vihar", "node_type": "factory", "n_members": 3, "n_industrial": 3, "n_warehouse": 0, "member_names": "Maruti Suzuki India Limited", "is_named_seed": true, "area_m2": 1184748.1680896049 }, "geometry": { "type": "Point", "coordinates": [ 77.071847420327018, 28.496163234902184 ] } },
{ "type": "Feature", "properties": { "cluster_id": "C3", "name": "Bilaspur Logistics Hub", "node_type": "logistics", "n_members": 2, "n_industrial": 2, "n_warehouse": 0, "member_names": "", "is_named_seed": true, "area_m2": 1180318.0694436019 }, "geometry": { "type": "Point", "coordinates": [ 76.857654582577439, 28.295285591564468 ] } },
{ "type": "Feature", "properties": { "cluster_id": "C4", "name": "FactoryCluster_auto_4", "node_type": "factory", "n_members": 2, "n_industrial": 2, "n_warehouse": 0, "member_names": "", "is_named_seed": false, "area_m2": 447955.23581416381 }, "geometry": { "type": "Point", "coordinates": [ 76.820547142454927, 28.36887621083611 ] } },
{ "type": "Feature", "properties": { "cluster_id": "C5", "name": "FactoryCluster_auto_5", "node_type": "factory", "n_members": 2, "n_industrial": 2, "n_warehouse": 0, "member_names": "City Bus Depot Sector 52/53; Sector 54 Gurgaon Metro Rail Depot", "is_named_seed": false, "area_m2": 58823.513609384376 }, "geometry": { "type": "Point", "coordinates": [ 77.101409505403396, 28.432324589800086 ] } },
{ "type": "Feature", "properties": { "cluster_id": "C6", "name": "Farrukhnagar Logistics Hub", "node_type": "logistics", "n_members": 5, "n_industrial": 5, "n_warehouse": 0, "member_names": "", "is_named_seed": true, "area_m2": 1187584.4987032847 }, "geometry": { "type": "Point", "coordinates": [ 76.809036290347152, 28.469947601394828 ] } },
{ "type": "Feature", "properties": { "cluster_id": "C7", "name": "FactoryCluster_auto_7", "node_type": "factory", "n_members": 3, "n_industrial": 3, "n_warehouse": 0, "member_names": "", "is_named_seed": false, "area_m2": 459193.1382998008 }, "geometry": { "type": "Point", "coordinates": [ 76.921705447000022, 28.43109714082334 ] } },
{ "type": "Feature", "properties": { "cluster_id": "C8", "name": "FactoryCluster_auto_8", "node_type": "factory", "n_members": 7, "n_industrial": 7, "n_warehouse": 0, "member_names": "", "is_named_seed": false, "area_m2": 485976.38286296371 }, "geometry": { "type": "Point", "coordinates": [ 76.882757081355862, 28.275785799967501 ] } },
{ "type": "Feature", "properties": { "cluster_id": "C9", "name": "FactoryCluster_auto_9", "node_type": "factory", "n_members": 2, "n_industrial": 2, "n_warehouse": 0, "member_names": "", "is_named_seed": false, "area_m2": 47588.922400151023 }, "geometry": { "type": "Point", "coordinates": [ 76.721553310604165, 28.293638740530699 ] } },
{ "type": "Feature", "properties": { "cluster_id": "C10", "name": "FactoryCluster_auto_10", "node_type": "factory", "n_members": 2, "n_industrial": 2, "n_warehouse": 0, "member_names": "", "is_named_seed": false, "area_m2": 46836.259863875064 }, "geometry": { "type": "Point", "coordinates": [ 76.833396996247018, 28.271763470390006 ] } },
{ "type": "Feature", "properties": { "cluster_id": "C11", "name": "FactoryCluster_auto_11", "node_type": "factory", "n_members": 2, "n_industrial": 2, "n_warehouse": 0, "member_names": "", "is_named_seed": false, "area_m2": 9524.5762344502255 }, "geometry": { "type": "Point", "coordinates": [ 76.878583243679785, 28.338049429786619 ] } },
{ "type": "Feature", "properties": { "cluster_id": "C12", "name": "FactoryCluster_auto_12", "node_type": "factory", "n_members": 2, "n_industrial": 2, "n_warehouse": 0, "member_names": "Kadipur Industrial Area", "is_named_seed": false, "area_m2": 1412150.5800651945 }, "geometry": { "type": "Point", "coordinates": [ 76.985023672038679, 28.45831744036413 ] } },
{ "type": "Feature", "properties": { "cluster_id": "C13", "name": "LogisticsCluster_auto_13", "node_type": "logistics", "n_members": 8, "n_industrial": 0, "n_warehouse": 8, "member_names": "", "is_named_seed": false, "area_m2": 33294.403223743873 }, "geometry": { "type": "Point", "coordinates": [ 76.952894058849523, 28.45089921132503 ] } },
{ "type": "Feature", "properties": { "cluster_id": "C14", "name": "LogisticsCluster_auto_14", "node_type": "logistics", "n_members": 8, "n_industrial": 0, "n_warehouse": 8, "member_names": "", "is_named_seed": false, "area_m2": 19909.12032329704 }, "geometry": { "type": "Point", "coordinates": [ 76.894396147970667, 28.426103438610543 ] } },
{ "type": "Feature", "properties": { "cluster_id": "C15", "name": "FactoryCluster_auto_15", "node_type": "factory", "n_members": 1, "n_industrial": 1, "n_warehouse": 0, "member_names": "", "is_named_seed": false, "area_m2": 1739695.1963423428 }, "geometry": { "type": "Point", "coordinates": [ 77.087454085054461, 28.509895070387799 ] } },
{ "type": "Feature", "properties": { "cluster_id": "C16", "name": "FactoryCluster_auto_16", "node_type": "factory", "n_members": 1, "n_industrial": 1, "n_warehouse": 0, "member_names": "", "is_named_seed": false, "area_m2": 162131.36050077033 }, "geometry": { "type": "Point", "coordinates": [ 77.053034440146263, 28.469874900766573 ] } },
{ "type": "Feature", "properties": { "cluster_id": "C17", "name": "FactoryCluster_auto_17", "node_type": "factory", "n_members": 1, "n_industrial": 1, "n_warehouse": 0, "member_names": "AtoTech", "is_named_seed": false, "area_m2": 13232.883504903284 }, "geometry": { "type": "Point", "coordinates": [ 76.823900793029097, 28.255725854799138 ] } },
{ "type": "Feature", "properties": { "cluster_id": "C18", "name": "FactoryCluster_auto_18", "node_type": "factory", "n_members": 1, "n_industrial": 1, "n_warehouse": 0, "member_names": "", "is_named_seed": false, "area_m2": 55170.40532639646 }, "geometry": { "type": "Point", "coordinates": [ 77.006712796056945, 28.455922935474952 ] } },
{ "type": "Feature", "properties": { "cluster_id": "C19", "name": "Sohna Industrial Area", "node_type": "factory", "n_members": 1, "n_industrial": 1, "n_warehouse": 0, "member_names": "", "is_named_seed": true, "area_m2": 33181.714925029162 }, "geometry": { "type": "Point", "coordinates": [ 77.08717778869206, 28.34548798600748 ] } },
{ "type": "Feature", "properties": { "cluster_id": "C20", "name": "FactoryCluster_auto_20", "node_type": "factory", "n_members": 1, "n_industrial": 1, "n_warehouse": 0, "member_names": "", "is_named_seed": false, "area_m2": 1427352.3090993173 }, "geometry": { "type": "Point", "coordinates": [ 76.87511533985726, 28.311230134596773 ] } },
{ "type": "Feature", "properties": { "cluster_id": "C21", "name": "FactoryCluster_auto_21", "node_type": "factory", "n_members": 1, "n_industrial": 1, "n_warehouse": 0, "member_names": "", "is_named_seed": false, "area_m2": 482355.74033278687 }, "geometry": { "type": "Point", "coordinates": [ 76.854228694963851, 28.396110937325151 ] } },
{ "type": "Feature", "properties": { "cluster_id": "C22", "name": "FactoryCluster_auto_22", "node_type": "factory", "n_members": 1, "n_industrial": 1, "n_warehouse": 0, "member_names": "", "is_named_seed": false, "area_m2": 1118462.6412904412 }, "geometry": { "type": "Point", "coordinates": [ 76.834336249511637, 28.380650897940672 ] } },
{ "type": "Feature", "properties": { "cluster_id": "C23", "name": "FactoryCluster_auto_23", "node_type": "factory", "n_members": 1, "n_industrial": 1, "n_warehouse": 0, "member_names": "", "is_named_seed": false, "area_m2": 139633.38940306319 }, "geometry": { "type": "Point", "coordinates": [ 77.001202198587166, 28.39338016698477 ] } },
{ "type": "Feature", "properties": { "cluster_id": "C24", "name": "FactoryCluster_auto_24", "node_type": "factory", "n_members": 1, "n_industrial": 1, "n_warehouse": 0, "member_names": "", "is_named_seed": false, "area_m2": 19468.659388660075 }, "geometry": { "type": "Point", "coordinates": [ 76.798114008342822, 28.320305166753759 ] } },
{ "type": "Feature", "properties": { "cluster_id": "C25", "name": "FactoryCluster_auto_25", "node_type": "factory", "n_members": 1, "n_industrial": 1, "n_warehouse": 0, "member_names": "indus", "is_named_seed": false, "area_m2": 40258.687366917497 }, "geometry": { "type": "Point", "coordinates": [ 77.070892742710981, 28.462764219059899 ] } },
{ "type": "Feature", "properties": { "cluster_id": "C26", "name": "Luhari Logistics Estate", "node_type": "logistics", "n_members": 1, "n_industrial": 1, "n_warehouse": 0, "member_names": "Vikas Spool Private Limted", "is_named_seed": true, "area_m2": 33399.291348362545 }, "geometry": { "type": "Point", "coordinates": [ 76.705718195790638, 28.405728490501783 ] } },
{ "type": "Feature", "properties": { "cluster_id": "C27", "name": "FactoryCluster_auto_27", "node_type": "factory", "n_members": 1, "n_industrial": 1, "n_warehouse": 0, "member_names": "", "is_named_seed": false, "area_m2": 726541.22663072229 }, "geometry": { "type": "Point", "coordinates": [ 76.980400315653611, 28.349835625350789 ] } },
{ "type": "Feature", "properties": { "cluster_id": "C28", "name": "FactoryCluster_auto_28", "node_type": "factory", "n_members": 1, "n_industrial": 1, "n_warehouse": 0, "member_names": "", "is_named_seed": false, "area_m2": 786467.36779278237 }, "geometry": { "type": "Point", "coordinates": [ 77.05372755477822, 28.298818992445597 ] } },
{ "type": "Feature", "properties": { "cluster_id": "C29", "name": "FactoryCluster_auto_29", "node_type": "factory", "n_members": 1, "n_industrial": 1, "n_warehouse": 0, "member_names": "", "is_named_seed": false, "area_m2": 233628.92030821095 }, "geometry": { "type": "Point", "coordinates": [ 76.924068975902969, 28.255482495220001 ] } },
{ "type": "Feature", "properties": { "cluster_id": "C30", "name": "FactoryCluster_auto_30", "node_type": "factory", "n_members": 1, "n_industrial": 1, "n_warehouse": 0, "member_names": "Maersk", "is_named_seed": false, "area_m2": 58592.676201967013 }, "geometry": { "type": "Point", "coordinates": [ 76.801069402958547, 28.433995175573969 ] } }
]
}
