{
"type": "FeatureCollection",
"name": "clusters",
"crs": { "type": "name", "properties": { "name": "urn:ogc:def:crs:OGC:1.3:CRS84" } },
"features": [
{ "type": "Feature", "properties": { "cluster_id": "C0", "name": "FactoryCluster_auto_0", "node_type": "factory", "n_members": 526, "n_industrial": 519, "n_warehouse": 7, "member_names": "FedEx Station 新竹站; TSMC Fab 12; TSMC Fab 20; TSMC R&D CENTER; TSMC headquarters; 一興化學工業; 一興國際化學; 三梅企業; 三皇化工; 三福氣體; 三福氣體 湖口廠; 三陽工業; 三陽工業 員工宿舍暨訓練中心; 三陽工業零件中心; 上品保利龍; 世瑩; 世禾科技; 世禾科技 光復廠; 世禾科技 四廠; 中升農機; 中國砂輪企業; 中國砂輪企業 竹北廠; 中國電器; 中日金屬化工; 中環科技大樓; 中發工業; 中華汽車工業 新竹工廠; 中西化學工業 新竹廠; 互力精密化學; 亞富科技; 亞崴機電股份有限公司; 亞泰半導體設備; 亞翔工程; 仁翔氣體; 佐藤製藥; 佳乳食品; 供水設施; 保力達 新竹廠; 信隆車料工業; 倫輝實業; 健亞生物科技; 健喬; 健喬信元醫藥生技; 健喬信元醫藥生技 健喬廠; 健喬信元醫藥生技 光復廠; 傳奇酒業; 億昇科技; 億聲工業; 儒成工業; 優美科薄膜材料; 優良化學製藥; 優陽材料科技; 允力工業; 元晶太陽能科技; 兆欣科技; 兆赫電子; 兆雲科技; 光頡科技; 內立工業區; 全家福比麵包湖口廠; 全興避震器; 六和金屬; 凱益; 前鼎光電; 創圓科技; 創技工業; 創技工業 二廠; 力成科技 3A; 力成科技 文化一廠; 力福; 加力興; 加國陽光能源科技; 千鴻電子; 協祥機械工業; 協祥機械工業 新竹二廠; 協祥機械工業 研發廠; 南港輪胎 新豐廠; 南茂科技; 南茂科技 湖口一廠; 南茂科技 竹北一廠; 南茂科技 竹北二廠; 博威電子; 博麟實業; 厚聲; 原廣科技; 友琍國際; 友發化工股份有限公司新竹廠; 台一國際; 台元科技園區; 台元紡織 竹北廠; 台光電子材料; 台惟工業; 台灣三菱化學; 台灣三菱電梯; 台灣中央精機; 台灣信越矽利光; 台灣唯綠包裝; 台灣富士電子材料; 台灣山葉機車新竹廠; 台灣帕卡可博; 台灣彌滿和; 台灣德亞瑪; 台灣揚析; 台灣日亞化學; 台灣日美; 台灣普利司通; 台灣普熙; 台灣松下多層材料; 台灣極水; 台灣水泥 台北水泥製品廠 新竹分廠; 台灣田中貴金屬工業; 台灣田中貴金屬工業股份有限公司; 台灣田邊製藥 新竹廠; 台灣盛禧奧; 台灣積水化成品; 台灣精星科技; 台灣耶馬都惠須龍; 台灣荏原精密; 台灣貝克休斯; 台灣資生堂 新竹工廠; 台灣近畿金屬; 台灣電容器 新豐廠; 台灣高絲; 台灣高美可科技; 台灣麥德美; 台燿科技; 台神工具; 台積電二、五廠; 台豐印刷電路工業; 同欣電子工業 竹北廠; 同禧實業; 向陽科技; 君立工業; 味島食品; 和淞科技; 哲良企業; 唐榮科技園區; 啟德機械起重工程; 啟資重機械出租堆高機企業; 四方自動化機械; 四維創新材料; 國產建材實業; 國碩科技工業; 國際聯合科技; 國靖金屬; 城東玻璃; 士林電機 新豐廠; 士林電機 重電廠; 士林電機 電裝廠; 夏諾科技; 多聯科技股份有限公司; 大享容器工業; 大全彩藝工業股份有限公司; 大冠商行; 大冶電子科技; 大同磁器股份有限公司; 大城輪胎機械; 大宇鋼鐵; 大川電腦回收; 大瑄科技; 大通食品企業; 大陽日酸系統科技; 天宇工業 竹北廠; 天弘化學; 天弘化學 新竹二廠; 天益齒輪; 天虹科技; 奇鈦科技; 奇鼎科技; 奈司特技術; 奈晶科技; 奎欣企業; 妙潔企業商行; 威富光電; 威爾司科技; 安和金屬; 宏力生化科技股份有限公司; 宏田鋼鐵; 富士達; 富昇玻璃; 富泰空調科技; 富泰空調科技 二廠; 寬度科技; 寰邦科技; 寶坤化學工業; 居易科技; 屏榮食品 新豐廠; 展宇科技材料; 展宇科技材料 第三廠; 山太士; 岩田友嘉精機; 崇德照明; 崇文科技; 崇越石英製造廠; 崧智科技; 巍昌兄弟; 帆宣系統科技; 帝爾特企業; 常宏興業 新豐廠; 康峰; 康普材料科技; 廣之鄉食品; 廣大保利龍; 建成機械; 建權玻璃開發; 弘潔科技; 後大實業; 復盛精密 湖口廠; 德亞樹脂; 德揚科技; 德謙企業; 必翔電能高科技; 志同塑膠工業; 志同實業 二廠; 恆顥科技; 恩良企業; 恩良企業 竹北廠; 惠豐化工廠; 意全食品; 愛德萬測試; 慧榮科技竹北總部; 成利欣工業; 振曜科技; 捷盟工業; 敏森科技; 新三興; 新亞洲製刀; 新埔鎮公所清潔隊; 新燕企業; 新竹客運 修車廠; 新竹物流; 新竹生物醫學園區; 新竹產業園區; 新竹科學園區; 新竹縣國際AI智慧園區; 新能光電科技; 日揚科技 湖口廠; 日鼎; 旭德科技; 旭德科技 優美廠; 旭源包裝科技; 旺矽科技 新埔廠; 旺矽科技 湖口三廠; 旺矽科技 竹北三廠; 昌億汽車; 昌昱科技; 昌益科技產發園區; 明台化工 湖口廠; 明遠精密科技; 易生堂; 昭和興精機; 晃誼科技; 晧晟實業; 普生竹創大樓; 晶兆成科技; 晶兆成科技 P2廠; 晶彩科技; 晶禾光電; 智邦科技 竹北AI園區; 朝陽電裝; 東元電機; 東昀綠能再生; 東海米; 東義科技; 東華合纖; 榮創能源科技; 榮技實業; 榮璋工業; 榮錦塑膠工業; 樂清倉庫; 櫻宮化學; 權亞石材; 欣興電子 光復廠; 欣興電子新豐廠; 欣銓科技; 歐帕生技醫藥; 正文科技湖口廠; 毛寶; 永信容器工業; 永大順; 永太發汽車車體板金; 永豐林建材事業; 汙水及配水廠; 泉辰; 泓格科技; 泓格科技 湖口二廠; 泰夌企業; 添鴻; 添鴻科技; 清惠光電; 清惠實業; 清晰科技; 湖口鄉公所清潔隊; 潤昇系統測試; 濟生健康文化館; 濟生醫藥生技; 為同科技; 特耐第國際; 犁頭山配水池加壓站; 王子製藥 新竹廠; 瑞士遠東; 瑞林電機; 瑞耘科技; 瑩光化學; 登揚營造 竹北料廠; 白金科技 湖口廠; 百傑電子科技; 益得生物科技; 盛翔紙器; 矽格; 磐昌科技企業公司; 祥德科技; 福星機電; 禾峰國際貿易; 禾邑; 科學城物流; 科治新技; 秦岱; 穩好高分子化學工業; 立州油脂; 立捷國際; 立達鋼鐵; 立鑽工業; 竹北市清潔隊; 竹大機電; 竹永成精密; 竹金倉儲; 精中電企業; 精密聚合; 精鈺金屬工業; 精銘塑膠; 納爾科; 統立環保工程; 經濟部經貿人員培訓所; 緯創全球營運總部; 緯創資通 竹北AI二廠; 美強光學; 群力科技; 群浤科技 仁義厰; 翔勝企業; 翔泓科技; 耕興; 聚昌科技; 聯亞生技開發; 聯亞科技; 聯合科技大樓; 聯城工業; 聯怡耐火陶瓷; 聯茂電子 新埔廠; 聯華氣體工業; 肥料倉庫; 致伸科技 台灣創新中心; 致佳科技; 致揚科技; 臺灣得力電化; 臻宏; 興祥機械工程; 興達隆交通; 艾克爾先進科技; 艾克爾國際科技; 花王(台灣); 芳程; 英屬開曼群島商壹久科技; 華上光電 二廠; 華上光電一廠; 華健醫藥生技; 華友材料科技; 華淵電機工業; 華科食品; 華立捷科技; 華邦電子竹北大樓; 薪宇科技; 號誌繼電器室; 虹鳴科技; 裕器工業; 裕鑫工業; 詮達; 誠遠科技; 誼虹科技; 豐裕; 豪成科技; 豪門彩色印刷事業; 豪門彩色印刷事業 （二廠）; 輝瑞生技 新竹廠; 辛耘企業; 辰義企業社; 通盈通運; 進富摃丸; 進猷塑膠; 逸典科技; 道達爾潤滑油; 達運精密工業; 達邁科技; 遠志工業; 遠東新世紀公司化纖總廠; 遠東新世紀公司湖口廠; 邁萃斯精密; 配水池; 采達石材; 金兆益科技; 金埕; 金澤金屬科技; 銀荷光電; 錫安生物科技公司; 錫宬國際; 錸寶科技; 錸德科技; 錸德科技 新竹三廠; 錸鑫精密; 鎵興國際 新豐中崙一館; 長春人造樹脂廠; 長榮鋼鐵; 長洪資源回收; 長瀛; 隆山元工業; 雅信鑄造; 青春泉食品; 頎邦科技 光復廠; 頭前溪隆恩堰引水分水工; 香澤實業; 高展起重工程行; 鳳山工業區; 鴻發精密; 鴻谷科技", "is_named_seed": false, "area_m2": 19068731.073681545 }, "geometry": { "type": "Point", "coordinates": [ 121.021014132808958, 24.854814194563307 ] } },
{ "type": "Feature", "properties": { "cluster_id": "C1", "name": "FactoryCluster_auto_1", "node_type": "factory", "n_members": 8, "n_industrial": 8, "n_warehouse": 0, "member_names": "三福氣體觀音一廠; 亞東工業氣體; 台唐工業; 台灣科慕觀音廠; 新光鋼鐵觀音廠; 瑞智精密; 觀音產業園區; 觀音香素食", "is_named_seed": false, "area_m2": 6752129.7681121081 }, "geometry": { "type": "Point", "coordinates": [ 121.111253579754148, 25.047882323277406 ] } },
{ "type": "Feature", "properties": { "cluster_id": "C2", "name": "FactoryCluster_auto_2", "node_type": "factory", "n_members": 589, "n_industrial": 529, "n_warehouse": 60, "member_names": "3M 大園物流中心; AXALTA; BMW整備中心; DENSO台灣電綜; DKSH大昌華嘉; GFC崇有實業; HONDA台灣先進捷通; Needleless尼得立斯; Rinnai台灣林內工業; T4大蕃薯木作坊; Toyota國瑞汽車中壢廠; Vita Electronics; YKK 台灣華可貴; momo購物網倉庫; pchome八德物流中心; 三和紙業; 上典工業; 世兆鋁業; 中台橡膠工業; 中壢產業園區; 中壢鐵道五號倉庫; 中油加油站龍岡站; 中祥食品; 中航物流; 中航物流怡聯前場; 中華台亞公司; 中華電信器材場; 中華電信研究院; 中華電線電纜; 乖乖公司; 九麗實業; 五傳木業有限公司; 亞通客運龍潭站; 仁寶電腦平鎮廠; 仁隆毛紡織廠股份有限公司埔心廠; 佃益五金; 信昌機械廠股份有限公司; 信通交通器材龍潭一廠; 光隆實業; 冠格科技; 利華羊毛; 制宜電測; 功學社; 功成資本物流中心; 加揚實業; 勝宏實業大園廠; 勝昌製藥; 勝財飼料有限公司; 協成國際; 厚生科技工業園區; 友晶精密; 友達 龍科廠; 台一國際 - 觀音廠; 台北營運處桃園營運中心基維三股; 台技塑膠公司平鎮廠; 台泥中壢二廠; 台灣中油; 台灣山葉; 台灣山葉機車; 台灣杜邦; 台灣東電化楊梅廠; 台裕橡膠; 台達電子平鎮廠; 台鈴工業平鎮廠; 台鋁金屬; 台電電料堆置區; 合晶科技; 合晶科技 龍潭廠; 和友紡織; 和友紡織 - 二廠; 和昌國際工業股份有限公司楊梅廠; 和泰企業; 和群纖維股份有限公司; 啟銘機械; 嘉德晶光電公司; 嘉耐股份; 嘉韡工業; 國產建材實業股份有限公司中壢廠; 國軍同德彈藥及戰備物資中心; 國達電子; 園亨鋼鐵; 圓基國際廠與呈圓企業; 基隆關稅局桃園分局; 大東電業廠; 大研金屬; 大竹工業區; 大陸工程-埔頂環保; 太平洋電線電纜楊梅廠; 宏全合板有限公司; 宏致電子; 宗茂企業; 家樂福(忠富倉庫); 家樂福楊梅物流中心; 富達航太; 山立通運公司; 峻新電腦公司; 崙坪工業區; 崙坪高頻監測站; 崧良機電工程有限公司; 帝宏膠業; 平鎮工業城工業園區; 平鎮產業園區; 平鎮給水廠; 幸福水泥股份有限公司埔心廠; 廣源機械; 建得櫃場空櫃場; 建承電機; 弘帆工業; 弘誠興業; 得佑電子; 復旦工業城; 微邦科技; 怡發金屬工業; 恆輪實業; 慶機實業; 憶聲智匯科技園區; 手信坊; 技嘉科技; 政福鋼鐵; 新光合成纖維中壢廠; 新光園區; 新竹物流 - 新富倉庫; 新竹物流股份有限公司平鎮營業所; 日月光半導體中壢廠; 昌達陶瓷; 明嘉生物; 明星精密有限公司廠房; 易鼎公司; 春源鋼鐵; 有宸科技; 東亞楊梅運輸部; 東元機電公司中壢廠; 東培工業; 松林國際木業有限公司; 桃園客運龍潭新站; 桃園市南區垃圾焚化廠; 桃園市政府水務局防汛場; 桃園幼獅產業園區; 森邦集團公司; 榮民製藥廠; 欣興電子中園廠; 欣興電子合江二廠; 欣興電子合江廠; 欣華揚; 欣詮; 欣隆倉儲物流; 欣鴻科技; 正隆 大園紙器廠; 正隆-大園紙器二廠; 永全倉儲物流; 永聯物流  OMEGA 2  楊梅; 永隆鋼鐵股份有限公司; 泰毓電子; 泰電電業; 清淨海生技股份有限公司; 瀧澤科技楊梅廠; 烏樹林工業區; 營豐環保工程有限公司; 瑞健科技; 瑞泰纖維工業; 璐瑪企業; 環球車輛檢測公司-桃園廠; 白馬窯業股份有限公司; 百福林; 百豪電子; 益佶泰機械; 益森彩藝工業公司; 石門淨水場; 祥翊製藥; 福佑木業; 福保化學; 福特六和汽車; 福邦工業股份有限公司; 竹科龍潭園區; 米其林馳加汽車服務中心-安勇青埔店; 米格國際公司(Lativ); 紘慶實業股份有限公司; 統一企業股份有限公司; 絲竹樂有限公司; 經國消防工程; 維輪實業; 美亞鋼管埔心總廠; 聚賓機械; 聯成金屬; 聯昌塑膠; 臺灣國際航電公司; 興豐工業城; 艾克發工業園區; 英業達桃園科技園區; 華揚; 華通電腦; 葡萄王生技; 葡萄王生技(股)公司; 蛋寶生技不老村; 見安石材; 豐宇綠能; 連結機械; 進芳五金; 達邡化工; 遠東企業研發中心; 邱信達機械公司; 鄭康特殊鋼公司; 采鈺科技; 金力誠汽車; 金蘭醬油; 金車; 金車公司平鎮廠; 鈞宏科技; 鉅曜科技; 鉅祥企業; 銓信工業; 錦鋐氣密窗; 鎮田機械; 鎰薪企業有限公司; 鑫茂環保; 長榮貨櫃公司; 長興電機; 高林縫紉; 高端動能; 鼎朋企業; 鼎祥大工程; 龍田工業大鎮", "is_named_seed": false, "area_m2": 17884896.262035251 }, "geometry": { "type": "Point", "coordinates": [ 121.225001404112419, 24.969144526398654 ] } },
{ "type": "Feature", "properties": { "cluster_id": "C3", "name": "FactoryCluster_auto_3", "node_type": "factory", "n_members": 21, "n_industrial": 21, "n_warehouse": 0, "member_names": "中國製釉; 工業技術研究院; 搏盟科技; 欣興光電園區; 盛虹科技園區; 矽晶電子竹東廠", "is_named_seed": false, "area_m2": 609411.57957016723 }, "geometry": { "type": "Point", "coordinates": [ 121.047097257499544, 24.770536975393533 ] } },
{ "type": "Feature", "properties": { "cluster_id": "C4", "name": "FactoryCluster_auto_4", "node_type": "factory", "n_members": 29, "n_industrial": 27, "n_warehouse": 2, "member_names": "上森實業; 中華電信; 仁儀企業; 利汎科技; 友達光電; 台全電機公司; 台灣眾鑫企業; 台電電料堆置場; 嘉謚科技; 安捷; 宏關發電廠預定地; 尚美實業; 新桃電廠; 東庚實業; 東武精機; 渴望工業區; 玉禮實業; 玖宜; 美達工業區; 華映; 詠業科技; 雄獅鉛筆廠股份有限公司(龍潭廠); 高原工業區; 黛安芬國際股份有限公司", "is_named_seed": false, "area_m2": 1612566.1227171537 }, "geometry": { "type": "Point", "coordinates": [ 121.18658620196797, 24.830872759415922 ] } },
{ "type": "Feature", "properties": { "cluster_id": "C5", "name": "FactoryCluster_auto_5", "node_type": "factory", "n_members": 34, "n_industrial": 28, "n_warehouse": 6, "member_names": "IKEA物流中心; 全順物流; 台電北部儲運中心; 台電大潭發電廠; 大洋塑膠工業新屋廠; 大潭濱海特定工業區; 大潭發電廠; 好市多觀音物流中心; 桃園客運觀音站; 桃園環保科技園區; 桃園科技工業園區; 變電所; 高銀化學工業(土地遭汙染)", "is_named_seed": false, "area_m2": 6555593.1663095187 }, "geometry": { "type": "Point", "coordinates": [ 121.06927574084547, 25.029911903876201 ] } },
{ "type": "Feature", "properties": { "cluster_id": "C6", "name": "FactoryCluster_auto_6", "node_type": "factory", "n_members": 24, "n_industrial": 24, "n_warehouse": 0, "member_names": "協明化工新光廠; 回春堂製藥; 旭明光電新屋廠 / (舊)力太電子廠房; 清記實業; 精確實業桃園廠", "is_named_seed": false, "area_m2": 505487.57570166327 }, "geometry": { "type": "Point", "coordinates": [ 121.089272450109647, 24.96716355385793 ] } },
{ "type": "Feature", "properties": { "cluster_id": "C7", "name": "FactoryCluster_auto_7", "node_type": "factory", "n_members": 7, "n_industrial": 7, "n_warehouse": 0, "member_names": "中油資源莊; 台灣中油 鑽探工程處; 山健包裝; 衍慶工業社; 超慧科技", "is_named_seed": false, "area_m2": 252216.2527886953 }, "geometry": { "type": "Point", "coordinates": [ 121.100385368510942, 24.72926390068293 ] } },
{ "type": "Feature", "properties": { "cluster_id": "C8", "name": "FactoryCluster_auto_8", "node_type": "factory", "n_members": 8, "n_industrial": 6, "n_warehouse": 2, "member_names": "中興化纖; 中華汽車楊梅廠; 大健康物流; 安達康科技; 江申工業", "is_named_seed": false, "area_m2": 590084.38616269012 }, "geometry": { "type": "Point", "coordinates": [ 121.137125210293746, 24.90009854401864 ] } },
{ "type": "Feature", "properties": { "cluster_id": "C9", "name": "FactoryCluster_auto_9", "node_type": "factory", "n_members": 5, "n_industrial": 5, "n_warehouse": 0, "member_names": "台灣精材股份有限公司; 統一企業公司湖口總廠", "is_named_seed": false, "area_m2": 292957.50059962337 }, "geometry": { "type": "Point", "coordinates": [ 121.099379857969467, 24.885307108838919 ] } },
{ "type": "Feature", "properties": { "cluster_id": "C10", "name": "FactoryCluster_auto_10", "node_type": "factory", "n_members": 4, "n_industrial": 4, "n_warehouse": 0, "member_names": "富岡鐵軌鋼軌儲存場; 民富工業區", "is_named_seed": false, "area_m2": 189008.83925788352 }, "geometry": { "type": "Point", "coordinates": [ 121.098417872700395, 24.931895041234053 ] } },
{ "type": "Feature", "properties": { "cluster_id": "C11", "name": "FactoryCluster_auto_11", "node_type": "factory", "n_members": 5, "n_industrial": 3, "n_warehouse": 2, "member_names": "仁寶電腦工業股份有限公司觀音廠; 倉庫; 東元電機股份有限公司觀音廠; 石梅化學工業股份有限公司", "is_named_seed": false, "area_m2": 226587.42004911843 }, "geometry": { "type": "Point", "coordinates": [ 121.119322802391039, 25.025133581011872 ] } },
{ "type": "Feature", "properties": { "cluster_id": "C12", "name": "FactoryCluster_auto_12", "node_type": "factory", "n_members": 2, "n_industrial": 2, "n_warehouse": 0, "member_names": "景碩科技石磊廠; 聯成鋼鐵公司", "is_named_seed": false, "area_m2": 76716.374934775697 }, "geometry": { "type": "Point", "coordinates": [ 121.101325038708666, 24.99141826388578 ] } },
{ "type": "Feature", "properties": { "cluster_id": "C13", "name": "FactoryCluster_auto_13", "node_type": "factory", "n_members": 3, "n_industrial": 3, "n_warehouse": 0, "member_names": "久聯化學工業股份有限公司; 新普科技股份有限公司; 湖口鄉農會農產加工廠", "is_named_seed": false, "area_m2": 105640.06390510121 }, "geometry": { "type": "Point", "coordinates": [ 121.074784632166683, 24.882167247517852 ] } },
{ "type": "Feature", "properties": { "cluster_id": "C14", "name": "FactoryCluster_auto_14", "node_type": "factory", "n_members": 6, "n_industrial": 6, "n_warehouse": 0, "member_names": "九鼎鋁業; 士林紙業公司永安廠; 永安產業園區; 永豐餘工業用紙公司新屋廠", "is_named_seed": false, "area_m2": 872682.70642663946 }, "geometry": { "type": "Point", "coordinates": [ 121.040038064846698, 24.974373611569924 ] } },
{ "type": "Feature", "properties": { "cluster_id": "C15", "name": "FactoryCluster_auto_15", "node_type": "factory", "n_members": 4, "n_industrial": 4, "n_warehouse": 0, "member_names": "台灣松下電器; 大溪淨水場; 秀波電子 大溪廠; 視航科技", "is_named_seed": false, "area_m2": 73447.698085708602 }, "geometry": { "type": "Point", "coordinates": [ 121.297257936915898, 24.885438393826014 ] } },
{ "type": "Feature", "properties": { "cluster_id": "C16", "name": "FactoryCluster_auto_16", "node_type": "factory", "n_members": 3, "n_industrial": 2, "n_warehouse": 1, "member_names": "DHL; 大園南港地區自來水水塔; 聯程工業股份有限公司", "is_named_seed": false, "area_m2": 14369.608381603843 }, "geometry": { "type": "Point", "coordinates": [ 121.175894223278618, 25.048359597661602 ] } },
{ "type": "Feature", "properties": { "cluster_id": "C17", "name": "FactoryCluster_auto_17", "node_type": "factory", "n_members": 4, "n_industrial": 3, "n_warehouse": 1, "member_names": "大漢酵素新屋廠; 楊高變電所; 物流共和國楊梅園區", "is_named_seed": false, "area_m2": 117867.72630289797 }, "geometry": { "type": "Point", "coordinates": [ 121.126123930691705, 24.945876140152283 ] } },
{ "type": "Feature", "properties": { "cluster_id": "C18", "name": "FactoryCluster_auto_18", "node_type": "factory", "n_members": 5, "n_industrial": 4, "n_warehouse": 1, "member_names": "黑貓宅急便中壢轉運中心", "is_named_seed": false, "area_m2": 209756.21435004214 }, "geometry": { "type": "Point", "coordinates": [ 121.222474761982284, 24.982396362359907 ] } },
{ "type": "Feature", "properties": { "cluster_id": "C19", "name": "FactoryCluster_auto_19", "node_type": "factory", "n_members": 20, "n_industrial": 20, "n_warehouse": 0, "member_names": "三和技研; 五華工業區; 冠昇光學; 台星科股; 合擎公司; 名超企業; 喜提達物流; 國均環保科技; 圓福興業; 大安鋁業; 大政食品; 嵩鎔精密工業; 弘馳公司; 恆力科技; 日越電子; 旭申實業 新竹廠; 營臺實業; 禾錦豐實業; 薩摩亞商坤申科技; 銓葳重機工業", "is_named_seed": false, "area_m2": 491946.55799189676 }, "geometry": { "type": "Point", "coordinates": [ 121.130815538489955, 24.74004297378541 ] } },
{ "type": "Feature", "properties": { "cluster_id": "C20", "name": "FactoryCluster_auto_20", "node_type": "factory", "n_members": 2, "n_industrial": 2, "n_warehouse": 0, "member_names": "", "is_named_seed": false, "area_m2": 16492.834824590595 }, "geometry": { "type": "Point", "coordinates": [ 121.095661075386317, 24.749370796333537 ] } },
{ "type": "Feature", "properties": { "cluster_id": "C21", "name": "FactoryCluster_auto_21", "node_type": "factory", "n_members": 2, "n_industrial": 2, "n_warehouse": 0, "member_names": "翊生科技; 誠毅", "is_named_seed": false, "area_m2": 18000.907929864788 }, "geometry": { "type": "Point", "coordinates": [ 121.00719564584665, 24.932051651009566 ] } },
{ "type": "Feature", "properties": { "cluster_id": "C22", "name": "FactoryCluster_auto_22", "node_type": "factory", "n_members": 1, "n_industrial": 1, "n_warehouse": 0, "member_names": "龍潭給水廠", "is_named_seed": false, "area_m2": 69569.287390135476 }, "geometry": { "type": "Point", "coordinates": [ 121.241030771210021, 24.846302162913851 ] } },
{ "type": "Feature", "properties": { "cluster_id": "C23", "name": "FactoryCluster_auto_23", "node_type": "factory", "n_members": 1, "n_industrial": 1, "n_warehouse": 0, "member_names": "亞洲水泥公司 新竹廠", "is_named_seed": false, "area_m2": 117527.13956150338 }, "geometry": { "type": "Point", "coordinates": [ 121.137863072781116, 24.721747215558342 ] } },
{ "type": "Feature", "properties": { "cluster_id": "C24", "name": "FactoryCluster_auto_24", "node_type": "factory", "n_members": 1, "n_industrial": 1, "n_warehouse": 0, "member_names": "關西鎮農會仙草加工廠", "is_named_seed": false, "area_m2": 8969.1234324312409 }, "geometry": { "type": "Point", "coordinates": [ 121.162446950826492, 24.802907866563054 ] } },
{ "type": "Feature", "properties": { "cluster_id": "C25", "name": "FactoryCluster_auto_25", "node_type": "factory", "n_members": 1, "n_industrial": 1, "n_warehouse": 0, "member_names": "", "is_named_seed": false, "area_m2": 10083.800403023019 }, "geometry": { "type": "Point", "coordinates": [ 121.011403969644235, 24.915438673895473 ] } },
{ "type": "Feature", "properties": { "cluster_id": "C26", "name": "FactoryCluster_auto_26", "node_type": "factory", "n_members": 1, "n_industrial": 1, "n_warehouse": 0, "member_names": "康郡工業園區", "is_named_seed": false, "area_m2": 49617.225768882709 }, "geometry": { "type": "Point", "coordinates": [ 121.263541102221751, 24.857880488631412 ] } },
{ "type": "Feature", "properties": { "cluster_id": "C27", "name": "FactoryCluster_auto_27", "node_type": "factory", "n_members": 1, "n_industrial": 1, "n_warehouse": 0, "member_names": "", "is_named_seed": false, "area_m2": 1337.6906195549716 }, "geometry": { "type": "Point", "coordinates": [ 121.252052942791991, 24.81270202082661 ] } },
{ "type": "Feature", "properties": { "cluster_id": "C28", "name": "FactoryCluster_auto_28", "node_type": "factory", "n_members": 1, "n_industrial": 1, "n_warehouse": 0, "member_names": "詠崧窯業", "is_named_seed": false, "area_m2": 41535.233832263548 }, "geometry": { "type": "Point", "coordinates": [ 121.114071527713861, 24.708483036187417 ] } },
{ "type": "Feature", "properties": { "cluster_id": "C29", "name": "FactoryCluster_auto_29", "node_type": "factory", "n_members": 1, "n_industrial": 1, "n_warehouse": 0, "member_names": "", "is_named_seed": false, "area_m2": 36685.093541991853 }, "geometry": { "type": "Point", "coordinates": [ 121.040899961141591, 24.706007565478014 ] } },
{ "type": "Feature", "properties": { "cluster_id": "C30", "name": "FactoryCluster_auto_30", "node_type": "factory", "n_members": 1, "n_industrial": 1, "n_warehouse": 0, "member_names": "", "is_named_seed": false, "area_m2": 68894.62757575509 }, "geometry": { "type": "Point", "coordinates": [ 121.201673916852414, 24.973496233874837 ] } },
{ "type": "Feature", "properties": { "cluster_id": "C31", "name": "FactoryCluster_auto_31", "node_type": "factory", "n_members": 1, "n_industrial": 1, "n_warehouse": 0, "member_names": "", "is_named_seed": false, "area_m2": 4889.1631512304975 }, "geometry": { "type": "Point", "coordinates": [ 121.191482038532726, 25.01051060970304 ] } },
{ "type": "Feature", "properties": { "cluster_id": "C32", "name": "LogisticsCluster_auto_32", "node_type": "logistics", "n_members": 1, "n_industrial": 0, "n_warehouse": 1, "member_names": "泳盛食品", "is_named_seed": false, "area_m2": 3566.1569471574458 }, "geometry": { "type": "Point", "coordinates": [ 121.121259699419554, 24.999987450511583 ] } }
]
}
