{
"type": "FeatureCollection",
"name": "disaster_repair_lots",
"crs": { "type": "name", "properties": { "name": "urn:ogc:def:crs:OGC:1.3:CRS84" } },
"features": [
{ "type": "Feature", "properties": { "lot_id": "L0", "segment_ids": "S11", "n_segments": 1, "length_total_m": 501.63994355592962, "duration_days": 2, "primary_corridor_id": "1", "hard_disaster": false, "hard_metapath": false, "hard": false, "cost_k": 501.63994355592962, "impact_weight_k": 0.0 }, "geometry": { "type": "LineString", "coordinates": [ [ 121.293392, 25.0349496 ], [ 121.2936994, 25.0351873 ], [ 121.2942257, 25.0355133 ], [ 121.2974535, 25.0375565 ] ] } },
{ "type": "Feature", "properties": { "lot_id": "L1", "segment_ids": "S28", "n_segments": 1, "length_total_m": 304.25883671898538, "duration_days": 1, "primary_corridor_id": "機場系統交流道", "hard_disaster": false, "hard_metapath": false, "hard": false, "cost_k": 304.25883671898538, "impact_weight_k": 0.0 }, "geometry": { "type": "LineString", "coordinates": [ [ 121.2682171, 25.0254833 ], [ 121.268934, 25.0247083 ], [ 121.2691889, 25.0243946 ], [ 121.269387, 25.0241364 ], [ 121.2695715, 25.0238419 ], [ 121.2697686, 25.0234485 ], [ 121.2698528, 25.0232101 ] ] } },
{ "type": "Feature", "properties": { "lot_id": "L2", "segment_ids": "S1068; S1069; S258; S29; S30; S354; S484", "n_segments": 7, "length_total_m": 7630.4186708369007, "duration_days": 26, "primary_corridor_id": "大溪交流道", "hard_disaster": true, "hard_metapath": false, "hard": true, "cost_k": 7630.4186708369007, "impact_weight_k": 0.0 }, "geometry": { "type": "MultiLineString", "coordinates": [ [ [ 121.2675058, 24.8982939 ], [ 121.2673902, 24.8981966 ], [ 121.2671998, 24.8979727 ], [ 121.2669203, 24.8976001 ], [ 121.2666014, 24.8971291 ], [ 121.2663707, 24.8966532 ], [ 121.2661321, 24.8961393 ], [ 121.2657995, 24.8955639 ], [ 121.2655315, 24.8950598 ] ], [ [ 121.2675058, 24.8982939 ], [ 121.2674063, 24.8981382 ], [ 121.2670549, 24.8976176 ], [ 121.2667264, 24.8970932 ], [ 121.2664604, 24.896629 ], [ 121.2658388, 24.8954914 ], [ 121.2656389, 24.8950972 ], [ 121.2650795, 24.8939824 ], [ 121.2648281, 24.8935833 ], [ 121.2646429, 24.893402 ], [ 121.2644497, 24.8932636 ], [ 121.2642193, 24.8931605 ], [ 121.2639899, 24.8930876 ], [ 121.2637168, 24.8930824 ], [ 121.263462, 24.893098 ], [ 121.2632458, 24.8931564 ], [ 121.263033, 24.8932423 ], [ 121.2628384, 24.893357 ], [ 121.2626454, 24.8935121 ], [ 121.2625283, 24.8936425 ], [ 121.262364, 24.8939143 ], [ 121.2622397, 24.8941572 ], [ 121.2621552, 24.8943682 ], [ 121.262056, 24.8947724 ], [ 121.2619951, 24.8951869 ], [ 121.2619606, 24.8955401 ], [ 121.2619631, 24.8958333 ], [ 121.2619906, 24.8960723 ], [ 121.2620732, 24.8965532 ], [ 121.2621182, 24.8967581 ], [ 121.2621488, 24.89695 ], [ 121.2621545, 24.8971097 ], [ 121.2621542, 24.8972783 ], [ 121.2621449, 24.897378 ], [ 121.2621205, 24.8974681 ], [ 121.262062, 24.8976353 ], [ 121.2619893, 24.8977808 ], [ 121.2618767, 24.8979249 ], [ 121.2617495, 24.8980379 ], [ 121.2615537, 24.898174 ], [ 121.2613637, 24.898259 ], [ 121.2612145, 24.8983036 ], [ 121.2609802, 24.8983536 ], [ 121.2606148, 24.8983837 ], [ 121.2601359, 24.8984212 ], [ 121.2592784, 24.89848 ], [ 121.2581876, 24.8985505 ], [ 121.2577333, 24.8985393 ], [ 121.2574577, 24.898527 ], [ 121.2568435, 24.8985154 ] ], [ [ 121.2767149, 24.9057734 ], [ 121.2766304, 24.905885 ] ], [ [ 121.2704202, 24.9014036 ], [ 121.269961, 24.9010166 ], [ 121.2690756, 24.900086 ], [ 121.2685723, 24.8995552 ], [ 121.2682403, 24.8991879 ], [ 121.2678829, 24.8987627 ], [ 121.2676315, 24.8984522 ], [ 121.2675058, 24.8982939 ] ], [ [ 121.2704202, 24.9014036 ], [ 121.2699499, 24.90088 ], [ 121.2686149, 24.899403 ], [ 121.2680346, 24.8986673 ], [ 121.2677676, 24.8982966 ], [ 121.2674059, 24.8977752 ], [ 121.2669219, 24.8970563 ], [ 121.2663752, 24.8961659 ], [ 121.2659859, 24.8954365 ], [ 121.2657984, 24.8950264 ], [ 121.2655771, 24.8945824 ], [ 121.2649916, 24.8933838 ], [ 121.264717, 24.8927552 ], [ 121.2644544, 24.8922188 ], [ 121.2641773, 24.8915801 ], [ 121.263683, 24.8904716 ], [ 121.2633312, 24.8897095 ], [ 121.2631601, 24.8893443 ], [ 121.2630472, 24.8891217 ], [ 121.2620391, 24.8873186 ], [ 121.2617942, 24.8869368 ] ], [ [ 121.2568435, 24.8985154 ], [ 121.2563506, 24.8985507 ], [ 121.2557174, 24.898579 ], [ 121.2548393, 24.8986205 ], [ 121.2539128, 24.8986654 ], [ 121.2535025, 24.8986839 ], [ 121.2532845, 24.8986992 ], [ 121.2530792, 24.8987308 ], [ 121.2527477, 24.8987823 ], [ 121.2524138, 24.8988326 ], [ 121.2520646, 24.8988667 ], [ 121.2507716, 24.8989372 ], [ 121.2498534, 24.8989774 ], [ 121.2488818, 24.8990532 ], [ 121.2468986, 24.8991856 ], [ 121.2458716, 24.8992964 ], [ 121.2453407, 24.8993381 ], [ 121.2448204, 24.8993831 ], [ 121.2445196, 24.8994184 ], [ 121.2435199, 24.8995342 ], [ 121.2428736, 24.89963 ], [ 121.2422559, 24.8997647 ], [ 121.2411119, 24.9000683 ], [ 121.2401702, 24.9003027 ], [ 121.2387444, 24.9008434 ], [ 121.2380516, 24.9011245 ], [ 121.2373936, 24.901418 ], [ 121.2369982, 24.9016084 ], [ 121.23662, 24.9018312 ], [ 121.2360601, 24.9021446 ], [ 121.2355178, 24.9024656 ] ], [ [ 121.2766304, 24.905885 ], [ 121.2759772, 24.9055673 ], [ 121.2756204, 24.9053809 ], [ 121.2751306, 24.9050966 ], [ 121.2741017, 24.9044286 ], [ 121.2735219, 24.9040706 ], [ 121.2729687, 24.9036225 ], [ 121.2714558, 24.9023816 ], [ 121.2705823, 24.901556 ], [ 121.2704202, 24.9014036 ] ] ] } },
{ "type": "Feature", "properties": { "lot_id": "L3", "segment_ids": "S33", "n_segments": 1, "length_total_m": 981.80296749725289, "duration_days": 2, "primary_corridor_id": "3", "hard_disaster": false, "hard_metapath": false, "hard": false, "cost_k": 981.80296749725289, "impact_weight_k": 0.0 }, "geometry": { "type": "LineString", "coordinates": [ [ 121.1991324, 24.8434367 ], [ 121.1990734, 24.8429633 ], [ 121.1990117, 24.8423098 ], [ 121.1989755, 24.8416927 ], [ 121.1989683, 24.8412672 ], [ 121.1989655, 24.8402499 ], [ 121.1989879, 24.839646 ], [ 121.1990245, 24.8386847 ], [ 121.1990348, 24.8381044 ], [ 121.1990701, 24.8372925 ], [ 121.1991156, 24.8365404 ], [ 121.1992445, 24.8346198 ] ] } },
{ "type": "Feature", "properties": { "lot_id": "L4", "segment_ids": "S51", "n_segments": 1, "length_total_m": 4097.0353344714458, "duration_days": 41, "primary_corridor_id": "3", "hard_disaster": true, "hard_metapath": false, "hard": true, "cost_k": 4097.0353344714458, "impact_weight_k": 0.0 }, "geometry": { "type": "LineString", "coordinates": [ [ 121.2207506, 24.86942 ], [ 121.2208875, 24.8694679 ], [ 121.2214361, 24.8696962 ], [ 121.2216619, 24.8697863 ], [ 121.221994, 24.8699247 ], [ 121.2228381, 24.8702848 ], [ 121.2228783, 24.8702993 ], [ 121.22309, 24.8703919 ], [ 121.2233335, 24.8705037 ], [ 121.2238948, 24.8707347 ], [ 121.2243257, 24.8709391 ], [ 121.2250949, 24.8712628 ], [ 121.2252641, 24.8713388 ], [ 121.2253668, 24.871375 ], [ 121.225883, 24.8715543 ], [ 121.2260254, 24.8715994 ], [ 121.226398, 24.8717112 ], [ 121.2264503, 24.8717255 ], [ 121.2265695, 24.8717662 ], [ 121.2271813, 24.8719402 ], [ 121.2272247, 24.8719536 ], [ 121.2275408, 24.8720409 ], [ 121.2276158, 24.8720665 ], [ 121.2276862, 24.8720849 ], [ 121.2280838, 24.8722005 ], [ 121.2287572, 24.8724172 ], [ 121.2287935, 24.872426 ], [ 121.2289001, 24.8724618 ], [ 121.2301767, 24.8728485 ], [ 121.2302172, 24.8728568 ], [ 121.2303467, 24.8728962 ], [ 121.230418, 24.8729141 ], [ 121.2306697, 24.8729864 ], [ 121.2309623, 24.8730745 ], [ 121.231225, 24.8731559 ], [ 121.2312715, 24.8731713 ], [ 121.2313627, 24.8732068 ], [ 121.2320322, 24.8733891 ], [ 121.2321124, 24.8734109 ], [ 121.2325781, 24.8735596 ], [ 121.2326955, 24.8735996 ], [ 121.2328415, 24.8736425 ], [ 121.2332787, 24.8737703 ], [ 121.2333711, 24.873795 ], [ 121.2336866, 24.873901 ], [ 121.2338556, 24.8739515 ], [ 121.2340403, 24.8740079 ], [ 121.2351025, 24.8743506 ], [ 121.2354115, 24.8744356 ], [ 121.2357203, 24.874539 ], [ 121.2362955, 24.8747263 ], [ 121.2363426, 24.874744 ], [ 121.2366633, 24.874854 ], [ 121.2371655, 24.8750244 ], [ 121.2376762, 24.8752102 ], [ 121.2381629, 24.8753926 ], [ 121.2388247, 24.8756231 ], [ 121.2391072, 24.8757344 ], [ 121.2397175, 24.8759764 ], [ 121.241332, 24.8765916 ], [ 121.2420205, 24.8768522 ], [ 121.2425118, 24.8770198 ], [ 121.2426984, 24.8770668 ], [ 121.2429683, 24.8771778 ], [ 121.2430979, 24.8772356 ], [ 121.2441016, 24.8776647 ], [ 121.2444599, 24.8778016 ], [ 121.2458575, 24.8783278 ], [ 121.2460211, 24.8783874 ], [ 121.2465522, 24.8785711 ], [ 121.2470055, 24.8787731 ], [ 121.2473876, 24.8789819 ], [ 121.247696, 24.8792107 ], [ 121.2480729, 24.8795659 ], [ 121.248656, 24.8801115 ], [ 121.2487998, 24.880246 ], [ 121.2490237, 24.880431 ], [ 121.2492557, 24.8804905 ], [ 121.2494354, 24.8804942 ], [ 121.2495668, 24.8804699 ], [ 121.2497787, 24.8804054 ], [ 121.2499532, 24.8801941 ], [ 121.2500136, 24.8800554 ], [ 121.2500712, 24.8798376 ], [ 121.2501017, 24.879636 ], [ 121.2500778, 24.8792532 ], [ 121.2500497, 24.8780524 ], [ 121.2500148, 24.8777665 ], [ 121.2499813, 24.8774976 ], [ 121.2498699, 24.876955 ], [ 121.2498633, 24.8767189 ], [ 121.2499132, 24.8764855 ], [ 121.2500832, 24.8762333 ], [ 121.2503458, 24.8759708 ], [ 121.2505733, 24.8758443 ], [ 121.2508046, 24.8757561 ], [ 121.2508941, 24.8757248 ], [ 121.2513863, 24.8756858 ], [ 121.2517537, 24.8756822 ], [ 121.2519089, 24.8756713 ], [ 121.2520782, 24.8757028 ], [ 121.2522767, 24.8757284 ], [ 121.252435, 24.8757843 ], [ 121.2526805, 24.8759157 ], [ 121.2529141, 24.8760681 ], [ 121.2533423, 24.8764248 ], [ 121.2536131, 24.8766833 ] ] } },
{ "type": "Feature", "properties": { "lot_id": "L5", "segment_ids": "S116; S68", "n_segments": 2, "length_total_m": 2584.4231752333772, "duration_days": 21, "primary_corridor_id": "1", "hard_disaster": true, "hard_metapath": false, "hard": true, "cost_k": 2584.4231752333772, "impact_weight_k": 0.0 }, "geometry": { "type": "MultiLineString", "coordinates": [ [ [ 121.0108427, 24.8610924 ], [ 121.0107328, 24.8603331 ], [ 121.0106197, 24.8598208 ], [ 121.0105906, 24.8592039 ], [ 121.0105853, 24.8585784 ], [ 121.0106572, 24.8577863 ], [ 121.0108423, 24.8570391 ], [ 121.011142, 24.8562831 ], [ 121.0112745, 24.8559908 ], [ 121.0114879, 24.8554771 ] ], [ [ 121.0232103, 24.8738946 ], [ 121.0210061, 24.8727836 ], [ 121.0197784, 24.8720161 ], [ 121.0192313, 24.8716802 ], [ 121.0180754, 24.870825 ], [ 121.0173753, 24.8702556 ], [ 121.0169381, 24.8698735 ], [ 121.0158867, 24.868888 ], [ 121.0153636, 24.8683647 ], [ 121.014972, 24.8679413 ], [ 121.0134467, 24.8660299 ], [ 121.0125687, 24.8646863 ], [ 121.012119, 24.8639102 ], [ 121.0115129, 24.8628322 ], [ 121.0109983, 24.8616375 ], [ 121.0108427, 24.8610924 ] ] ] } },
{ "type": "Feature", "properties": { "lot_id": "L6", "segment_ids": "S77; S78", "n_segments": 2, "length_total_m": 1196.9308981520012, "duration_days": 3, "primary_corridor_id": "segment_77", "hard_disaster": false, "hard_metapath": false, "hard": false, "cost_k": 1196.9308981520012, "impact_weight_k": 0.0 }, "geometry": { "type": "MultiLineString", "coordinates": [ [ [ 121.0108294, 24.8578191 ], [ 121.010884, 24.8590598 ], [ 121.0109008, 24.8591898 ], [ 121.0109225, 24.8593124 ], [ 121.0109503, 24.8594286 ], [ 121.0111255, 24.8600417 ] ], [ [ 121.0108294, 24.8578191 ], [ 121.0107489, 24.8584786 ], [ 121.0107274, 24.8591333 ], [ 121.0107887, 24.8597843 ], [ 121.0108964, 24.8604207 ], [ 121.0110358, 24.8611776 ], [ 121.0114007, 24.8621632 ], [ 121.0118857, 24.8631437 ], [ 121.0124133, 24.8640848 ], [ 121.0134779, 24.8657923 ] ] ] } },
{ "type": "Feature", "properties": { "lot_id": "L7", "segment_ids": "S84", "n_segments": 1, "length_total_m": 205.49463065780475, "duration_days": 3, "primary_corridor_id": "竹林交流道", "hard_disaster": true, "hard_metapath": false, "hard": true, "cost_k": 205.49463065780475, "impact_weight_k": 0.0 }, "geometry": { "type": "LineString", "coordinates": [ [ 121.0837859, 24.7696548 ], [ 121.0831199, 24.7691573 ], [ 121.0828477, 24.7689735 ], [ 121.0824145, 24.7687299 ], [ 121.0821563, 24.768552 ] ] } },
{ "type": "Feature", "properties": { "lot_id": "L8", "segment_ids": "S871; S895; S92", "n_segments": 3, "length_total_m": 4440.043381008848, "duration_days": 9, "primary_corridor_id": "1;112", "hard_disaster": true, "hard_metapath": false, "hard": true, "cost_k": 4440.043381008848, "impact_weight_k": 0.0 }, "geometry": { "type": "MultiLineString", "coordinates": [ [ [ 121.2298597, 24.9632741 ], [ 121.2297702, 24.9632456 ] ], [ [ 121.2066185, 24.9494751 ], [ 121.2066476, 24.9502153 ], [ 121.2067083, 24.9513876 ], [ 121.2067436, 24.9519877 ], [ 121.2067807, 24.9527228 ], [ 121.2068115, 24.9533303 ], [ 121.2068619, 24.9544228 ], [ 121.2068777, 24.9545787 ], [ 121.2069737, 24.9563048 ], [ 121.2070231, 24.9572068 ], [ 121.207034, 24.9574063 ], [ 121.2070745, 24.9580666 ], [ 121.2070894, 24.9584112 ], [ 121.2071117, 24.9588873 ], [ 121.2071163, 24.9589857 ], [ 121.2071598, 24.9596349 ], [ 121.2072007, 24.9599139 ], [ 121.2072495, 24.9601113 ], [ 121.2073095, 24.9602867 ], [ 121.2074213, 24.9605594 ], [ 121.2074505, 24.9606105 ], [ 121.2075376, 24.9607632 ], [ 121.2076185, 24.9609161 ], [ 121.2078263, 24.9612164 ], [ 121.2079511, 24.961419 ], [ 121.2080156, 24.9615238 ], [ 121.2084286, 24.9622196 ], [ 121.2089476, 24.963011 ], [ 121.2090096, 24.9631085 ], [ 121.2094658, 24.9638235 ], [ 121.2095496, 24.9639336 ], [ 121.2096439, 24.9640236 ], [ 121.2097451, 24.9640962 ], [ 121.2098873, 24.964164 ], [ 121.2100537, 24.9642057 ], [ 121.2113603, 24.9644819 ], [ 121.2115206, 24.9645158 ], [ 121.2122789, 24.9646888 ], [ 121.2130423, 24.964861 ], [ 121.2131908, 24.9648945 ], [ 121.2142204, 24.9651259 ], [ 121.2149582, 24.9652789 ], [ 121.2151014, 24.9653086 ], [ 121.2165183, 24.9656193 ], [ 121.2166982, 24.9656588 ], [ 121.2180394, 24.9659609 ], [ 121.2192267, 24.9662151 ], [ 121.2194632, 24.9662647 ], [ 121.2200413, 24.9663958 ], [ 121.2202005, 24.9664116 ], [ 121.220384, 24.9664158 ], [ 121.2204273, 24.96641 ], [ 121.2205831, 24.9663894 ], [ 121.2213929, 24.9662779 ], [ 121.2219246, 24.966207 ], [ 121.2220737, 24.9661871 ], [ 121.2225147, 24.9661345 ], [ 121.2232602, 24.966036 ], [ 121.2234483, 24.9660111 ], [ 121.2244822, 24.9658841 ], [ 121.2246187, 24.9658673 ], [ 121.2256959, 24.9657349 ], [ 121.2258444, 24.9657166 ], [ 121.22715, 24.9655569 ], [ 121.2272315, 24.9655469 ], [ 121.2273177, 24.9655368 ], [ 121.2274388, 24.96552 ], [ 121.228089, 24.9654325 ], [ 121.2282003, 24.965397 ], [ 121.2282737, 24.9653502 ], [ 121.2283273, 24.965296 ], [ 121.2284097, 24.9652074 ], [ 121.2285269, 24.9650346 ], [ 121.2286929, 24.9647799 ], [ 121.2288781, 24.9644958 ], [ 121.2291969, 24.9640592 ], [ 121.2297025, 24.9633489 ], [ 121.2297702, 24.9632456 ] ], [ [ 121.2084105, 24.9449771 ], [ 121.2082341, 24.9451557 ], [ 121.2079959, 24.9454211 ], [ 121.2077379, 24.9458526 ], [ 121.2076537, 24.946029 ], [ 121.2070246, 24.9473485 ], [ 121.2068873, 24.9476172 ], [ 121.2067665, 24.9478549 ], [ 121.2066529, 24.9481299 ], [ 121.2066189, 24.948255 ], [ 121.2065888, 24.9484159 ], [ 121.2065886, 24.9485972 ], [ 121.2066185, 24.9494751 ] ] ] } },
{ "type": "Feature", "properties": { "lot_id": "L9", "segment_ids": "S93", "n_segments": 1, "length_total_m": 342.20480340994857, "duration_days": 1, "primary_corridor_id": "大溪交流道", "hard_disaster": false, "hard_metapath": false, "hard": false, "cost_k": 342.20480340994857, "impact_weight_k": 0.0 }, "geometry": { "type": "LineString", "coordinates": [ [ 121.264138, 24.8921285 ], [ 121.2638589, 24.8923475 ], [ 121.2637293, 24.8924778 ], [ 121.2636104, 24.8926062 ], [ 121.2635106, 24.8927851 ], [ 121.2634743, 24.8929099 ], [ 121.2634669, 24.8930389 ], [ 121.2634961, 24.8931658 ], [ 121.2635637, 24.893283 ], [ 121.2636543, 24.8933768 ], [ 121.263754, 24.8934454 ], [ 121.2638635, 24.8934859 ], [ 121.2640128, 24.8935048 ], [ 121.2641709, 24.8934974 ], [ 121.2643009, 24.8934468 ], [ 121.2644155, 24.8933738 ], [ 121.2644869, 24.8932928 ], [ 121.2645395, 24.8931902 ], [ 121.2645585, 24.8930681 ], [ 121.2645511, 24.8929423 ], [ 121.264527, 24.8928106 ], [ 121.2644619, 24.8926215 ] ] } },
{ "type": "Feature", "properties": { "lot_id": "L10", "segment_ids": "S102", "n_segments": 1, "length_total_m": 329.88573838828404, "duration_days": 1, "primary_corridor_id": "竹林交流道", "hard_disaster": false, "hard_metapath": false, "hard": false, "cost_k": 329.88573838828404, "impact_weight_k": 0.0 }, "geometry": { "type": "LineString", "coordinates": [ [ 121.0824554, 24.7667712 ], [ 121.0824814, 24.7671908 ], [ 121.0825995, 24.7676974 ], [ 121.0827381, 24.7680365 ], [ 121.0828764, 24.7682572 ], [ 121.083163, 24.768613 ], [ 121.0834444, 24.7690034 ], [ 121.0837736, 24.7694112 ] ] } },
{ "type": "Feature", "properties": { "lot_id": "L11", "segment_ids": "S133; S135; S824; S825; S830", "n_segments": 5, "length_total_m": 244.61316648509074, "duration_days": 1, "primary_corridor_id": "3乙", "hard_disaster": true, "hard_metapath": false, "hard": true, "cost_k": 244.61316648509074, "impact_weight_k": 0.0 }, "geometry": { "type": "MultiLineString", "coordinates": [ [ [ 121.2430701, 24.827096 ], [ 121.2429792, 24.8271227 ], [ 121.2428644, 24.8271396 ], [ 121.2426376, 24.827166 ], [ 121.242398, 24.8271938 ] ], [ [ 121.2430701, 24.827096 ], [ 121.2430836, 24.8270151 ], [ 121.2431255, 24.8269174 ] ], [ [ 121.2428396, 24.8270251 ], [ 121.2429248, 24.8270254 ], [ 121.2430043, 24.8270491 ], [ 121.2430701, 24.827096 ] ], [ [ 121.2428396, 24.8270251 ], [ 121.2429915, 24.8269846 ], [ 121.2431255, 24.8269174 ] ], [ [ 121.2432009, 24.8276083 ], [ 121.243111, 24.8274859 ], [ 121.2429978, 24.8273808 ], [ 121.242865, 24.8272965 ], [ 121.2427173, 24.827236 ], [ 121.2425598, 24.8272014 ], [ 121.242398, 24.8271938 ] ] ] } },
{ "type": "Feature", "properties": { "lot_id": "L12", "segment_ids": "S149", "n_segments": 1, "length_total_m": 1020.4309510903341, "duration_days": 11, "primary_corridor_id": "內壢交流道", "hard_disaster": true, "hard_metapath": false, "hard": true, "cost_k": 1020.4309510903341, "impact_weight_k": 0.0 }, "geometry": { "type": "LineString", "coordinates": [ [ 121.2368482, 24.9830144 ], [ 121.2370034, 24.9834346 ], [ 121.2371049, 24.9836492 ], [ 121.2373194, 24.9840393 ], [ 121.2377512, 24.9847321 ], [ 121.238443, 24.9857968 ], [ 121.2387953, 24.9864623 ], [ 121.2389697, 24.986924 ], [ 121.2391002, 24.9873357 ], [ 121.239196, 24.9877257 ], [ 121.2392772, 24.9880192 ], [ 121.2397978, 24.989647 ], [ 121.2399146, 24.9899611 ], [ 121.2400578, 24.9902788 ], [ 121.2402828, 24.990684 ], [ 121.2406799, 24.9912974 ], [ 121.2407761, 24.9914097 ] ] } },
{ "type": "Feature", "properties": { "lot_id": "L13", "segment_ids": "S163", "n_segments": 1, "length_total_m": 308.81580062816562, "duration_days": 4, "primary_corridor_id": "7", "hard_disaster": true, "hard_metapath": false, "hard": true, "cost_k": 308.81580062816562, "impact_weight_k": 0.0 }, "geometry": { "type": "LineString", "coordinates": [ [ 121.2849855, 24.8481131 ], [ 121.284998, 24.8483235 ], [ 121.2850898, 24.8492392 ], [ 121.2851051, 24.8493917 ], [ 121.2852123, 24.8493944 ], [ 121.2854961, 24.8494039 ], [ 121.2857783, 24.8494084 ], [ 121.2858913, 24.8493951 ], [ 121.2860118, 24.8493401 ], [ 121.2861164, 24.8492838 ], [ 121.2862293, 24.8491667 ], [ 121.2863151, 24.8490289 ], [ 121.2864176, 24.8488155 ] ] } },
{ "type": "Feature", "properties": { "lot_id": "L14", "segment_ids": "S181", "n_segments": 1, "length_total_m": 692.01470962066639, "duration_days": 2, "primary_corridor_id": "新竹交流道", "hard_disaster": false, "hard_metapath": false, "hard": false, "cost_k": 692.01470962066639, "impact_weight_k": 0.0 }, "geometry": { "type": "LineString", "coordinates": [ [ 121.005472, 24.7895001 ], [ 121.0055612, 24.789692 ], [ 121.005872, 24.7903435 ], [ 121.0061275, 24.7909651 ], [ 121.0062904, 24.7913613 ], [ 121.0066284, 24.7921649 ], [ 121.0070254, 24.7930853 ], [ 121.0072614, 24.7936746 ], [ 121.007653, 24.7947362 ], [ 121.0078575, 24.7953315 ] ] } },
{ "type": "Feature", "properties": { "lot_id": "L15", "segment_ids": "S186", "n_segments": 1, "length_total_m": 1344.7348508659713, "duration_days": 3, "primary_corridor_id": "1", "hard_disaster": false, "hard_metapath": false, "hard": false, "cost_k": 1344.7348508659713, "impact_weight_k": 0.0 }, "geometry": { "type": "LineString", "coordinates": [ [ 121.1851686, 24.9327853 ], [ 121.1841239, 24.9322932 ], [ 121.1788602, 24.9304037 ], [ 121.1767586, 24.929536 ], [ 121.1750233, 24.9285334 ], [ 121.1733693, 24.9273149 ] ] } },
{ "type": "Feature", "properties": { "lot_id": "L16", "segment_ids": "S187", "n_segments": 1, "length_total_m": 352.35067344249234, "duration_days": 1, "primary_corridor_id": "31", "hard_disaster": false, "hard_metapath": false, "hard": false, "cost_k": 352.35067344249234, "impact_weight_k": 0.0 }, "geometry": { "type": "LineString", "coordinates": [ [ 121.1821872, 24.9804025 ], [ 121.1814043, 24.9795849 ], [ 121.1799761, 24.9781176 ], [ 121.1798801, 24.9780219 ] ] } },
{ "type": "Feature", "properties": { "lot_id": "L17", "segment_ids": "S190; S810; S811", "n_segments": 3, "length_total_m": 1793.3573790276566, "duration_days": 14, "primary_corridor_id": "竹北交流道", "hard_disaster": true, "hard_metapath": false, "hard": true, "cost_k": 1793.3573790276566, "impact_weight_k": 0.0 }, "geometry": { "type": "MultiLineString", "coordinates": [ [ [ 121.0183342, 24.8242931 ], [ 121.0184495, 24.8246206 ], [ 121.0185367, 24.8249005 ], [ 121.0186172, 24.8251805 ], [ 121.018695, 24.82543 ], [ 121.0188224, 24.8257696 ], [ 121.0189243, 24.826002 ], [ 121.0190879, 24.8263185 ], [ 121.0193961, 24.8268427 ], [ 121.019659, 24.8273813 ], [ 121.0199925, 24.8280547 ], [ 121.0201706, 24.8284915 ] ], [ [ 121.0154536, 24.8207405 ], [ 121.0155676, 24.8208081 ], [ 121.0156909, 24.8209386 ], [ 121.0158773, 24.8211796 ], [ 121.0161173, 24.8214608 ], [ 121.0163896, 24.8217224 ], [ 121.0174732, 24.8227656 ] ], [ [ 121.0154536, 24.8207405 ], [ 121.0161965, 24.8219512 ], [ 121.0168228, 24.8229031 ], [ 121.0171366, 24.8234046 ], [ 121.0173606, 24.8237393 ], [ 121.0177965, 24.824382 ], [ 121.0186681, 24.825772 ], [ 121.019222, 24.8267153 ], [ 121.0199641, 24.8280951 ], [ 121.0201706, 24.8284915 ] ] ] } },
{ "type": "Feature", "properties": { "lot_id": "L18", "segment_ids": "S195", "n_segments": 1, "length_total_m": 298.27931601625261, "duration_days": 1, "primary_corridor_id": "3", "hard_disaster": false, "hard_metapath": false, "hard": false, "cost_k": 298.27931601625261, "impact_weight_k": 0.0 }, "geometry": { "type": "LineString", "coordinates": [ [ 121.2055012, 24.8275814 ], [ 121.2052785, 24.827265 ], [ 121.2050787, 24.8270021 ], [ 121.2047381, 24.8266532 ], [ 121.2045101, 24.82645 ], [ 121.2043116, 24.8263234 ], [ 121.2034375, 24.8259075 ], [ 121.2033237, 24.8258556 ] ] } },
{ "type": "Feature", "properties": { "lot_id": "L19", "segment_ids": "S204; S821", "n_segments": 2, "length_total_m": 1693.5374728013699, "duration_days": 17, "primary_corridor_id": "4", "hard_disaster": true, "hard_metapath": false, "hard": true, "cost_k": 1693.5374728013699, "impact_weight_k": 0.0 }, "geometry": { "type": "MultiLineString", "coordinates": [ [ [ 121.2579499, 24.822183 ], [ 121.2577354, 24.822152 ], [ 121.2575426, 24.8221644 ], [ 121.2573603, 24.822205 ], [ 121.2572728, 24.8222358 ], [ 121.2566272, 24.8226175 ], [ 121.2555984, 24.8232178 ], [ 121.2538469, 24.8242717 ], [ 121.2520996, 24.8254161 ], [ 121.2520527, 24.8254501 ], [ 121.2520029, 24.8254874 ], [ 121.2513963, 24.8258884 ], [ 121.2512565, 24.825961 ], [ 121.2511308, 24.8260059 ], [ 121.250886, 24.8260438 ], [ 121.250661, 24.8260165 ], [ 121.2504998, 24.8259455 ], [ 121.2500719, 24.8257256 ], [ 121.2496053, 24.8254852 ], [ 121.2493673, 24.8254046 ], [ 121.2490921, 24.8253405 ], [ 121.2488174, 24.8253048 ], [ 121.2485365, 24.8252857 ], [ 121.247992, 24.8252797 ], [ 121.2474461, 24.8253056 ], [ 121.2472016, 24.8253433 ], [ 121.246526, 24.8254799 ], [ 121.2456905, 24.8256512 ], [ 121.244701, 24.8258528 ], [ 121.2445698, 24.8258797 ], [ 121.244447, 24.8259049 ], [ 121.2442255, 24.8260298 ], [ 121.2436808, 24.8264793 ], [ 121.2434593, 24.8266716 ] ], [ [ 121.2434593, 24.8266716 ], [ 121.2433579, 24.8268384 ], [ 121.2432847, 24.8269265 ], [ 121.2432604, 24.8269569 ], [ 121.2432269, 24.8269894 ] ] ] } },
{ "type": "Feature", "properties": { "lot_id": "L20", "segment_ids": "S226; S228", "n_segments": 2, "length_total_m": 343.97334650035128, "duration_days": 2, "primary_corridor_id": "龍潭交流道", "hard_disaster": true, "hard_metapath": false, "hard": true, "cost_k": 343.97334650035128, "impact_weight_k": 0.0 }, "geometry": { "type": "MultiLineString", "coordinates": [ [ [ 121.2190295, 24.8606954 ], [ 121.2193851, 24.8606824 ], [ 121.2203439, 24.8607488 ] ], [ [ 121.2203439, 24.8607488 ], [ 121.2206326, 24.8607811 ], [ 121.2207637, 24.8607916 ], [ 121.2209638, 24.8608399 ], [ 121.2213257, 24.8609574 ], [ 121.2216447, 24.8611003 ], [ 121.2219949, 24.8612275 ], [ 121.2223259, 24.8613157 ] ] ] } },
{ "type": "Feature", "properties": { "lot_id": "L21", "segment_ids": "S236", "n_segments": 1, "length_total_m": 401.10908311516698, "duration_days": 1, "primary_corridor_id": "竹林交流道", "hard_disaster": false, "hard_metapath": false, "hard": false, "cost_k": 401.10908311516698, "impact_weight_k": 0.0 }, "geometry": { "type": "LineString", "coordinates": [ [ 121.0790725, 24.7669666 ], [ 121.0789409, 24.7667085 ], [ 121.078894, 24.7665563 ], [ 121.07889, 24.766359 ], [ 121.0789731, 24.766107 ], [ 121.079181, 24.7657295 ], [ 121.0792977, 24.7654214 ], [ 121.0793245, 24.7652217 ], [ 121.0793084, 24.7650219 ], [ 121.0791881, 24.7646802 ], [ 121.0789454, 24.7643685 ], [ 121.078424, 24.7637057 ] ] } },
{ "type": "Feature", "properties": { "lot_id": "L22", "segment_ids": "S238", "n_segments": 1, "length_total_m": 44.938928980850811, "duration_days": 1, "primary_corridor_id": "segment_238", "hard_disaster": true, "hard_metapath": false, "hard": true, "cost_k": 44.938928980850811, "impact_weight_k": 0.0 }, "geometry": { "type": "LineString", "coordinates": [ [ 121.2279296, 25.0257611 ], [ 121.2281528, 25.026111 ] ] } },
{ "type": "Feature", "properties": { "lot_id": "L23", "segment_ids": "S254", "n_segments": 1, "length_total_m": 596.81090076186297, "duration_days": 2, "primary_corridor_id": "31", "hard_disaster": false, "hard_metapath": false, "hard": false, "cost_k": 596.81090076186297, "impact_weight_k": 0.0 }, "geometry": { "type": "LineString", "coordinates": [ [ 121.246984, 25.0435925 ], [ 121.2476992, 25.0442283 ], [ 121.2487221, 25.0451374 ], [ 121.2494792, 25.0457733 ], [ 121.2506484, 25.0467111 ], [ 121.2512304, 25.0471913 ], [ 121.2513104, 25.0472573 ] ] } },
{ "type": "Feature", "properties": { "lot_id": "L24", "segment_ids": "S262", "n_segments": 1, "length_total_m": 135.39793529799155, "duration_days": 1, "primary_corridor_id": "66", "hard_disaster": false, "hard_metapath": false, "hard": false, "cost_k": 135.39793529799155, "impact_weight_k": 0.0 }, "geometry": { "type": "LineString", "coordinates": [ [ 121.0529102, 25.0297036 ], [ 121.0530855, 25.0295563 ], [ 121.0540419, 25.0290552 ] ] } },
{ "type": "Feature", "properties": { "lot_id": "L25", "segment_ids": "S266", "n_segments": 1, "length_total_m": 357.35145419314966, "duration_days": 1, "primary_corridor_id": "平鎮系統交流道", "hard_disaster": false, "hard_metapath": false, "hard": false, "cost_k": 357.35145419314966, "impact_weight_k": 0.0 }, "geometry": { "type": "LineString", "coordinates": [ [ 121.1889106, 24.9355311 ], [ 121.1887271, 24.9353319 ], [ 121.1882866, 24.934983 ], [ 121.1875356, 24.934409 ], [ 121.1868972, 24.9339444 ], [ 121.1865157, 24.9336748 ], [ 121.1861783, 24.9335001 ] ] } },
{ "type": "Feature", "properties": { "lot_id": "L26", "segment_ids": "S269", "n_segments": 1, "length_total_m": 272.00938103615829, "duration_days": 3, "primary_corridor_id": "平鎮系統交流道", "hard_disaster": true, "hard_metapath": false, "hard": true, "cost_k": 272.00938103615829, "impact_weight_k": 0.0 }, "geometry": { "type": "LineString", "coordinates": [ [ 121.1927919, 24.9404198 ], [ 121.1924732, 24.9399768 ], [ 121.1921072, 24.939393 ], [ 121.1914818, 24.9385042 ], [ 121.1913785, 24.9383372 ] ] } },
{ "type": "Feature", "properties": { "lot_id": "L27", "segment_ids": "S274", "n_segments": 1, "length_total_m": 287.44783845704336, "duration_days": 1, "primary_corridor_id": "南桃園交流道", "hard_disaster": false, "hard_metapath": false, "hard": false, "cost_k": 287.44783845704336, "impact_weight_k": 0.0 }, "geometry": { "type": "LineString", "coordinates": [ [ 121.2864244, 25.0018507 ], [ 121.2860705, 25.0015459 ], [ 121.2859951, 25.0014804 ], [ 121.2859083, 25.0014305 ], [ 121.2858145, 25.0013976 ], [ 121.2857226, 25.0013771 ], [ 121.2856246, 25.0013684 ], [ 121.2854904, 25.0013762 ], [ 121.2853633, 25.0013996 ], [ 121.2848354, 25.0015252 ], [ 121.2842839, 25.0016449 ], [ 121.2841027, 25.001694 ], [ 121.2839815, 25.0017384 ], [ 121.2838322, 25.0018048 ] ] } },
{ "type": "Feature", "properties": { "lot_id": "L28", "segment_ids": "S300", "n_segments": 1, "length_total_m": 12.325877522701665, "duration_days": 1, "primary_corridor_id": "31", "hard_disaster": false, "hard_metapath": false, "hard": false, "cost_k": 12.325877522701665, "impact_weight_k": 0.0 }, "geometry": { "type": "LineString", "coordinates": [ [ 121.2233412, 25.0217906 ], [ 121.223248, 25.0218624 ] ] } },
{ "type": "Feature", "properties": { "lot_id": "L29", "segment_ids": "S305; S698", "n_segments": 2, "length_total_m": 625.82379179697568, "duration_days": 2, "primary_corridor_id": "內壢交流道", "hard_disaster": false, "hard_metapath": false, "hard": false, "cost_k": 625.82379179697568, "impact_weight_k": 0.0 }, "geometry": { "type": "MultiLineString", "coordinates": [ [ [ 121.2359197, 24.9864539 ], [ 121.2361903, 24.9867719 ], [ 121.2365562, 24.9871625 ], [ 121.2369709, 24.9875568 ], [ 121.2374506, 24.9880321 ], [ 121.2381273, 24.9887253 ], [ 121.2382989, 24.9888369 ], [ 121.2384482, 24.9888949 ], [ 121.2385928, 24.988915 ], [ 121.2387111, 24.9889065 ], [ 121.2388253, 24.9888652 ], [ 121.2389184, 24.9888023 ], [ 121.2389896, 24.9887235 ], [ 121.2390474, 24.9886118 ], [ 121.2390758, 24.9884874 ], [ 121.2390814, 24.9883641 ], [ 121.2390718, 24.9881258 ], [ 121.2390573, 24.9879525 ], [ 121.239016, 24.9876917 ] ], [ [ 121.239252, 24.9883081 ], [ 121.2391729, 24.9880813 ], [ 121.2390766, 24.9878554 ], [ 121.239016, 24.9876917 ] ] ] } },
{ "type": "Feature", "properties": { "lot_id": "L30", "segment_ids": "S314", "n_segments": 1, "length_total_m": 48.780634241702273, "duration_days": 1, "primary_corridor_id": "segment_314", "hard_disaster": false, "hard_metapath": false, "hard": false, "cost_k": 48.780634241702273, "impact_weight_k": 0.0 }, "geometry": { "type": "LineString", "coordinates": [ [ 121.2382348, 24.9650258 ], [ 121.2381157, 24.9650557 ], [ 121.2380022, 24.9651044 ], [ 121.2378233, 24.9652422 ] ] } },
{ "type": "Feature", "properties": { "lot_id": "L31", "segment_ids": "S316", "n_segments": 1, "length_total_m": 362.44318602029097, "duration_days": 1, "primary_corridor_id": "平鎮系統交流道", "hard_disaster": false, "hard_metapath": false, "hard": false, "cost_k": 362.44318602029097, "impact_weight_k": 0.0 }, "geometry": { "type": "LineString", "coordinates": [ [ 121.1869276, 24.933425 ], [ 121.1873673, 24.9336898 ], [ 121.1876428, 24.9338655 ], [ 121.1878494, 24.9340011 ], [ 121.1883721, 24.9343962 ], [ 121.1886873, 24.9346638 ], [ 121.1889972, 24.9349591 ], [ 121.1896095, 24.9355733 ] ] } },
{ "type": "Feature", "properties": { "lot_id": "L32", "segment_ids": "S358; S589", "n_segments": 2, "length_total_m": 3994.9642323688386, "duration_days": 26, "primary_corridor_id": "66", "hard_disaster": true, "hard_metapath": false, "hard": true, "cost_k": 3994.9642323688386, "impact_weight_k": 0.0 }, "geometry": { "type": "MultiLineString", "coordinates": [ [ [ 121.2567887, 24.8984457 ], [ 121.2574517, 24.8983549 ], [ 121.2577801, 24.8983095 ], [ 121.2586072, 24.8982549 ], [ 121.259562, 24.8981941 ], [ 121.2604954, 24.8981351 ], [ 121.2609181, 24.8980878 ], [ 121.2611492, 24.8980308 ], [ 121.2612972, 24.8979741 ], [ 121.2614921, 24.8978848 ], [ 121.2616583, 24.8977502 ], [ 121.2618047, 24.8975979 ], [ 121.2618916, 24.8974497 ], [ 121.2619485, 24.8972963 ], [ 121.2619896, 24.8971474 ], [ 121.2619997, 24.8970266 ], [ 121.2620074, 24.8968878 ], [ 121.2619903, 24.8966972 ], [ 121.2619767, 24.8965642 ], [ 121.2619013, 24.8960589 ], [ 121.2618941, 24.8958339 ], [ 121.2618957, 24.8955366 ], [ 121.2619191, 24.895176 ], [ 121.2619785, 24.8947646 ], [ 121.2620875, 24.8943585 ], [ 121.2621661, 24.8941384 ], [ 121.2622817, 24.8939028 ], [ 121.2624388, 24.8936096 ], [ 121.2626123, 24.8933544 ], [ 121.2628027, 24.8931259 ], [ 121.2629956, 24.8929287 ], [ 121.263183, 24.8928126 ], [ 121.2633621, 24.8927296 ], [ 121.2635297, 24.8926776 ], [ 121.2637173, 24.8926461 ], [ 121.2639437, 24.8926379 ], [ 121.2641732, 24.8926407 ], [ 121.2643856, 24.8926801 ], [ 121.2646131, 24.8927538 ], [ 121.2648613, 24.8928686 ], [ 121.2651143, 24.8930461 ], [ 121.2653094, 24.893286 ], [ 121.2654555, 24.8934968 ], [ 121.2655633, 24.8937264 ], [ 121.2662662, 24.8952329 ], [ 121.2664631, 24.8956235 ], [ 121.2665045, 24.8957057 ], [ 121.2665842, 24.8958637 ], [ 121.266799, 24.8962592 ], [ 121.2670842, 24.8967117 ] ], [ [ 121.2354374, 24.9024115 ], [ 121.2357222, 24.9022299 ], [ 121.2361852, 24.9019629 ], [ 121.2368775, 24.9015722 ], [ 121.2373816, 24.9013298 ], [ 121.2380029, 24.9010468 ], [ 121.238677, 24.9007758 ], [ 121.2392277, 24.9005719 ], [ 121.2401378, 24.9002252 ], [ 121.2410657, 24.8999685 ], [ 121.2416623, 24.8998201 ], [ 121.2422233, 24.8996898 ], [ 121.2428655, 24.8995562 ], [ 121.243521, 24.899457 ], [ 121.2444948, 24.8993446 ], [ 121.2448133, 24.8993093 ], [ 121.2453088, 24.8992643 ], [ 121.245868, 24.8992162 ], [ 121.2468986, 24.8991073 ], [ 121.2488764, 24.8989747 ], [ 121.2498513, 24.8989009 ], [ 121.2507716, 24.8988532 ], [ 121.2520652, 24.8987777 ], [ 121.2524012, 24.898747 ], [ 121.252741, 24.8986966 ], [ 121.2530783, 24.8986406 ], [ 121.2532733, 24.898616 ], [ 121.2535003, 24.8985984 ], [ 121.2539084, 24.8985751 ], [ 121.2548246, 24.8985295 ], [ 121.2557296, 24.8984981 ], [ 121.2563373, 24.898472 ], [ 121.2567887, 24.8984457 ] ] ] } },
{ "type": "Feature", "properties": { "lot_id": "L33", "segment_ids": "S363", "n_segments": 1, "length_total_m": 1741.5996437402282, "duration_days": 4, "primary_corridor_id": "66", "hard_disaster": false, "hard_metapath": false, "hard": false, "cost_k": 1741.5996437402282, "impact_weight_k": 0.0 }, "geometry": { "type": "LineString", "coordinates": [ [ 121.1684839, 24.9457809 ], [ 121.1690964, 24.9454364 ], [ 121.1704963, 24.9446674 ], [ 121.1717439, 24.9440223 ], [ 121.174684, 24.942682 ], [ 121.1773707, 24.9414478 ], [ 121.1777087, 24.9412891 ], [ 121.1785309, 24.9409005 ], [ 121.1785802, 24.9408788 ], [ 121.1786382, 24.9408532 ], [ 121.18165, 24.9395261 ], [ 121.1833836, 24.9387355 ], [ 121.183793, 24.9385433 ] ] } },
{ "type": "Feature", "properties": { "lot_id": "L34", "segment_ids": "S394", "n_segments": 1, "length_total_m": 785.24106062889098, "duration_days": 8, "primary_corridor_id": "1", "hard_disaster": true, "hard_metapath": false, "hard": true, "cost_k": 785.24106062889098, "impact_weight_k": 0.0 }, "geometry": { "type": "LineString", "coordinates": [ [ 121.255043, 25.0045022 ], [ 121.2522166, 25.0022956 ], [ 121.249118, 24.9999159 ] ] } },
{ "type": "Feature", "properties": { "lot_id": "L35", "segment_ids": "S407", "n_segments": 1, "length_total_m": 170.03010327246903, "duration_days": 1, "primary_corridor_id": "寶山交流道", "hard_disaster": false, "hard_metapath": false, "hard": false, "cost_k": 170.03010327246903, "impact_weight_k": 0.0 }, "geometry": { "type": "LineString", "coordinates": [ [ 121.0069478, 24.7575113 ], [ 121.006403, 24.7575332 ], [ 121.0061647, 24.7575788 ], [ 121.0059697, 24.757597 ], [ 121.0056696, 24.7576275 ], [ 121.005276, 24.7576747 ] ] } },
{ "type": "Feature", "properties": { "lot_id": "L36", "segment_ids": "S414", "n_segments": 1, "length_total_m": 80.979025814505093, "duration_days": 1, "primary_corridor_id": "新竹交流道", "hard_disaster": true, "hard_metapath": false, "hard": true, "cost_k": 80.979025814505093, "impact_weight_k": 0.0 }, "geometry": { "type": "LineString", "coordinates": [ [ 121.0031839, 24.7822091 ], [ 121.0031212, 24.7819448 ], [ 121.0030759, 24.7817972 ], [ 121.0030208, 24.781719 ], [ 121.0029518, 24.7816841 ], [ 121.0029306, 24.7816734 ], [ 121.0028032, 24.7816495 ] ] } },
{ "type": "Feature", "properties": { "lot_id": "L37", "segment_ids": "S421; S422", "n_segments": 2, "length_total_m": 30.393609066652672, "duration_days": 1, "primary_corridor_id": "新竹交流道", "hard_disaster": true, "hard_metapath": false, "hard": true, "cost_k": 30.393609066652672, "impact_weight_k": 0.0 }, "geometry": { "type": "MultiLineString", "coordinates": [ [ [ 121.0085114, 24.7976953 ], [ 121.0086235, 24.7975487 ] ], [ [ 121.0085114, 24.7976953 ], [ 121.0084074, 24.7976859 ] ] ] } },
{ "type": "Feature", "properties": { "lot_id": "L38", "segment_ids": "S440", "n_segments": 1, "length_total_m": 235.23183079943988, "duration_days": 1, "primary_corridor_id": "中壢交流道", "hard_disaster": false, "hard_metapath": false, "hard": false, "cost_k": 235.23183079943988, "impact_weight_k": 0.0 }, "geometry": { "type": "LineString", "coordinates": [ [ 121.200953, 24.9579676 ], [ 121.2016857, 24.9589118 ], [ 121.2023449, 24.9596644 ] ] } },
{ "type": "Feature", "properties": { "lot_id": "L39", "segment_ids": "S464", "n_segments": 1, "length_total_m": 266.69395582812763, "duration_days": 1, "primary_corridor_id": "大竹交流道", "hard_disaster": false, "hard_metapath": false, "hard": false, "cost_k": 266.69395582812763, "impact_weight_k": 0.0 }, "geometry": { "type": "LineString", "coordinates": [ [ 121.2346602, 25.0349338 ], [ 121.2347144, 25.0347484 ], [ 121.2347702, 25.0345851 ], [ 121.2348252, 25.0344004 ], [ 121.2348528, 25.0342392 ], [ 121.2348685, 25.034082 ], [ 121.2348685, 25.0338736 ], [ 121.2348488, 25.0337085 ], [ 121.2348135, 25.0335356 ], [ 121.2347624, 25.0333587 ], [ 121.2346798, 25.03317 ], [ 121.2345933, 25.0330206 ], [ 121.2343547, 25.0326622 ] ] } },
{ "type": "Feature", "properties": { "lot_id": "L40", "segment_ids": "S489", "n_segments": 1, "length_total_m": 364.43364449259462, "duration_days": 1, "primary_corridor_id": "segment_489", "hard_disaster": false, "hard_metapath": false, "hard": false, "cost_k": 364.43364449259462, "impact_weight_k": 0.0 }, "geometry": { "type": "LineString", "coordinates": [ [ 121.1001801, 25.0003287 ], [ 121.1004751, 25.0001692 ], [ 121.1006471, 25.0000535 ], [ 121.1010005, 24.9998118 ], [ 121.1018352, 24.9992411 ], [ 121.1025426, 24.9987453 ], [ 121.1029369, 24.9984876 ], [ 121.1031228, 24.9984528 ] ] } },
{ "type": "Feature", "properties": { "lot_id": "L41", "segment_ids": "S492", "n_segments": 1, "length_total_m": 1501.9025867624775, "duration_days": 4, "primary_corridor_id": "66", "hard_disaster": false, "hard_metapath": false, "hard": false, "cost_k": 1501.9025867624775, "impact_weight_k": 0.0 }, "geometry": { "type": "LineString", "coordinates": [ [ 121.0630037, 25.0246051 ], [ 121.0635712, 25.0243127 ], [ 121.064392, 25.0238278 ], [ 121.0651922, 25.0233234 ], [ 121.065498, 25.0231306 ], [ 121.0662658, 25.0226187 ], [ 121.0667451, 25.0223009 ], [ 121.0682003, 25.0213774 ], [ 121.0692955, 25.0206646 ], [ 121.0696806, 25.020434 ], [ 121.0699371, 25.0202634 ], [ 121.0704643, 25.0199355 ], [ 121.0705156, 25.0199053 ], [ 121.0705885, 25.0198621 ], [ 121.0712056, 25.0194963 ], [ 121.0718238, 25.0191414 ], [ 121.0719204, 25.0190928 ], [ 121.0722007, 25.0189446 ], [ 121.0726607, 25.0187197 ], [ 121.0733848, 25.0183758 ], [ 121.0737834, 25.0182006 ], [ 121.074156, 25.0180368 ], [ 121.0744627, 25.0179337 ], [ 121.074512, 25.0179116 ], [ 121.0745837, 25.0178795 ], [ 121.0755675, 25.0173898 ] ] } },
{ "type": "Feature", "properties": { "lot_id": "L42", "segment_ids": "S518", "n_segments": 1, "length_total_m": 408.62312830924105, "duration_days": 5, "primary_corridor_id": "segment_518", "hard_disaster": true, "hard_metapath": false, "hard": true, "cost_k": 408.62312830924105, "impact_weight_k": 0.0 }, "geometry": { "type": "LineString", "coordinates": [ [ 121.0975385, 25.0025075 ], [ 121.097157, 25.0026527 ], [ 121.0964712, 25.0031389 ], [ 121.0955654, 25.0037275 ], [ 121.0944926, 25.0044116 ], [ 121.0941747, 25.0045308 ] ] } },
{ "type": "Feature", "properties": { "lot_id": "L43", "segment_ids": "S532", "n_segments": 1, "length_total_m": 87.605774454144509, "duration_days": 1, "primary_corridor_id": "15", "hard_disaster": false, "hard_metapath": false, "hard": false, "cost_k": 87.605774454144509, "impact_weight_k": 0.0 }, "geometry": { "type": "LineString", "coordinates": [ [ 121.0624021, 25.025258 ], [ 121.0624907, 25.0253132 ], [ 121.0631187, 25.0257042 ] ] } },
{ "type": "Feature", "properties": { "lot_id": "L44", "segment_ids": "S534", "n_segments": 1, "length_total_m": 97.914132636061325, "duration_days": 1, "primary_corridor_id": "66", "hard_disaster": true, "hard_metapath": false, "hard": true, "cost_k": 97.914132636061325, "impact_weight_k": 0.0 }, "geometry": { "type": "LineString", "coordinates": [ [ 121.061187, 25.0255703 ], [ 121.0613749, 25.0254821 ], [ 121.0619842, 25.025183 ], [ 121.0620433, 25.025154 ] ] } },
{ "type": "Feature", "properties": { "lot_id": "L45", "segment_ids": "S541", "n_segments": 1, "length_total_m": 229.86155599691773, "duration_days": 1, "primary_corridor_id": "芎林交流道", "hard_disaster": false, "hard_metapath": false, "hard": false, "cost_k": 229.86155599691773, "impact_weight_k": 0.0 }, "geometry": { "type": "LineString", "coordinates": [ [ 121.0598311, 24.7760407 ], [ 121.058595, 24.7777767 ] ] } },
{ "type": "Feature", "properties": { "lot_id": "L46", "segment_ids": "S593; S594", "n_segments": 2, "length_total_m": 247.25156028181095, "duration_days": 1, "primary_corridor_id": "segment_593", "hard_disaster": true, "hard_metapath": false, "hard": true, "cost_k": 247.25156028181095, "impact_weight_k": 0.0 }, "geometry": { "type": "MultiLineString", "coordinates": [ [ [ 121.2516161, 25.002838 ], [ 121.2520388, 25.0023623 ], [ 121.2523726, 25.0020097 ], [ 121.2527946, 25.0015615 ] ], [ [ 121.2516161, 25.002838 ], [ 121.251443, 25.0026934 ], [ 121.2513209, 25.002556 ], [ 121.2512099, 25.0024199 ] ] ] } },
{ "type": "Feature", "properties": { "lot_id": "L47", "segment_ids": "S598; S604", "n_segments": 2, "length_total_m": 2082.2660692748445, "duration_days": 5, "primary_corridor_id": "1", "hard_disaster": false, "hard_metapath": false, "hard": false, "cost_k": 2082.2660692748445, "impact_weight_k": 0.0 }, "geometry": { "type": "MultiLineString", "coordinates": [ [ [ 121.1693817, 24.9227303 ], [ 121.1688609, 24.9217273 ], [ 121.1685122, 24.9208771 ], [ 121.1682239, 24.9200403 ], [ 121.1655345, 24.9124 ] ], [ [ 121.1655345, 24.9124 ], [ 121.1645219, 24.9093862 ], [ 121.164378, 24.9090201 ], [ 121.1642969, 24.9087988 ], [ 121.1639535, 24.9079096 ], [ 121.1634815, 24.9069657 ], [ 121.1629987, 24.906214 ], [ 121.1626339, 24.9057469 ], [ 121.1621967, 24.9052701 ] ] ] } },
{ "type": "Feature", "properties": { "lot_id": "L48", "segment_ids": "S601", "n_segments": 1, "length_total_m": 353.23772548773354, "duration_days": 1, "primary_corridor_id": "內壢交流道", "hard_disaster": false, "hard_metapath": false, "hard": false, "cost_k": 353.23772548773354, "impact_weight_k": 0.0 }, "geometry": { "type": "LineString", "coordinates": [ [ 121.2355578, 24.9895819 ], [ 121.2356065, 24.9894201 ], [ 121.2360983, 24.9886007 ], [ 121.2362252, 24.9881828 ], [ 121.2362008, 24.987732 ], [ 121.2355753, 24.9866841 ] ] } },
{ "type": "Feature", "properties": { "lot_id": "L49", "segment_ids": "S615", "n_segments": 1, "length_total_m": 478.71139978140508, "duration_days": 1, "primary_corridor_id": "楊梅交流道", "hard_disaster": false, "hard_metapath": false, "hard": false, "cost_k": 478.71139978140508, "impact_weight_k": 0.0 }, "geometry": { "type": "MultiLineString", "coordinates": [ [ [ 121.1646297, 24.9091193 ], [ 121.1648275, 24.9090531 ], [ 121.16489219798332, 24.909030378684431 ] ], [ [ 121.16489219798332, 24.909030378684431 ], [ 121.1650795, 24.9089646 ], [ 121.1652503, 24.9088909 ], [ 121.1654088, 24.9087692 ], [ 121.1654942, 24.9086475 ], [ 121.1655308, 24.9085443 ], [ 121.1654779, 24.9083489 ], [ 121.1653844, 24.9082198 ], [ 121.1652015, 24.9081129 ], [ 121.165108, 24.9080908 ], [ 121.1649413, 24.9081129 ], [ 121.1648234, 24.9081645 ], [ 121.1646608, 24.9082936 ], [ 121.1645917, 24.9084116 ], [ 121.1646649, 24.9086144 ], [ 121.1648112, 24.9089388 ], [ 121.16489219798332, 24.909030378684431 ] ], [ [ 121.16489219798332, 24.909030378684431 ], [ 121.1651243, 24.9092928 ], [ 121.1651952, 24.9094415 ], [ 121.1652665, 24.9095657 ], [ 121.1653641, 24.9099713 ], [ 121.1653825, 24.9100759 ], [ 121.1653929, 24.910135 ], [ 121.1654126, 24.9102474 ] ] ] } },
{ "type": "Feature", "properties": { "lot_id": "L50", "segment_ids": "S632", "n_segments": 1, "length_total_m": 1308.7291446606325, "duration_days": 14, "primary_corridor_id": "1", "hard_disaster": true, "hard_metapath": false, "hard": true, "cost_k": 1308.7291446606325, "impact_weight_k": 0.0 }, "geometry": { "type": "LineString", "coordinates": [ [ 121.1733496, 24.9270838 ], [ 121.1734819, 24.9272027 ], [ 121.1750997, 24.9283583 ], [ 121.1768161, 24.9293465 ], [ 121.1788622, 24.9302828 ], [ 121.1815322, 24.9311671 ], [ 121.1841677, 24.9321554 ], [ 121.18481, 24.932438 ] ] } },
{ "type": "Feature", "properties": { "lot_id": "L51", "segment_ids": "S638", "n_segments": 1, "length_total_m": 306.7561162550208, "duration_days": 1, "primary_corridor_id": "4", "hard_disaster": false, "hard_metapath": false, "hard": false, "cost_k": 306.7561162550208, "impact_weight_k": 0.0 }, "geometry": { "type": "LineString", "coordinates": [ [ 121.2845339, 24.8985597 ], [ 121.2844415, 24.8987526 ], [ 121.2843317, 24.8989557 ], [ 121.2840502, 24.8994764 ], [ 121.2839141, 24.8999942 ], [ 121.2838922, 24.900141 ], [ 121.2838285, 24.9005279 ], [ 121.2838236, 24.9005572 ], [ 121.2838062, 24.9009063 ], [ 121.2837967, 24.9011977 ] ] } },
{ "type": "Feature", "properties": { "lot_id": "L52", "segment_ids": "S640", "n_segments": 1, "length_total_m": 439.54708166770132, "duration_days": 1, "primary_corridor_id": "1", "hard_disaster": false, "hard_metapath": false, "hard": false, "cost_k": 439.54708166770132, "impact_weight_k": 0.0 }, "geometry": { "type": "LineString", "coordinates": [ [ 121.2891696, 25.0322415 ], [ 121.2869483, 25.0305927 ], [ 121.2858357, 25.0296931 ] ] } },
{ "type": "Feature", "properties": { "lot_id": "L53", "segment_ids": "S646; S649", "n_segments": 2, "length_total_m": 569.51432665938557, "duration_days": 6, "primary_corridor_id": "湖口交流道", "hard_disaster": true, "hard_metapath": false, "hard": true, "cost_k": 569.51432665938557, "impact_weight_k": 0.0 }, "geometry": { "type": "MultiLineString", "coordinates": [ [ [ 121.0343806, 24.8767908 ], [ 121.0334154, 24.8767164 ], [ 121.0324337, 24.8766166 ], [ 121.0317283, 24.876602 ], [ 121.0310578, 24.8765728 ], [ 121.0304704, 24.8765168 ], [ 121.0298937, 24.8764073 ] ], [ [ 121.0298937, 24.8764073 ], [ 121.029434, 24.8763152 ], [ 121.0293118, 24.8762937 ], [ 121.0287886, 24.8761835 ] ] ] } },
{ "type": "Feature", "properties": { "lot_id": "L54", "segment_ids": "S662", "n_segments": 1, "length_total_m": 220.4154647111171, "duration_days": 1, "primary_corridor_id": "高鐵北路三段", "hard_disaster": false, "hard_metapath": false, "hard": false, "cost_k": 220.4154647111171, "impact_weight_k": 0.0 }, "geometry": { "type": "LineString", "coordinates": [ [ 121.2293887, 25.0276923 ], [ 121.2289396, 25.0272633 ], [ 121.2288624, 25.0271886 ], [ 121.2287931, 25.0271192 ], [ 121.2279995, 25.0263246 ], [ 121.2279081, 25.0262332 ] ] } },
{ "type": "Feature", "properties": { "lot_id": "L55", "segment_ids": "S679; S682; S771; S772", "n_segments": 4, "length_total_m": 895.59152005870874, "duration_days": 4, "primary_corridor_id": "平鎮一交流道", "hard_disaster": true, "hard_metapath": false, "hard": true, "cost_k": 895.59152005870874, "impact_weight_k": 0.0 }, "geometry": { "type": "MultiLineString", "coordinates": [ [ [ 121.1955097, 24.9333041 ], [ 121.1941091, 24.9340539 ] ], [ [ 121.1954281, 24.9330883 ], [ 121.1967661, 24.9324354 ], [ 121.1970955, 24.932281 ], [ 121.1972212, 24.932222 ], [ 121.1973391, 24.9321667 ], [ 121.1974839, 24.932109 ], [ 121.1977792, 24.9320341 ] ], [ [ 121.1979573, 24.9322233 ], [ 121.1977792, 24.9320341 ] ], [ [ 121.1979573, 24.9322233 ], [ 121.1978394, 24.9323124 ], [ 121.1977531, 24.9323744 ], [ 121.1976533, 24.9324329 ], [ 121.1972657, 24.9326155 ], [ 121.1941091, 24.9340539 ] ] ] } },
{ "type": "Feature", "properties": { "lot_id": "L56", "segment_ids": "S709; S883", "n_segments": 2, "length_total_m": 3923.2336932460594, "duration_days": 8, "primary_corridor_id": "1;竹12", "hard_disaster": false, "hard_metapath": false, "hard": false, "cost_k": 3923.2336932460594, "impact_weight_k": 0.0 }, "geometry": { "type": "MultiLineString", "coordinates": [ [ [ 121.0691928, 24.8809247 ], [ 121.0693586, 24.8810207 ], [ 121.0695949, 24.8811575 ], [ 121.0733025, 24.8833914 ], [ 121.073455, 24.8834804 ], [ 121.0740905, 24.8839019 ], [ 121.0744065, 24.8841001 ], [ 121.0746222, 24.8842168 ], [ 121.074916, 24.8843587 ], [ 121.0751599, 24.8844429 ], [ 121.0756387, 24.8845519 ], [ 121.0784699, 24.8852394 ], [ 121.0785934, 24.8852744 ], [ 121.0798994, 24.8856691 ], [ 121.0802142, 24.885774 ], [ 121.0824348, 24.8864092 ], [ 121.0830043, 24.8866143 ], [ 121.0835689, 24.8867524 ], [ 121.0842402, 24.8869016 ], [ 121.0851206, 24.8871077 ], [ 121.086506, 24.8874946 ], [ 121.087639, 24.8879467 ], [ 121.0880947, 24.888113 ], [ 121.0884049, 24.8882202 ], [ 121.0887717, 24.888347 ], [ 121.0900867, 24.8888308 ], [ 121.0903108, 24.8889132 ], [ 121.0904456, 24.8889628 ], [ 121.0909023, 24.8891398 ], [ 121.0913047, 24.8893273 ], [ 121.091615, 24.8895028 ], [ 121.0920166, 24.8897402 ], [ 121.0926622, 24.8901258 ], [ 121.0929555, 24.890301 ], [ 121.093394, 24.890552 ], [ 121.0936579, 24.890663 ], [ 121.0940821, 24.8907925 ], [ 121.095965, 24.891245 ], [ 121.0993884, 24.8920877 ], [ 121.1010489, 24.8925739 ], [ 121.1013434, 24.8926761 ], [ 121.1016432, 24.8927802 ], [ 121.1020253, 24.8929351 ] ], [ [ 121.1020253, 24.8929351 ], [ 121.1022735, 24.8930357 ], [ 121.1030755, 24.8933861 ], [ 121.1040698, 24.8938311 ], [ 121.1044381, 24.8939803 ], [ 121.1049458, 24.8940955 ] ] ] } },
{ "type": "Feature", "properties": { "lot_id": "L57", "segment_ids": "S713", "n_segments": 1, "length_total_m": 76.223969224831535, "duration_days": 1, "primary_corridor_id": "66", "hard_disaster": false, "hard_metapath": false, "hard": false, "cost_k": 76.223969224831535, "impact_weight_k": 0.0 }, "geometry": { "type": "LineString", "coordinates": [ [ 121.1486468, 24.956555 ], [ 121.1493664, 24.9563446 ] ] } },
{ "type": "Feature", "properties": { "lot_id": "L58", "segment_ids": "S1066; S722; S840", "n_segments": 3, "length_total_m": 2704.4961474212614, "duration_days": 15, "primary_corridor_id": "66", "hard_disaster": true, "hard_metapath": false, "hard": true, "cost_k": 2704.4961474212614, "impact_weight_k": 0.0 }, "geometry": { "type": "MultiLineString", "coordinates": [ [ [ 121.1339184, 24.9767456 ], [ 121.1337905, 24.9772398 ], [ 121.1335231, 24.9782195 ], [ 121.1331381, 24.9791612 ], [ 121.1327597, 24.9798595 ], [ 121.1320375, 24.9810229 ], [ 121.1308132, 24.9824924 ], [ 121.1304966, 24.9828339 ], [ 121.1297038, 24.9835336 ], [ 121.1288829, 24.984162 ], [ 121.127633, 24.9849866 ], [ 121.1247545, 24.9867176 ], [ 121.1245563, 24.9869482 ] ], [ [ 121.1326869, 24.9801849 ], [ 121.1319279, 24.9813144 ], [ 121.1317379, 24.9815782 ], [ 121.1305469, 24.9829033 ], [ 121.1300411, 24.9833739 ], [ 121.1297509, 24.9836212 ], [ 121.1289308, 24.9842843 ], [ 121.1288475, 24.9843368 ], [ 121.1270703, 24.9854542 ], [ 121.1259426, 24.9861438 ], [ 121.1252924, 24.9865211 ], [ 121.1245563, 24.9869482 ] ], [ [ 121.1330966, 24.9799127 ], [ 121.1326869, 24.9801849 ] ] ] } },
{ "type": "Feature", "properties": { "lot_id": "L59", "segment_ids": "S740", "n_segments": 1, "length_total_m": 480.9694421454227, "duration_days": 5, "primary_corridor_id": "3", "hard_disaster": true, "hard_metapath": false, "hard": true, "cost_k": 480.9694421454227, "impact_weight_k": 0.0 }, "geometry": { "type": "LineString", "coordinates": [ [ 121.1024232, 24.7228992 ], [ 121.1064421, 24.7222038 ], [ 121.1068165, 24.722139 ], [ 121.107101, 24.7220898 ] ] } },
{ "type": "Feature", "properties": { "lot_id": "L60", "segment_ids": "S743", "n_segments": 1, "length_total_m": 420.63698032402499, "duration_days": 5, "primary_corridor_id": "61", "hard_disaster": true, "hard_metapath": false, "hard": true, "cost_k": 420.63698032402499, "impact_weight_k": 0.0 }, "geometry": { "type": "LineString", "coordinates": [ [ 121.0567471, 25.0327383 ], [ 121.0562738, 25.0323857 ], [ 121.0556553, 25.0318568 ], [ 121.0552206, 25.0314848 ], [ 121.0548264, 25.0311309 ], [ 121.0541347, 25.0306894 ], [ 121.0539523, 25.0305403 ], [ 121.053571, 25.0302957 ] ] } },
{ "type": "Feature", "properties": { "lot_id": "L61", "segment_ids": "S765; S801", "n_segments": 2, "length_total_m": 6352.6322253140997, "duration_days": 61, "primary_corridor_id": "1;115", "hard_disaster": true, "hard_metapath": false, "hard": true, "cost_k": 6352.6322253140997, "impact_weight_k": 0.0 }, "geometry": { "type": "MultiLineString", "coordinates": [ [ [ 121.1606255, 24.9090875 ], [ 121.1602724, 24.9090449 ], [ 121.159838, 24.908977 ], [ 121.1591312, 24.9088578 ], [ 121.158344, 24.9087301 ], [ 121.1581452, 24.9086954 ], [ 121.1579762, 24.9086698 ], [ 121.1575179, 24.9085866 ], [ 121.1571198, 24.90851 ], [ 121.1570791, 24.9085035 ], [ 121.1567459, 24.90845 ], [ 121.1561687, 24.9083573 ], [ 121.1550817, 24.9081973 ], [ 121.154718, 24.9081472 ], [ 121.1544977, 24.9081168 ], [ 121.1544422, 24.9081092 ], [ 121.1535773, 24.9079899 ], [ 121.1530362, 24.9079127 ], [ 121.152606, 24.9078499 ], [ 121.1519614, 24.9077533 ], [ 121.1514784, 24.9076786 ], [ 121.1504823, 24.9075561 ], [ 121.149907, 24.9074849 ], [ 121.1494794, 24.9074067 ], [ 121.1492022, 24.9073868 ], [ 121.1491883, 24.9073858 ], [ 121.1489074, 24.9073806 ], [ 121.1488921, 24.9073808 ], [ 121.1486365, 24.9073841 ], [ 121.1482928, 24.9073791 ], [ 121.1479584, 24.907376 ], [ 121.1474182, 24.9073817 ], [ 121.1471744, 24.9073733 ], [ 121.1469177, 24.9073596 ], [ 121.1465858, 24.9072934 ], [ 121.146378, 24.9072414 ], [ 121.1462331, 24.9071942 ], [ 121.1460717, 24.9071347 ], [ 121.1458232, 24.9070471 ], [ 121.1456795, 24.9069964 ], [ 121.1455352, 24.9069611 ], [ 121.1454343, 24.9069365 ], [ 121.1451419, 24.9068669 ], [ 121.1443501, 24.9067185 ], [ 121.1439435, 24.9065978 ], [ 121.1439252, 24.9065908 ], [ 121.143536, 24.9064239 ], [ 121.1425627, 24.9063386 ], [ 121.1420466, 24.9062797 ], [ 121.1418186, 24.9062626 ], [ 121.1414599, 24.9062348 ], [ 121.1412522, 24.9062069 ], [ 121.1409635, 24.9062264 ], [ 121.1406093, 24.9063373 ], [ 121.1402756, 24.9064805 ], [ 121.1400057, 24.9065846 ], [ 121.1381378, 24.9073323 ], [ 121.1378283, 24.9074393 ], [ 121.137536, 24.9075007 ], [ 121.1372769, 24.9075551 ], [ 121.1368133, 24.907579 ], [ 121.1367617, 24.9075734 ], [ 121.1364132, 24.9075356 ], [ 121.1360972, 24.9074388 ], [ 121.1346076, 24.9067972 ], [ 121.1339521, 24.9065876 ], [ 121.1334045, 24.9064216 ], [ 121.1326052, 24.9061114 ], [ 121.130623, 24.9053427 ], [ 121.129424, 24.9048001 ], [ 121.1287415, 24.9044438 ], [ 121.1283874, 24.9042954 ], [ 121.1279958, 24.9041288 ], [ 121.1273172, 24.9038466 ], [ 121.1272421, 24.9038076 ], [ 121.1264991, 24.9034366 ], [ 121.1254141, 24.9028382 ], [ 121.1242567, 24.9022032 ], [ 121.1238114, 24.9019964 ], [ 121.123448, 24.9018723 ], [ 121.1225774, 24.9014736 ], [ 121.1221027, 24.9012352 ], [ 121.1214576, 24.9008448 ], [ 121.12053, 24.9003467 ], [ 121.1200263, 24.900114 ], [ 121.1178201, 24.8989583 ], [ 121.1170879, 24.8985691 ], [ 121.1161867, 24.8981105 ], [ 121.115256, 24.8977625 ], [ 121.1147524, 24.8975387 ], [ 121.1141979, 24.8973343 ], [ 121.1136555, 24.8971775 ], [ 121.1131097, 24.8969552 ], [ 121.1120743, 24.896527 ], [ 121.1112081, 24.8961735 ], [ 121.1111087, 24.8961329 ], [ 121.109663, 24.8955928 ], [ 121.1092215, 24.8954421 ], [ 121.1081761, 24.8950852 ], [ 121.1075149, 24.8948445 ], [ 121.106797, 24.894589 ], [ 121.1063404, 24.894468 ], [ 121.1054864, 24.8943066 ], [ 121.1049187, 24.8941894 ] ], [ [ 121.1049187, 24.8941894 ], [ 121.1042718, 24.8940314 ], [ 121.1038194, 24.8938347 ], [ 121.1031044, 24.8935359 ], [ 121.1022999, 24.893176 ], [ 121.1019335, 24.8930218 ] ] ] } },
{ "type": "Feature", "properties": { "lot_id": "L62", "segment_ids": "S766; S767", "n_segments": 2, "length_total_m": 125.79443778569993, "duration_days": 1, "primary_corridor_id": "31", "hard_disaster": true, "hard_metapath": false, "hard": true, "cost_k": 125.79443778569993, "impact_weight_k": 0.0 }, "geometry": { "type": "MultiLineString", "coordinates": [ [ [ 121.0689072, 24.8813053 ], [ 121.0685002, 24.880654 ] ], [ [ 121.0689072, 24.8813053 ], [ 121.0689968, 24.8810668 ], [ 121.0690745, 24.8809568 ] ] ] } },
{ "type": "Feature", "properties": { "lot_id": "L63", "segment_ids": "S774", "n_segments": 1, "length_total_m": 5505.1700611277311, "duration_days": 56, "primary_corridor_id": "1", "hard_disaster": true, "hard_metapath": false, "hard": true, "cost_k": 5505.1700611277311, "impact_weight_k": 0.0 }, "geometry": { "type": "LineString", "coordinates": [ [ 121.2681809, 25.0150277 ], [ 121.266682, 25.0138384 ], [ 121.2651424, 25.0126619 ], [ 121.2630765, 25.011083 ], [ 121.2614167, 25.0097675 ], [ 121.2586992, 25.0076508 ], [ 121.255159, 25.0048699 ], [ 121.2529247, 25.0031148 ], [ 121.252391, 25.0026918 ], [ 121.2512323, 25.0017949 ], [ 121.2507174, 25.0014075 ], [ 121.2486466, 24.9997821 ], [ 121.2479841, 24.9992303 ], [ 121.24682, 24.9982093 ], [ 121.246415, 24.9978325 ], [ 121.2454306, 24.9968795 ], [ 121.2448251, 24.9962876 ], [ 121.244457, 24.9959242 ], [ 121.2436664, 24.9950716 ], [ 121.242563, 24.993987 ], [ 121.2413807, 24.9928038 ], [ 121.2406092, 24.9920252 ], [ 121.2398599, 24.9912849 ], [ 121.2393092, 24.9907275 ], [ 121.2387055, 24.9901165 ], [ 121.2376314, 24.9890413 ], [ 121.2365057, 24.9879314 ], [ 121.2343828, 24.9858051 ], [ 121.2327157, 24.9842737 ], [ 121.2295813, 24.9814886 ], [ 121.2288167, 24.9808108 ] ] } },
{ "type": "Feature", "properties": { "lot_id": "L64", "segment_ids": "S780", "n_segments": 1, "length_total_m": 449.97896366807504, "duration_days": 1, "primary_corridor_id": "31", "hard_disaster": false, "hard_metapath": false, "hard": false, "cost_k": 449.97896366807504, "impact_weight_k": 0.0 }, "geometry": { "type": "LineString", "coordinates": [ [ 121.2474456, 25.0440958 ], [ 121.2488294, 25.0453305 ], [ 121.2493953, 25.0458002 ], [ 121.2507122, 25.046854 ] ] } },
{ "type": "Feature", "properties": { "lot_id": "L65", "segment_ids": "S783", "n_segments": 1, "length_total_m": 185.66930616980113, "duration_days": 1, "primary_corridor_id": "31", "hard_disaster": false, "hard_metapath": false, "hard": false, "cost_k": 185.66930616980113, "impact_weight_k": 0.0 }, "geometry": { "type": "LineString", "coordinates": [ [ 121.1954673, 24.9939862 ], [ 121.1942456, 24.9927364 ] ] } },
{ "type": "Feature", "properties": { "lot_id": "L66", "segment_ids": "S794; S997", "n_segments": 2, "length_total_m": 587.45064349101494, "duration_days": 6, "primary_corridor_id": "31", "hard_disaster": true, "hard_metapath": false, "hard": true, "cost_k": 587.45064349101494, "impact_weight_k": 0.0 }, "geometry": { "type": "MultiLineString", "coordinates": [ [ [ 121.1534497, 24.9571405 ], [ 121.1533921, 24.9571162 ], [ 121.1529575, 24.9569407 ], [ 121.1527232, 24.956879 ], [ 121.1524529, 24.9568371 ], [ 121.1522297, 24.9568292 ], [ 121.1519935, 24.956845 ], [ 121.1516781, 24.9569194 ], [ 121.1513158, 24.9570106 ], [ 121.151034, 24.9570885 ], [ 121.1508601, 24.957111 ], [ 121.1506712, 24.9571234 ], [ 121.1504303, 24.9570966 ], [ 121.1501709, 24.9570265 ] ], [ [ 121.1555695, 24.9582184 ], [ 121.1551875, 24.9580349 ], [ 121.154062, 24.9574758 ], [ 121.1538582, 24.9573756 ], [ 121.1535044, 24.9571939 ], [ 121.1534497, 24.9571405 ] ] ] } },
{ "type": "Feature", "properties": { "lot_id": "L67", "segment_ids": "S796", "n_segments": 1, "length_total_m": 456.74895335261482, "duration_days": 5, "primary_corridor_id": "31", "hard_disaster": true, "hard_metapath": false, "hard": true, "cost_k": 456.74895335261482, "impact_weight_k": 0.0 }, "geometry": { "type": "LineString", "coordinates": [ [ 121.1510613, 24.9569497 ], [ 121.1512067, 24.9569205 ], [ 121.1518629, 24.9567218 ], [ 121.1521274, 24.9566726 ], [ 121.1523789, 24.956656 ], [ 121.1525285, 24.9566702 ], [ 121.1528375, 24.956717 ], [ 121.1529724, 24.956755 ], [ 121.1531707, 24.9568211 ], [ 121.1535112, 24.9569696 ], [ 121.1537185, 24.9570654 ], [ 121.1543106, 24.9573335 ], [ 121.1548303, 24.9575709 ], [ 121.1552733, 24.9577756 ] ] } },
{ "type": "Feature", "properties": { "lot_id": "L68", "segment_ids": "S798", "n_segments": 1, "length_total_m": 4908.1688504765634, "duration_days": 10, "primary_corridor_id": "3", "hard_disaster": false, "hard_metapath": false, "hard": false, "cost_k": 4908.1688504765634, "impact_weight_k": 0.0 }, "geometry": { "type": "LineString", "coordinates": [ [ 121.1616687, 24.7360219 ], [ 121.1621887, 24.7365647 ], [ 121.1626292, 24.7369735 ], [ 121.1627346, 24.7371746 ], [ 121.1627568, 24.7373782 ], [ 121.1627017, 24.7377185 ], [ 121.1626506, 24.7380342 ], [ 121.1626159, 24.7383311 ], [ 121.1625944, 24.7389559 ], [ 121.162589, 24.7392483 ], [ 121.1625599, 24.7402189 ], [ 121.16253, 24.7406656 ], [ 121.1625162, 24.7408529 ], [ 121.1625054, 24.7409998 ], [ 121.1624622, 24.7417189 ], [ 121.162434, 24.7423251 ], [ 121.1624448, 24.7429326 ], [ 121.1624665, 24.7433052 ], [ 121.1624899, 24.7434792 ], [ 121.1625328, 24.7436116 ], [ 121.1625797, 24.7436898 ], [ 121.1626474, 24.7437635 ], [ 121.1628412, 24.7439319 ], [ 121.1630222, 24.7440708 ], [ 121.1632985, 24.7442559 ], [ 121.1634668, 24.7443311 ], [ 121.1636432, 24.744371 ], [ 121.16396, 24.7443891 ], [ 121.1656692, 24.7444936 ], [ 121.1663892, 24.7445523 ], [ 121.1665856, 24.7445994 ], [ 121.1666445, 24.744634 ], [ 121.1667036, 24.7446688 ], [ 121.1668417, 24.7447601 ], [ 121.166949, 24.7448929 ], [ 121.1670509, 24.7450902 ], [ 121.1672413, 24.745545 ], [ 121.1673849, 24.745888 ], [ 121.1674045, 24.7459347 ], [ 121.1677724, 24.7468136 ], [ 121.167922, 24.7471694 ], [ 121.1680722, 24.7474678 ], [ 121.1681153, 24.7475433 ], [ 121.168166, 24.7476322 ], [ 121.1682839, 24.7477705 ], [ 121.1683498, 24.7478332 ], [ 121.1684893, 24.7479538 ], [ 121.1685483, 24.7479964 ], [ 121.1686958, 24.7480756 ], [ 121.1690297, 24.7482241 ], [ 121.169253, 24.7483177 ], [ 121.1701831, 24.7487077 ], [ 121.1710685, 24.7491487 ], [ 121.1712625, 24.7492943 ], [ 121.1713717, 24.7494306 ], [ 121.1714357, 24.7496394 ], [ 121.1714355, 24.7498749 ], [ 121.1714023, 24.7502129 ], [ 121.1713944, 24.7503273 ], [ 121.1713665, 24.7505895 ], [ 121.1712881, 24.7512951 ], [ 121.1712421, 24.7517432 ], [ 121.1712678, 24.7519299 ], [ 121.1713234, 24.7521177 ], [ 121.1714444, 24.7522524 ], [ 121.1715816, 24.7523449 ], [ 121.1716194, 24.7523821 ], [ 121.1718742, 24.7525843 ], [ 121.1720368, 24.752778 ], [ 121.1721612, 24.7529758 ], [ 121.1721993, 24.7530576 ], [ 121.1722927, 24.7532584 ], [ 121.1724026, 24.753561 ], [ 121.1724643, 24.7538545 ], [ 121.1725059, 24.7543246 ], [ 121.1725696, 24.7555416 ], [ 121.1725958, 24.7560422 ], [ 121.1726145, 24.7563986 ], [ 121.1726614, 24.7570027 ], [ 121.1726507, 24.7572122 ], [ 121.1726281, 24.7573186 ], [ 121.1725689, 24.7574496 ], [ 121.1724482, 24.7576287 ], [ 121.1723248, 24.7577711 ], [ 121.172176, 24.7579526 ], [ 121.1720398, 24.7581225 ], [ 121.1719091, 24.7582997 ], [ 121.1718393, 24.7584141 ], [ 121.171783, 24.7585518 ], [ 121.1717111, 24.758785 ], [ 121.1714066, 24.7599305 ], [ 121.1712788, 24.7603883 ], [ 121.171264, 24.7605088 ], [ 121.1712546, 24.760661 ], [ 121.1712895, 24.7608571 ], [ 121.1716529, 24.7616657 ], [ 121.1718753, 24.7621348 ], [ 121.1720056, 24.7623367 ], [ 121.1723597, 24.7628884 ], [ 121.1731255, 24.7640733 ], [ 121.1732421, 24.7643169 ], [ 121.1732743, 24.7645507 ], [ 121.1732341, 24.7647175 ], [ 121.1731067, 24.7650012 ], [ 121.1729806, 24.7652509 ], [ 121.1728727, 24.7655453 ], [ 121.1728522, 24.7657906 ], [ 121.1728533, 24.7658102 ], [ 121.1728578, 24.7658909 ], [ 121.1728602, 24.7659337 ], [ 121.1728888, 24.7662431 ], [ 121.1729347, 24.7665127 ], [ 121.1729787, 24.7667104 ], [ 121.1730518, 24.766898 ], [ 121.1731585, 24.7670858 ], [ 121.1738095, 24.767891 ], [ 121.1740216, 24.7682176 ], [ 121.1741232, 24.7685045 ], [ 121.1741795, 24.7688305 ], [ 121.1741932, 24.770394 ], [ 121.174195, 24.7705007 ], [ 121.1742301, 24.7710346 ], [ 121.1742716, 24.7716651 ], [ 121.1744231, 24.7722545 ], [ 121.1746109, 24.773089 ], [ 121.1746439, 24.7732357 ] ] } },
{ "type": "Feature", "properties": { "lot_id": "L69", "segment_ids": "S812", "n_segments": 1, "length_total_m": 74.017051528254157, "duration_days": 1, "primary_corridor_id": "segment_812", "hard_disaster": false, "hard_metapath": false, "hard": false, "cost_k": 74.017051528254157, "impact_weight_k": 0.0 }, "geometry": { "type": "LineString", "coordinates": [ [ 121.1337493, 24.9714094 ], [ 121.1336297, 24.9712183 ], [ 121.133511, 24.9711406 ], [ 121.1333566, 24.971113 ], [ 121.1331688, 24.9711028 ] ] } },
{ "type": "Feature", "properties": { "lot_id": "L70", "segment_ids": "S838", "n_segments": 1, "length_total_m": 520.17662160661928, "duration_days": 2, "primary_corridor_id": "66", "hard_disaster": false, "hard_metapath": false, "hard": false, "cost_k": 520.17662160661928, "impact_weight_k": 0.0 }, "geometry": { "type": "LineString", "coordinates": [ [ 121.1038066, 24.9982254 ], [ 121.1034467, 24.9984823 ], [ 121.1027679, 24.9989667 ], [ 121.1027001, 24.9990151 ], [ 121.1019211, 24.9995436 ], [ 121.1010733, 25.0001187 ], [ 121.1004796, 25.0005202 ], [ 121.0999638, 25.0008713 ], [ 121.099687, 25.0010429 ] ] } },
{ "type": "Feature", "properties": { "lot_id": "L71", "segment_ids": "S866", "n_segments": 1, "length_total_m": 130.05889712374449, "duration_days": 1, "primary_corridor_id": "幼獅交流道", "hard_disaster": false, "hard_metapath": false, "hard": false, "cost_k": 130.05889712374449, "impact_weight_k": 0.0 }, "geometry": { "type": "LineString", "coordinates": [ [ 121.1709153, 24.9247022 ], [ 121.171273, 24.924719 ], [ 121.1715582, 24.9248049 ], [ 121.1717935, 24.9249838 ], [ 121.1718604, 24.9250728 ], [ 121.171976, 24.9252266 ] ] } },
{ "type": "Feature", "properties": { "lot_id": "L72", "segment_ids": "S890", "n_segments": 1, "length_total_m": 13.650613649174911, "duration_days": 1, "primary_corridor_id": "segment_890", "hard_disaster": false, "hard_metapath": false, "hard": false, "cost_k": 13.650613649174911, "impact_weight_k": 0.0 }, "geometry": { "type": "LineString", "coordinates": [ [ 121.1962901, 24.9307463 ], [ 121.1963806, 24.930655 ] ] } },
{ "type": "Feature", "properties": { "lot_id": "L73", "segment_ids": "S903", "n_segments": 1, "length_total_m": 112.93143152678478, "duration_days": 1, "primary_corridor_id": "3", "hard_disaster": false, "hard_metapath": false, "hard": false, "cost_k": 112.93143152678478, "impact_weight_k": 0.0 }, "geometry": { "type": "LineString", "coordinates": [ [ 121.1770067, 24.7788232 ], [ 121.1768886, 24.7785242 ], [ 121.1768739, 24.7784606 ], [ 121.1768193, 24.7782247 ], [ 121.1767895, 24.7779193 ], [ 121.1767749, 24.777835 ] ] } },
{ "type": "Feature", "properties": { "lot_id": "L74", "segment_ids": "S910", "n_segments": 1, "length_total_m": 6.9522113693387357, "duration_days": 1, "primary_corridor_id": "segment_910", "hard_disaster": false, "hard_metapath": false, "hard": false, "cost_k": 6.9522113693387357, "impact_weight_k": 0.0 }, "geometry": { "type": "LineString", "coordinates": [ [ 121.201926, 24.8182692 ], [ 121.2019918, 24.8182507 ] ] } },
{ "type": "Feature", "properties": { "lot_id": "L75", "segment_ids": "S918", "n_segments": 1, "length_total_m": 7.3413739586321602, "duration_days": 1, "primary_corridor_id": "segment_918", "hard_disaster": false, "hard_metapath": false, "hard": false, "cost_k": 7.3413739586321602, "impact_weight_k": 0.0 }, "geometry": { "type": "LineString", "coordinates": [ [ 121.1998279, 24.8128758 ], [ 121.1998914, 24.8128436 ] ] } },
{ "type": "Feature", "properties": { "lot_id": "L76", "segment_ids": "S924", "n_segments": 1, "length_total_m": 7.2460689908781992, "duration_days": 1, "primary_corridor_id": "segment_924", "hard_disaster": false, "hard_metapath": false, "hard": false, "cost_k": 7.2460689908781992, "impact_weight_k": 0.0 }, "geometry": { "type": "LineString", "coordinates": [ [ 121.1942158, 24.8053115 ], [ 121.1941686, 24.8053606 ] ] } },
{ "type": "Feature", "properties": { "lot_id": "L77", "segment_ids": "S932", "n_segments": 1, "length_total_m": 9.2658938010723055, "duration_days": 1, "primary_corridor_id": "segment_932", "hard_disaster": false, "hard_metapath": false, "hard": false, "cost_k": 9.2658938010723055, "impact_weight_k": 0.0 }, "geometry": { "type": "LineString", "coordinates": [ [ 121.2061589, 24.8317904 ], [ 121.2062486, 24.8317726 ] ] } },
{ "type": "Feature", "properties": { "lot_id": "L78", "segment_ids": "S952", "n_segments": 1, "length_total_m": 9.0095768913126388, "duration_days": 1, "primary_corridor_id": "3乙", "hard_disaster": false, "hard_metapath": false, "hard": false, "cost_k": 9.0095768913126388, "impact_weight_k": 0.0 }, "geometry": { "type": "LineString", "coordinates": [ [ 121.244611, 24.8486877 ], [ 121.2445739, 24.848614 ] ] } },
{ "type": "Feature", "properties": { "lot_id": "L79", "segment_ids": "S969; S971", "n_segments": 2, "length_total_m": 1801.0763341906122, "duration_days": 14, "primary_corridor_id": "3", "hard_disaster": true, "hard_metapath": false, "hard": true, "cost_k": 1801.0763341906122, "impact_weight_k": 0.0 }, "geometry": { "type": "MultiLineString", "coordinates": [ [ [ 121.2000042, 24.824356 ], [ 121.1998759, 24.8262262 ], [ 121.1997233, 24.8293124 ] ], [ [ 121.1997233, 24.8293124 ], [ 121.1995644, 24.8314242 ], [ 121.1994596, 24.8336383 ], [ 121.1993873, 24.8352777 ], [ 121.1993641, 24.8357478 ], [ 121.1993282, 24.8364753 ], [ 121.1992739, 24.8373021 ], [ 121.199231, 24.8381176 ], [ 121.1991467, 24.8394321 ], [ 121.199113, 24.8405322 ] ] ] } },
{ "type": "Feature", "properties": { "lot_id": "L80", "segment_ids": "S987", "n_segments": 1, "length_total_m": 343.03679818087937, "duration_days": 1, "primary_corridor_id": "31", "hard_disaster": false, "hard_metapath": false, "hard": false, "cost_k": 343.03679818087937, "impact_weight_k": 0.0 }, "geometry": { "type": "LineString", "coordinates": [ [ 121.1816145, 24.9795686 ], [ 121.1828552, 24.9808645 ], [ 121.1832121, 24.9812113 ], [ 121.1835499, 24.9815591 ], [ 121.1838719, 24.9818769 ] ] } },
{ "type": "Feature", "properties": { "lot_id": "L81", "segment_ids": "S990", "n_segments": 1, "length_total_m": 1527.1721811635578, "duration_days": 4, "primary_corridor_id": "31", "hard_disaster": false, "hard_metapath": false, "hard": false, "cost_k": 1527.1721811635578, "impact_weight_k": 0.0 }, "geometry": { "type": "LineString", "coordinates": [ [ 121.1836883, 24.9815573 ], [ 121.1851322, 24.9830131 ], [ 121.1851859, 24.9830686 ], [ 121.1853297, 24.9832262 ], [ 121.186584, 24.9845612 ], [ 121.1867301, 24.9847105 ], [ 121.1868457, 24.9848486 ], [ 121.1878138, 24.9858547 ], [ 121.1880763, 24.9861122 ], [ 121.1895231, 24.9875524 ], [ 121.1901271, 24.9881641 ], [ 121.191774, 24.9897942 ], [ 121.193599, 24.9915895 ], [ 121.1938023, 24.9917813 ] ] } },
{ "type": "Feature", "properties": { "lot_id": "L82", "segment_ids": "S994", "n_segments": 1, "length_total_m": 2536.1748949732983, "duration_days": 6, "primary_corridor_id": "31;桃102", "hard_disaster": false, "hard_metapath": false, "hard": false, "cost_k": 2536.1748949732983, "impact_weight_k": 0.0 }, "geometry": { "type": "LineString", "coordinates": [ [ 121.1270188, 24.9453706 ], [ 121.127733, 24.9456337 ], [ 121.1277654, 24.9456501 ], [ 121.1279552, 24.9457332 ], [ 121.128789, 24.9461635 ], [ 121.1296953, 24.946579 ], [ 121.1332994, 24.9481273 ], [ 121.1361787, 24.9493896 ], [ 121.1362519, 24.9494218 ], [ 121.1364431, 24.9495056 ], [ 121.1378263, 24.950092 ], [ 121.1381509, 24.9502208 ], [ 121.1388831, 24.950509 ], [ 121.1391494, 24.9506245 ], [ 121.1402229, 24.9511547 ], [ 121.140515, 24.9512867 ], [ 121.1418521, 24.9518588 ], [ 121.1434968, 24.9525613 ], [ 121.1453169, 24.9534091 ], [ 121.1470097, 24.9540417 ], [ 121.1476932, 24.9542229 ], [ 121.1479662, 24.9543354 ], [ 121.1482226, 24.9544954 ], [ 121.1484404, 24.9547204 ], [ 121.148559, 24.9549228 ], [ 121.1487541, 24.9552205 ], [ 121.1490093, 24.9555992 ], [ 121.1491174, 24.9557595 ] ] } },
{ "type": "Feature", "properties": { "lot_id": "L83", "segment_ids": "S1002", "n_segments": 1, "length_total_m": 12.31584956066528, "duration_days": 1, "primary_corridor_id": "segment_1002", "hard_disaster": false, "hard_metapath": false, "hard": false, "cost_k": 12.31584956066528, "impact_weight_k": 0.0 }, "geometry": { "type": "LineString", "coordinates": [ [ 121.1554853, 24.9578757 ], [ 121.1554488, 24.95777 ] ] } },
{ "type": "Feature", "properties": { "lot_id": "L84", "segment_ids": "S1024", "n_segments": 1, "length_total_m": 209.57297247716855, "duration_days": 1, "primary_corridor_id": "31", "hard_disaster": false, "hard_metapath": false, "hard": false, "cost_k": 209.57297247716855, "impact_weight_k": 0.0 }, "geometry": { "type": "LineString", "coordinates": [ [ 121.1780758, 24.9758405 ], [ 121.1793587, 24.9771556 ], [ 121.1794512, 24.9772539 ] ] } },
{ "type": "Feature", "properties": { "lot_id": "L85", "segment_ids": "S1032", "n_segments": 1, "length_total_m": 28.941338264941667, "duration_days": 1, "primary_corridor_id": "segment_1032", "hard_disaster": false, "hard_metapath": false, "hard": false, "cost_k": 28.941338264941667, "impact_weight_k": 0.0 }, "geometry": { "type": "LineString", "coordinates": [ [ 121.1938848, 24.9919913 ], [ 121.1938787, 24.9920637 ], [ 121.193827, 24.9920949 ], [ 121.1937586, 24.9921007 ], [ 121.1936912, 24.9920684 ] ] } },
{ "type": "Feature", "properties": { "lot_id": "L86", "segment_ids": "S1044", "n_segments": 1, "length_total_m": 8.0749970478289459, "duration_days": 1, "primary_corridor_id": "1", "hard_disaster": true, "hard_metapath": false, "hard": true, "cost_k": 8.0749970478289459, "impact_weight_k": 0.0 }, "geometry": { "type": "LineString", "coordinates": [ [ 121.1834455, 24.9187958 ], [ 121.1835048, 24.918747 ] ] } },
{ "type": "Feature", "properties": { "lot_id": "L87", "segment_ids": "S1100", "n_segments": 1, "length_total_m": 803.92200429520619, "duration_days": 9, "primary_corridor_id": "31", "hard_disaster": true, "hard_metapath": false, "hard": true, "cost_k": 803.92200429520619, "impact_weight_k": 0.0 }, "geometry": { "type": "LineString", "coordinates": [ [ 121.1888892, 24.9873699 ], [ 121.1877168, 24.9862086 ], [ 121.1866807, 24.9851921 ], [ 121.1865367, 24.9850434 ], [ 121.1856218, 24.9841612 ], [ 121.1845354, 24.9830732 ], [ 121.1843651, 24.9828874 ], [ 121.1842646, 24.9827945 ], [ 121.1835421, 24.9820073 ] ] } },
{ "type": "Feature", "properties": { "lot_id": "L88", "segment_ids": "S1101", "n_segments": 1, "length_total_m": 746.80308281052589, "duration_days": 2, "primary_corridor_id": "31", "hard_disaster": false, "hard_metapath": false, "hard": false, "cost_k": 746.80308281052589, "impact_weight_k": 0.0 }, "geometry": { "type": "LineString", "coordinates": [ [ 121.1887692, 24.9871483 ], [ 121.1882715, 24.986637 ], [ 121.1876523, 24.9860189 ], [ 121.1871582, 24.9855249 ], [ 121.1867569, 24.9851401 ], [ 121.1866115, 24.9849912 ], [ 121.1860604, 24.9844548 ], [ 121.1846763, 24.9831077 ], [ 121.1845065, 24.9829305 ], [ 121.1838003, 24.9821678 ] ] } },
{ "type": "Feature", "properties": { "lot_id": "L89", "segment_ids": "S1114", "n_segments": 1, "length_total_m": 98.352116070511272, "duration_days": 1, "primary_corridor_id": "中豐交流道", "hard_disaster": false, "hard_metapath": false, "hard": false, "cost_k": 98.352116070511272, "impact_weight_k": 0.0 }, "geometry": { "type": "LineString", "coordinates": [ [ 121.220715, 24.9699662 ], [ 121.2205991, 24.9702473 ], [ 121.2205266, 24.9704669 ], [ 121.2203912, 24.9708002 ] ] } }
]
}
