{
"type": "FeatureCollection",
"name": "clusters",
"crs": { "type": "name", "properties": { "name": "urn:ogc:def:crs:OGC:1.3:CRS84" } },
"features": [
{ "type": "Feature", "properties": { "cluster_id": "C0", "name": "FactoryCluster_auto_0", "node_type": "factory", "n_members": 467, "n_industrial": 259, "n_warehouse": 208, "member_names": "ANDREAS STIHL AG & Co. KG (Werk 6); AWS-Zentrale; Abfallwirtschaft Stuttgart; Abfallwirtschaftsamt Stuttgart; Aichelin Service GmbH; Altes Gaswerk; Ameisenbühl; Amt für Abfallwirtschaft und Stadtreinigung Stützpunkt im Vogelsang 7; Asphaltgesellschaft Stuttgart; Außenbezirk Stuttgart; Außenlagerplatz La Planta Garten- und Landschaftsbau; BE-Fläche Am Ostkai; BE-Fläche Benzstraße; BE-Fläche Hafenbahnstraße; BE-Fläche Obertürkheim; BLG Industrielogistik; Basler Haarkosmetik; Bau 50-53; Bauhof; Bauhof + Recyclinghof Rommelshausen; Bauhof Bad Cannstatt; Bauhof Stadt Waiblingen; Baulogistik Rosensteintunnel; Baustelleneinrichtungsfläche; Bessey; Bessey Tool GmbH; Betriebshof Stadt Ditzingen; Bosch - Standort Feuerbach; Citizen Machinery & Boley GmbH; Coperion; Dinkelacker Schwaben Bräu; Dinkelacker-Schwaben Bräu; Ditzingen-Ost; Druckregler Geißeiche; Eberhardstraße; Ehem. Rössler + Weissenberger; Eisental; EnBW-Areal; Enzkraftwerk Bietigheim-Bissingen; Euronics; Fellbach-Ost; Fischer + Trezza Import GmbH; Franck-Areal; Franz Hof; Frischbeton West; GEHE; Gaswerk Stuttgart-Gaisburg; Getränke Streng; Gewerbegebiet Aldingen; Gewerbegebiet Auf der Höhe; Gewerbegebiet Hohenstange; Gewerbegebiet Kesselstraße; Gewerbegebiet Lange Furchäcker; Gewerbegebiet Max-Eyth-Straße; Gschnaidt; Gärtnerei Kiemle; Hahn+Kolb; Hauptklärwerk Stuttgart-Mühlhausen; Heizkraftwerk Korber Höhe; Heizkraftwerk Stuttgart-Gaisburg; Heyne Büromöbel; Heyne Electronic; Hochwasserbehälter Jägerhaus; Hochwasserbehälter Wannenstraße; Hof Mauer; IKEA; Ille Papier-Service GmbH; Im Riebeisen; Im Tal; Im Vogelsang; Index-Werke; Industriegebiet Feuerbach-Ost; Industriegebiet Lingwiesen; Industriegebiet Siemensstraße; Innerer Nordbahnhof; Karle Recycling; Kläranlage; Kläranlage Nesselwörth; Kornwestheim Ubf; Kraftwerk Stuttgart-Münster; Kreidler; Krieger; LSU Schäberle; Lauster-Areal; Lichtäcker; Liegenschaftsamt Weingut; Mahle Werk 2 Haldenstraße; Materialumschlagplatz Trockenbecken; Mercedes-Benz Werk Untertürkheim; Mercedes-Benz Werksteil Bad Cannstatt; Mercedes-Benz Werkteil Brühl; Mercedes-Benz Werkteil Hedelfingen; Mercedes-Benz Werkteil Mettingen; Mercedes-Benz Werkteil Mettingen (4); Modellbau Kurz; My Place Selfstorage; Mömax Lager; Müllerheim; Netze BW Umspannwerk Degerloch; Osterholz; Parker Prädifa; Paul Bauder; Paul Lange (Zentrallager); Poco Einrichtungsmärkte - Lager Stuttgart; Porsche Werk 1; Porsche Werk 2; Porsche Werk 3; Porsche Werk 4; Porsche Werk 4 Bau 34; Porsche Werk 5; Porsche Werk 6; Recycling-Hof; Robert Bosch GmbH Werk Waiblingen; Roller; SSB Gleisbauhof; Sanacorp Pharmahandel GmbH; Schleuse Hofen; Schmalz+Schön Logistik-Gruppe; Schrausi; Seewiesen; Sicherheitshafen Bad Cannstatt; Sri Sithivinayagar Kovil; Strombergstraße; Stuttgart 21: Zwischenangriff Ulmer Straße; Stuttgarter Hofbräu; Stuttgarter Verlagskontor; Syntegon Technology GmbH; TAL Schieberstation Enz; TBR FRISCHBETON Stuttgart; Technisches Kulturdenkmal Anlände Uferstraße 108; ThyssenKrupp Schulte; Tiefbauamt Bauabteilung Mitte Bezirksstelle 1 Bauhof; Tiefbauamt Mitte/Nord Baubetriebsstelle Westbahnhof; Trinkwasserbehälter Hasenberg; Trinkwasserbehälter Kanonenweg; Umspannwerk Seewiesen; Waiblingen-Süd; Warenlager Adasys Pospole; Wasserbehälter Stuttgarter Straße; Wasserkraftwerk Bäckermühle; Wasserkraftwerk Esslingen; Wasserwerk Berg - EnBW Betriebsstätte Berg; Wasserwerk Gallenklinge; Wasserwerk Münster; Weingärtner Bad Cannstatt eG; Wilhelma Betriebshof; Zentrale Werkstätten; Zentrallager der Staatstheater Stuttgart; Zweckverband Landeswasserversorgung; Züblin; agra Wertstoffhof Stuttgart; digiCon AG; ehem. Schrottplatz; mateco GmbH; Äußerer Nordbahnhof; Übergabestation Birkenkopf", "is_named_seed": false }, "geometry": { "type": "Point", "coordinates": [ 9.201983406737211, 48.821202203138391 ] } },
{ "type": "Feature", "properties": { "cluster_id": "C1", "name": "FactoryCluster_auto_1", "node_type": "factory", "n_members": 46, "n_industrial": 25, "n_warehouse": 21, "member_names": "Felix Renner Transporte GmbH; Hans Scheffel Grabdenkmale GmbH; Hochbehälter Hohenheim; Julius Bach Bauunternehmung GmbH; Klärwerk Stuttgart-Möhringen; Lagerplatz; Lagerplatz Dachdecker Schmid; Lagerplatz Tiefbauamt Bauabteilung Filder 2; Lagerplatz Walz & Rich; Netze BW; Otto Lober Stahlrohrgerüstbau GmbH; SSB Busbetriebshof Zentrum BF7; SSB Holzlager; SSB Stadtbahnbetriebshof Möhringen BF2; SSB-Zentrum; Schaltanlage Birkach; Schulungsheim Leinfelden; Straßenmeisterei Deizisau - Stützpunkt Möhringen; Wertstoffhof Vaihingen", "is_named_seed": false }, "geometry": { "type": "Point", "coordinates": [ 9.139293292810937, 48.724016028389201 ] } },
{ "type": "Feature", "properties": { "cluster_id": "C2", "name": "LogisticsCluster_auto_2", "node_type": "logistics", "n_members": 6, "n_industrial": 1, "n_warehouse": 5, "member_names": "", "is_named_seed": false }, "geometry": { "type": "Point", "coordinates": [ 9.349376534949897, 48.874736531230496 ] } },
{ "type": "Feature", "properties": { "cluster_id": "C3", "name": "FactoryCluster_auto_3", "node_type": "factory", "n_members": 4, "n_industrial": 4, "n_warehouse": 0, "member_names": "Gewerbegebiet Schießtal; Neckaraue", "is_named_seed": false }, "geometry": { "type": "Point", "coordinates": [ 9.264430390450849, 48.897175456073974 ] } },
{ "type": "Feature", "properties": { "cluster_id": "C4", "name": "FactoryCluster_auto_4", "node_type": "factory", "n_members": 4, "n_industrial": 4, "n_warehouse": 0, "member_names": "ANDREAS STIHL AG & Co. KG - Werk 1; ANDREAS STIHL AG & Co. KG - Werk 2; Gewerbegebiet Hohenacker; Gleichauf GmbH", "is_named_seed": false }, "geometry": { "type": "Point", "coordinates": [ 9.324842600186489, 48.85657389283859 ] } },
{ "type": "Feature", "properties": { "cluster_id": "C5", "name": "FactoryCluster_auto_5", "node_type": "factory", "n_members": 18, "n_industrial": 9, "n_warehouse": 9, "member_names": "Gewerbegebiet Kemnat; Gewerbegebiet Ruit; Glohr Holzbau; Klärwerk Plieningen; Novotechnik; Stitz; Städtischer Bauhof; Wittumäcker", "is_named_seed": false }, "geometry": { "type": "Point", "coordinates": [ 9.245010044343838, 48.722979565568814 ] } },
{ "type": "Feature", "properties": { "cluster_id": "C6", "name": "FactoryCluster_auto_6", "node_type": "factory", "n_members": 2, "n_industrial": 2, "n_warehouse": 0, "member_names": "Biogasanlage; Umspannwerk Mühlhausen", "is_named_seed": false }, "geometry": { "type": "Point", "coordinates": [ 9.213589466974941, 48.858489783952159 ] } },
{ "type": "Feature", "properties": { "cluster_id": "C7", "name": "FactoryCluster_auto_7", "node_type": "factory", "n_members": 6, "n_industrial": 4, "n_warehouse": 2, "member_names": "Amprion Umspannwerk Hoheneck; Transnet BW Umspannwerk Hoheneck", "is_named_seed": false }, "geometry": { "type": "Point", "coordinates": [ 9.195762308691195, 48.920115056375089 ] } },
{ "type": "Feature", "properties": { "cluster_id": "C8", "name": "FactoryCluster_auto_8", "node_type": "factory", "n_members": 49, "n_industrial": 28, "n_warehouse": 21, "member_names": "Diekwisch TLG GmbH & Co. KG; Gewerbegebiet Zinsser; Gruppenklärwerk Häldenmühle; Häckselplatz; Industriegebiet Murr; Industriegebiet Neckar I; Industriegebiet Neckar II; Kaminsteinwerk Erich Müller; Kläranlage Höpfigheim; Kreuzwegäcker; Müller - Die lila Logistik; Nahwärmenetz Ingersheim; Pumpstation Ingersheim; Pumpstation Pleidelsheim; Schleuse Pleidelsheim; Untere Wörth", "is_named_seed": false }, "geometry": { "type": "Point", "coordinates": [ 9.233008723434899, 48.961267746605571 ] } },
{ "type": "Feature", "properties": { "cluster_id": "C9", "name": "FactoryCluster_auto_9", "node_type": "factory", "n_members": 15, "n_industrial": 14, "n_warehouse": 1, "member_names": "Alte Ziegelei; Betriebshof Markgröningen; Gruppenklärwerk Talhausen; Kläranlage Leudelsbach; Mahle; Mall; Maulbronner Weg; Maulbronner Weg II; Strässle I; Strässle II", "is_named_seed": false }, "geometry": { "type": "Point", "coordinates": [ 9.088892064217077, 48.905699327853441 ] } },
{ "type": "Feature", "properties": { "cluster_id": "C10", "name": "FactoryCluster_auto_10", "node_type": "factory", "n_members": 7, "n_industrial": 6, "n_warehouse": 1, "member_names": "Breuninger; Gewerbepark Eichwald; Gewerbepark Eichwald (Süderweiterung)", "is_named_seed": false }, "geometry": { "type": "Point", "coordinates": [ 9.060330961729258, 48.942567597127244 ] } },
{ "type": "Feature", "properties": { "cluster_id": "C11", "name": "FactoryCluster_auto_11", "node_type": "factory", "n_members": 2, "n_industrial": 1, "n_warehouse": 1, "member_names": "", "is_named_seed": false }, "geometry": { "type": "Point", "coordinates": [ 9.112630779029484, 48.997598973005317 ] } },
{ "type": "Feature", "properties": { "cluster_id": "C12", "name": "FactoryCluster_auto_12", "node_type": "factory", "n_members": 20, "n_industrial": 13, "n_warehouse": 7, "member_names": "AMG Halle 9 / Kantine; Bioenergie Obertorhöfe; Frießinger Mühle; Hofschwärze-Gehrn; Kalkwerk; Mercedes-AMG; Rikker Holzbau", "is_named_seed": false }, "geometry": { "type": "Point", "coordinates": [ 9.332464861623864, 48.943278358217739 ] } },
{ "type": "Feature", "properties": { "cluster_id": "C13", "name": "FactoryCluster_auto_13", "node_type": "factory", "n_members": 6, "n_industrial": 4, "n_warehouse": 2, "member_names": "Am Heinzenberger Weg; Kienle + Spiess; Obere Mühle", "is_named_seed": false }, "geometry": { "type": "Point", "coordinates": [ 9.072266019177192, 48.963280289260616 ] } },
{ "type": "Feature", "properties": { "cluster_id": "C14", "name": "FactoryCluster_auto_14", "node_type": "factory", "n_members": 3, "n_industrial": 2, "n_warehouse": 1, "member_names": "", "is_named_seed": false }, "geometry": { "type": "Point", "coordinates": [ 9.142509142482695, 49.000562886306014 ] } },
{ "type": "Feature", "properties": { "cluster_id": "C15", "name": "FactoryCluster_auto_15", "node_type": "factory", "n_members": 13, "n_industrial": 11, "n_warehouse": 2, "member_names": "", "is_named_seed": false }, "geometry": { "type": "Point", "coordinates": [ 9.245774164915249, 48.931794757390499 ] } },
{ "type": "Feature", "properties": { "cluster_id": "C16", "name": "FactoryCluster_auto_16", "node_type": "factory", "n_members": 2, "n_industrial": 2, "n_warehouse": 0, "member_names": "Autoverwertung Mack; Mauserstraße", "is_named_seed": false }, "geometry": { "type": "Point", "coordinates": [ 9.236637920508702, 48.890825706291317 ] } },
{ "type": "Feature", "properties": { "cluster_id": "C17", "name": "FactoryCluster_auto_17", "node_type": "factory", "n_members": 4, "n_industrial": 4, "n_warehouse": 0, "member_names": "Knorr-Bremse SfN; Robert Bosch GmbH", "is_named_seed": false }, "geometry": { "type": "Point", "coordinates": [ 9.078437315629474, 48.881896401446696 ] } },
{ "type": "Feature", "properties": { "cluster_id": "C18", "name": "LogisticsCluster_auto_18", "node_type": "logistics", "n_members": 3, "n_industrial": 1, "n_warehouse": 2, "member_names": "", "is_named_seed": false }, "geometry": { "type": "Point", "coordinates": [ 9.297746548033174, 48.93950222293806 ] } },
{ "type": "Feature", "properties": { "cluster_id": "C19", "name": "LogisticsCluster_auto_19", "node_type": "logistics", "n_members": 3, "n_industrial": 1, "n_warehouse": 2, "member_names": "Deutsches Zentrum für Luft- und Raumfahrt e.V.", "is_named_seed": false }, "geometry": { "type": "Point", "coordinates": [ 9.104930712843348, 48.749961703002086 ] } },
{ "type": "Feature", "properties": { "cluster_id": "C20", "name": "FactoryCluster_auto_20", "node_type": "factory", "n_members": 2, "n_industrial": 2, "n_warehouse": 0, "member_names": "Lachenäcker", "is_named_seed": false }, "geometry": { "type": "Point", "coordinates": [ 9.292004610330229, 48.857875960045675 ] } },
{ "type": "Feature", "properties": { "cluster_id": "C21", "name": "FactoryCluster_auto_21", "node_type": "factory", "n_members": 1, "n_industrial": 1, "n_warehouse": 0, "member_names": "Umspannwerk Echterdingen Nord", "is_named_seed": false }, "geometry": { "type": "Point", "coordinates": [ 9.172034948374691, 48.703415642815415 ] } },
{ "type": "Feature", "properties": { "cluster_id": "C22", "name": "FactoryCluster_auto_22", "node_type": "factory", "n_members": 1, "n_industrial": 1, "n_warehouse": 0, "member_names": "Robert Bosch GmbH", "is_named_seed": false }, "geometry": { "type": "Point", "coordinates": [ 9.062093231513597, 48.78566584111519 ] } },
{ "type": "Feature", "properties": { "cluster_id": "C23", "name": "FactoryCluster_auto_23", "node_type": "factory", "n_members": 1, "n_industrial": 1, "n_warehouse": 0, "member_names": "", "is_named_seed": false }, "geometry": { "type": "Point", "coordinates": [ 9.206167822630833, 48.763406757931698 ] } },
{ "type": "Feature", "properties": { "cluster_id": "C24", "name": "FactoryCluster_auto_24", "node_type": "factory", "n_members": 1, "n_industrial": 1, "n_warehouse": 0, "member_names": "Steinbruch", "is_named_seed": false }, "geometry": { "type": "Point", "coordinates": [ 9.324464199040349, 48.774556083823107 ] } },
{ "type": "Feature", "properties": { "cluster_id": "C25", "name": "FactoryCluster_auto_25", "node_type": "factory", "n_members": 1, "n_industrial": 1, "n_warehouse": 0, "member_names": "Waldplätze", "is_named_seed": false }, "geometry": { "type": "Point", "coordinates": [ 9.085245955255694, 48.730686708163361 ] } },
{ "type": "Feature", "properties": { "cluster_id": "C26", "name": "FactoryCluster_auto_26", "node_type": "factory", "n_members": 1, "n_industrial": 1, "n_warehouse": 0, "member_names": "", "is_named_seed": false }, "geometry": { "type": "Point", "coordinates": [ 9.225154337378088, 48.907382771107365 ] } },
{ "type": "Feature", "properties": { "cluster_id": "C27", "name": "FactoryCluster_auto_27", "node_type": "factory", "n_members": 1, "n_industrial": 1, "n_warehouse": 0, "member_names": "Kappel-Halden", "is_named_seed": false }, "geometry": { "type": "Point", "coordinates": [ 9.310466732998378, 48.88797065600891 ] } },
{ "type": "Feature", "properties": { "cluster_id": "C28", "name": "FactoryCluster_auto_28", "node_type": "factory", "n_members": 1, "n_industrial": 1, "n_warehouse": 0, "member_names": "Kläranlage Hessigheim", "is_named_seed": false }, "geometry": { "type": "Point", "coordinates": [ 9.181846433460898, 48.986348002751342 ] } },
{ "type": "Feature", "properties": { "cluster_id": "C29", "name": "FactoryCluster_auto_29", "node_type": "factory", "n_members": 1, "n_industrial": 1, "n_warehouse": 0, "member_names": "Deutsche Institute für Textil- und Faserforschung Denkendorf", "is_named_seed": false }, "geometry": { "type": "Point", "coordinates": [ 9.343371448028023, 48.700343686663757 ] } },
{ "type": "Feature", "properties": { "cluster_id": "C30", "name": "FactoryCluster_auto_30", "node_type": "factory", "n_members": 1, "n_industrial": 1, "n_warehouse": 0, "member_names": "Pumpstation", "is_named_seed": false }, "geometry": { "type": "Point", "coordinates": [ 9.295122592592536, 48.792048312794023 ] } },
{ "type": "Feature", "properties": { "cluster_id": "C31", "name": "FactoryCluster_auto_31", "node_type": "factory", "n_members": 1, "n_industrial": 1, "n_warehouse": 0, "member_names": "", "is_named_seed": false }, "geometry": { "type": "Point", "coordinates": [ 9.143167803710313, 48.795068484815637 ] } },
{ "type": "Feature", "properties": { "cluster_id": "C32", "name": "FactoryCluster_auto_32", "node_type": "factory", "n_members": 1, "n_industrial": 1, "n_warehouse": 0, "member_names": "", "is_named_seed": false }, "geometry": { "type": "Point", "coordinates": [ 9.09372437881226, 48.976234141102914 ] } },
{ "type": "Feature", "properties": { "cluster_id": "C33", "name": "LogisticsCluster_auto_33", "node_type": "logistics", "n_members": 1, "n_industrial": 0, "n_warehouse": 1, "member_names": "", "is_named_seed": false }, "geometry": { "type": "Point", "coordinates": [ 9.199739517191693, 48.709746846539318 ] } }
]
}
