{
"type": "FeatureCollection",
"name": "warehouse_features",
"crs": { "type": "name", "properties": { "name": "urn:ogc:def:crs:OGC:1.3:CRS84" } },
"features": [
{ "type": "Feature", "properties": { "element": "way", "id": 183759772, "name": null, "building": "warehouse", "industrial": null }, "geometry": { "type": "Polygon", "coordinates": [ [ [ 121.2979005, 25.0321175 ], [ 121.2988433, 25.0322528 ], [ 121.2988737, 25.0320792 ], [ 121.2979309, 25.0319438 ], [ 121.2979005, 25.0321175 ] ] ] } },
{ "type": "Feature", "properties": { "element": "way", "id": 183759773, "name": null, "building": "warehouse", "industrial": null }, "geometry": { "type": "Polygon", "coordinates": [ [ [ 121.2963696, 25.0332657 ], [ 121.2977605, 25.0334617 ], [ 121.2978531, 25.032922 ], [ 121.2964622, 25.032726 ], [ 121.2963696, 25.0332657 ] ] ] } },
{ "type": "Feature", "properties": { "element": "way", "id": 183759774, "name": null, "building": "warehouse", "industrial": null }, "geometry": { "type": "Polygon", "coordinates": [ [ [ 121.2944279, 25.0345772 ], [ 121.294716, 25.0346175 ], [ 121.294898, 25.0335487 ], [ 121.2946099, 25.0335084 ], [ 121.2944279, 25.0345772 ] ] ] } },
{ "type": "Feature", "properties": { "element": "way", "id": 183759779, "name": null, "building": "warehouse", "industrial": null }, "geometry": { "type": "Polygon", "coordinates": [ [ [ 121.2990767, 25.0350066 ], [ 121.2993285, 25.0350409 ], [ 121.2994685, 25.0341961 ], [ 121.2992167, 25.0341618 ], [ 121.2990767, 25.0350066 ] ] ] } },
{ "type": "Feature", "properties": { "element": "way", "id": 183759784, "name": null, "building": "warehouse", "industrial": null }, "geometry": { "type": "Polygon", "coordinates": [ [ [ 121.2948246, 25.033079 ], [ 121.2962342, 25.0332703 ], [ 121.2963253, 25.0327197 ], [ 121.2949157, 25.0325283 ], [ 121.2948246, 25.033079 ] ] ] } },
{ "type": "Feature", "properties": { "element": "way", "id": 183759785, "name": null, "building": "warehouse", "industrial": null }, "geometry": { "type": "Polygon", "coordinates": [ [ [ 121.2978818, 25.0334804 ], [ 121.2992867, 25.0336717 ], [ 121.2993751, 25.0331392 ], [ 121.2979702, 25.0329478 ], [ 121.2978818, 25.0334804 ] ] ] } },
{ "type": "Feature", "properties": { "element": "way", "id": 188086061, "name": "科學城物流", "building": "warehouse", "industrial": null }, "geometry": { "type": "Polygon", "coordinates": [ [ [ 121.0123988, 24.7755531 ], [ 121.0117591, 24.775048 ], [ 121.0120173, 24.7747784 ], [ 121.012657, 24.7752834 ], [ 121.0123988, 24.7755531 ] ] ] } },
{ "type": "Feature", "properties": { "element": "way", "id": 217839182, "name": "科學城物流", "building": "warehouse", "industrial": null }, "geometry": { "type": "Polygon", "coordinates": [ [ [ 121.0109317, 24.7749315 ], [ 121.0111368, 24.7747229 ], [ 121.0101941, 24.7739587 ], [ 121.0099836, 24.7741728 ], [ 121.0104763, 24.7745722 ], [ 121.0104457, 24.7746033 ], [ 121.0107928, 24.7748846 ], [ 121.0108288, 24.7748481 ], [ 121.0109317, 24.7749315 ] ] ] } },
{ "type": "Feature", "properties": { "element": "way", "id": 326477667, "name": "大冠商行", "building": "warehouse", "industrial": null }, "geometry": { "type": "Polygon", "coordinates": [ [ [ 121.0030131, 24.8461503 ], [ 121.0033564, 24.8459744 ], [ 121.0032508, 24.8458047 ], [ 121.0029075, 24.8459806 ], [ 121.0030131, 24.8461503 ] ] ] } },
{ "type": "Feature", "properties": { "element": "way", "id": 380945936, "name": null, "building": "warehouse", "industrial": null }, "geometry": { "type": "Polygon", "coordinates": [ [ [ 121.0337491, 24.8282181 ], [ 121.0335594, 24.8280094 ], [ 121.0338794, 24.8279357 ], [ 121.0340461, 24.8279916 ], [ 121.0337491, 24.8282181 ] ] ] } },
{ "type": "Feature", "properties": { "element": "way", "id": 514632922, "name": null, "building": "warehouse", "industrial": null }, "geometry": { "type": "Polygon", "coordinates": [ [ [ 121.2871382, 24.9135533 ], [ 121.2876823, 24.9135899 ], [ 121.2876922, 24.9134688 ], [ 121.2871481, 24.9134322 ], [ 121.2871382, 24.9135533 ] ] ] } },
{ "type": "Feature", "properties": { "element": "way", "id": 514632923, "name": null, "building": "warehouse", "industrial": null }, "geometry": { "type": "Polygon", "coordinates": [ [ [ 121.2878752, 24.9135956 ], [ 121.288414, 24.9136351 ], [ 121.2884263, 24.9135179 ], [ 121.2878847, 24.9134808 ], [ 121.2878752, 24.9135956 ] ] ] } },
{ "type": "Feature", "properties": { "element": "way", "id": 514632924, "name": null, "building": "warehouse", "industrial": null }, "geometry": { "type": "Polygon", "coordinates": [ [ [ 121.2868913, 24.9124086 ], [ 121.2878237, 24.9124715 ], [ 121.2878596, 24.9121873 ], [ 121.2869119, 24.9121197 ], [ 121.2868913, 24.9124086 ] ] ] } },
{ "type": "Feature", "properties": { "element": "way", "id": 514632925, "name": null, "building": "warehouse", "industrial": null }, "geometry": { "type": "Polygon", "coordinates": [ [ [ 121.287931, 24.9124717 ], [ 121.2885443, 24.9125113 ], [ 121.288571, 24.912276 ], [ 121.288508, 24.9122694 ], [ 121.2885128, 24.9122254 ], [ 121.2879528, 24.9121836 ], [ 121.287931, 24.9124717 ] ] ] } },
{ "type": "Feature", "properties": { "element": "way", "id": 514632932, "name": null, "building": "warehouse", "industrial": null }, "geometry": { "type": "Polygon", "coordinates": [ [ [ 121.2866421, 24.9120637 ], [ 121.2867859, 24.912072 ], [ 121.2867507, 24.912575 ], [ 121.2866069, 24.9125668 ], [ 121.2866421, 24.9120637 ] ] ] } },
{ "type": "Feature", "properties": { "element": "way", "id": 514632933, "name": null, "building": "warehouse", "industrial": null }, "geometry": { "type": "Polygon", "coordinates": [ [ [ 121.2862838, 24.9123194 ], [ 121.2862926, 24.9122051 ], [ 121.2865211, 24.9122195 ], [ 121.2865123, 24.9123338 ], [ 121.2862838, 24.9123194 ] ] ] } },
{ "type": "Feature", "properties": { "element": "way", "id": 514632934, "name": null, "building": "warehouse", "industrial": null }, "geometry": { "type": "Polygon", "coordinates": [ [ [ 121.2862318, 24.9133297 ], [ 121.2865239, 24.913352 ], [ 121.2865366, 24.9132157 ], [ 121.2862444, 24.9131934 ], [ 121.2862318, 24.9133297 ] ] ] } },
{ "type": "Feature", "properties": { "element": "way", "id": 546368095, "name": null, "building": "warehouse", "industrial": null }, "geometry": { "type": "Polygon", "coordinates": [ [ [ 121.2681941, 24.9744617 ], [ 121.2685811, 24.9742301 ], [ 121.267171, 24.9723398 ], [ 121.2667872, 24.9725756 ], [ 121.2681941, 24.9744617 ] ] ] } },
{ "type": "Feature", "properties": { "element": "way", "id": 547096431, "name": "泳盛食品", "building": "warehouse", "industrial": null }, "geometry": { "type": "Polygon", "coordinates": [ [ [ 121.1207582, 24.9999611 ], [ 121.1209204, 24.9996517 ], [ 121.1217612, 25.0000138 ], [ 121.121599, 25.0003232 ], [ 121.1207582, 24.9999611 ] ] ] } },
{ "type": "Feature", "properties": { "element": "way", "id": 550417440, "name": "momo購物網倉庫", "building": "warehouse", "industrial": null }, "geometry": { "type": "Polygon", "coordinates": [ [ [ 121.2248995, 25.0073405 ], [ 121.2262279, 25.0073418 ], [ 121.2262282, 25.0070979 ], [ 121.2262694, 25.007098 ], [ 121.2262696, 25.0069145 ], [ 121.2270276, 25.0069153 ], [ 121.2270281, 25.0065368 ], [ 121.2262245, 25.0065359 ], [ 121.2262245, 25.0065043 ], [ 121.2259659, 25.006504 ], [ 121.2259657, 25.0065905 ], [ 121.2249128, 25.0065891 ], [ 121.2249124, 25.0068615 ], [ 121.2248617, 25.0068614 ], [ 121.2248613, 25.0071137 ], [ 121.2248998, 25.0071137 ], [ 121.2248995, 25.0073405 ] ] ] } },
{ "type": "Feature", "properties": { "element": "way", "id": 552021522, "name": null, "building": "warehouse", "industrial": null }, "geometry": { "type": "Polygon", "coordinates": [ [ [ 121.1704924, 24.9331719 ], [ 121.1708465, 24.9326642 ], [ 121.1709294, 24.9326845 ], [ 121.1707508, 24.9330865 ], [ 121.1706344, 24.93325 ], [ 121.1704924, 24.9331719 ] ] ] } },
{ "type": "Feature", "properties": { "element": "way", "id": 552021525, "name": null, "building": "warehouse", "industrial": null }, "geometry": { "type": "Polygon", "coordinates": [ [ [ 121.1700905, 24.9333382 ], [ 121.1706854, 24.9324849 ], [ 121.17088, 24.9326035 ], [ 121.1702899, 24.9334467 ], [ 121.1700905, 24.9333382 ] ] ] } },
{ "type": "Feature", "properties": { "element": "way", "id": 552021546, "name": null, "building": "warehouse", "industrial": null }, "geometry": { "type": "Polygon", "coordinates": [ [ [ 121.1698879, 24.9332254 ], [ 121.1704765, 24.9323764 ], [ 121.1706726, 24.9324834 ], [ 121.1700825, 24.9333338 ], [ 121.1698879, 24.9332254 ] ] ] } },
{ "type": "Feature", "properties": { "element": "way", "id": 552021579, "name": null, "building": "warehouse", "industrial": null }, "geometry": { "type": "Polygon", "coordinates": [ [ [ 121.1696902, 24.9331097 ], [ 121.1702707, 24.9322622 ], [ 121.1704685, 24.9323706 ], [ 121.1698864, 24.9332196 ], [ 121.1696902, 24.9331097 ] ] ] } },
{ "type": "Feature", "properties": { "element": "way", "id": 552021580, "name": null, "building": "warehouse", "industrial": null }, "geometry": { "type": "Polygon", "coordinates": [ [ [ 121.1694844, 24.9329954 ], [ 121.1700793, 24.9321421 ], [ 121.1702707, 24.9322535 ], [ 121.1696838, 24.9331068 ], [ 121.1694844, 24.9329954 ] ] ] } },
{ "type": "Feature", "properties": { "element": "way", "id": 552021601, "name": null, "building": "warehouse", "industrial": null }, "geometry": { "type": "Polygon", "coordinates": [ [ [ 121.1692865, 24.9328852 ], [ 121.1699069, 24.9319857 ], [ 121.1701015, 24.932097 ], [ 121.1694811, 24.9329937 ], [ 121.1692865, 24.9328852 ] ] ] } },
{ "type": "Feature", "properties": { "element": "way", "id": 552021634, "name": null, "building": "warehouse", "industrial": null }, "geometry": { "type": "Polygon", "coordinates": [ [ [ 121.1690823, 24.9327739 ], [ 121.1697012, 24.9318714 ], [ 121.1698989, 24.9319813 ], [ 121.1692833, 24.9328809 ], [ 121.1690823, 24.9327739 ] ] ] } },
{ "type": "Feature", "properties": { "element": "way", "id": 552021653, "name": null, "building": "warehouse", "industrial": null }, "geometry": { "type": "Polygon", "coordinates": [ [ [ 121.168876, 24.9326592 ], [ 121.1695379, 24.9317075 ], [ 121.1697277, 24.9318203 ], [ 121.1690753, 24.9327676 ], [ 121.168876, 24.9326592 ] ] ] } },
{ "type": "Feature", "properties": { "element": "way", "id": 552021685, "name": null, "building": "warehouse", "industrial": null }, "geometry": { "type": "Polygon", "coordinates": [ [ [ 121.1686782, 24.9325435 ], [ 121.1693289, 24.9315947 ], [ 121.1695299, 24.9317075 ], [ 121.168876, 24.9326505 ], [ 121.1686782, 24.9325435 ] ] ] } },
{ "type": "Feature", "properties": { "element": "way", "id": 552021687, "name": null, "building": "warehouse", "industrial": null }, "geometry": { "type": "Polygon", "coordinates": [ [ [ 121.1685027, 24.9324492 ], [ 121.1691566, 24.9315005 ], [ 121.1693224, 24.931593 ], [ 121.1686701, 24.9325461 ], [ 121.1685027, 24.9324492 ] ] ] } },
{ "type": "Feature", "properties": { "element": "way", "id": 552022123, "name": null, "building": "warehouse", "industrial": null }, "geometry": { "type": "Polygon", "coordinates": [ [ [ 121.1695355, 24.9341177 ], [ 121.1698555, 24.9336346 ], [ 121.1700644, 24.9337585 ], [ 121.1697326, 24.9342274 ], [ 121.1695355, 24.9341177 ] ] ] } },
{ "type": "Feature", "properties": { "element": "way", "id": 552022420, "name": null, "building": "warehouse", "industrial": null }, "geometry": { "type": "Polygon", "coordinates": [ [ [ 121.1691314, 24.9338928 ], [ 121.1694531, 24.9334173 ], [ 121.1696514, 24.9335331 ], [ 121.1693253, 24.9339967 ], [ 121.1691314, 24.9338928 ] ] ] } },
{ "type": "Feature", "properties": { "element": "way", "id": 552022518, "name": null, "building": "warehouse", "industrial": null }, "geometry": { "type": "Polygon", "coordinates": [ [ [ 121.1693364, 24.9340045 ], [ 121.1696604, 24.9335373 ], [ 121.1698419, 24.9336346 ], [ 121.1695218, 24.9341071 ], [ 121.1693364, 24.9340045 ] ] ] } },
{ "type": "Feature", "properties": { "element": "way", "id": 552023608, "name": null, "building": "warehouse", "industrial": null }, "geometry": { "type": "Polygon", "coordinates": [ [ [ 121.1689661, 24.933731 ], [ 121.1692504, 24.9333074 ], [ 121.1694399, 24.9334173 ], [ 121.1691578, 24.9338409 ], [ 121.1689661, 24.933731 ] ] ] } },
{ "type": "Feature", "properties": { "element": "way", "id": 552023632, "name": null, "building": "warehouse", "industrial": null }, "geometry": { "type": "Polygon", "coordinates": [ [ [ 121.1687612, 24.9336151 ], [ 121.1690521, 24.9331935 ], [ 121.1692394, 24.9333094 ], [ 121.1689573, 24.933723 ], [ 121.1687612, 24.9336151 ] ] ] } },
{ "type": "Feature", "properties": { "element": "way", "id": 552023634, "name": null, "building": "warehouse", "industrial": null }, "geometry": { "type": "Polygon", "coordinates": [ [ [ 121.1685849, 24.9335132 ], [ 121.1688714, 24.9330955 ], [ 121.1690388, 24.9331895 ], [ 121.1687546, 24.9336091 ], [ 121.1685849, 24.9335132 ] ] ] } },
{ "type": "Feature", "properties": { "element": "way", "id": 552023645, "name": null, "building": "warehouse", "industrial": null }, "geometry": { "type": "Polygon", "coordinates": [ [ [ 121.1678555, 24.9333593 ], [ 121.1683469, 24.9326539 ], [ 121.1686554, 24.9328298 ], [ 121.1682654, 24.9333893 ], [ 121.1683095, 24.9334232 ], [ 121.1682125, 24.9335571 ], [ 121.1678555, 24.9333593 ] ] ] } },
{ "type": "Feature", "properties": { "element": "way", "id": 552023729, "name": null, "building": "warehouse", "industrial": null }, "geometry": { "type": "Polygon", "coordinates": [ [ [ 121.1666819, 24.9325038 ], [ 121.1664299, 24.9322549 ], [ 121.1669796, 24.9318092 ], [ 121.1672315, 24.9320582 ], [ 121.1666819, 24.9325038 ] ] ] } },
{ "type": "Feature", "properties": { "element": "way", "id": 696280467, "name": "台電北部儲運中心", "building": "warehouse", "industrial": null }, "geometry": { "type": "Polygon", "coordinates": [ [ [ 121.0601657, 25.0272835 ], [ 121.0604607, 25.0278206 ], [ 121.0605358, 25.0277817 ], [ 121.0605761, 25.0278668 ], [ 121.0606646, 25.0278303 ], [ 121.0606994, 25.0279081 ], [ 121.0611635, 25.0276991 ], [ 121.0611286, 25.0276213 ], [ 121.061201, 25.0275921 ], [ 121.0611688, 25.0275119 ], [ 121.0612359, 25.0274828 ], [ 121.0609623, 25.0269603 ], [ 121.0609006, 25.0269821 ], [ 121.0608121, 25.0268169 ], [ 121.0601952, 25.0270769 ], [ 121.0602703, 25.0272397 ], [ 121.0601657, 25.0272835 ] ] ] } },
{ "type": "Feature", "properties": { "element": "way", "id": 718282659, "name": "物流共和國楊梅園區", "building": "warehouse", "industrial": null }, "geometry": { "type": "Polygon", "coordinates": [ [ [ 121.1337565, 24.9479248 ], [ 121.1336776, 24.9478427 ], [ 121.1336219, 24.9478867 ], [ 121.1328181, 24.9470295 ], [ 121.1326995, 24.9471042 ], [ 121.1320736, 24.9464351 ], [ 121.133248, 24.945481 ], [ 121.1339448, 24.9462203 ], [ 121.1341128, 24.9462287 ], [ 121.1349133, 24.9470196 ], [ 121.1337565, 24.9479248 ] ] ] } },
{ "type": "Feature", "properties": { "element": "way", "id": 774708787, "name": null, "building": "warehouse", "industrial": null }, "geometry": { "type": "Polygon", "coordinates": [ [ [ 121.1968223, 24.8321416 ], [ 121.1975253, 24.8317551 ], [ 121.1972586, 24.8313556 ], [ 121.1975773, 24.8311804 ], [ 121.1974506, 24.8309906 ], [ 121.1964289, 24.8315524 ], [ 121.1968223, 24.8321416 ] ] ] } },
{ "type": "Feature", "properties": { "element": "way", "id": 774708788, "name": null, "building": "warehouse", "industrial": null }, "geometry": { "type": "Polygon", "coordinates": [ [ [ 121.1976257, 24.831906 ], [ 121.1978668, 24.8322773 ], [ 121.1978275, 24.8322983 ], [ 121.1978784, 24.8323766 ], [ 121.1972088, 24.8327347 ], [ 121.1969169, 24.8322852 ], [ 121.1976257, 24.831906 ] ] ] } },
{ "type": "Feature", "properties": { "element": "way", "id": 779265207, "name": null, "building": "warehouse", "industrial": null }, "geometry": { "type": "Polygon", "coordinates": [ [ [ 121.0936525, 24.8267729 ], [ 121.0940065, 24.8264018 ], [ 121.0941442, 24.82651 ], [ 121.0937902, 24.8268811 ], [ 121.0936525, 24.8267729 ] ] ] } },
{ "type": "Feature", "properties": { "element": "way", "id": 917227556, "name": "DHL", "building": "warehouse", "industrial": null }, "geometry": { "type": "Polygon", "coordinates": [ [ [ 121.176031, 25.0498785 ], [ 121.1765134, 25.0494356 ], [ 121.1762405, 25.0491916 ], [ 121.1757582, 25.0496347 ], [ 121.176031, 25.0498785 ] ] ] } },
{ "type": "Feature", "properties": { "element": "way", "id": 930777888, "name": null, "building": "warehouse", "industrial": null }, "geometry": { "type": "Polygon", "coordinates": [ [ [ 121.2935234, 25.0469987 ], [ 121.2935466, 25.046885 ], [ 121.2937828, 25.0469246 ], [ 121.2937677, 25.0470394 ], [ 121.2935234, 25.0469987 ] ] ] } },
{ "type": "Feature", "properties": { "element": "way", "id": 995318245, "name": null, "building": "warehouse", "industrial": null }, "geometry": { "type": "Polygon", "coordinates": [ [ [ 121.121389, 24.9704681 ], [ 121.1214216, 24.9713101 ], [ 121.1223964, 24.9712791 ], [ 121.1223639, 24.9704371 ], [ 121.121389, 24.9704681 ] ] ] } },
{ "type": "Feature", "properties": { "element": "way", "id": 996551278, "name": null, "building": "warehouse", "industrial": null }, "geometry": { "type": "Polygon", "coordinates": [ [ [ 121.1847574, 24.9308483 ], [ 121.1856162, 24.9295659 ], [ 121.1825027, 24.9278735 ], [ 121.1816864, 24.9291614 ], [ 121.1847574, 24.9308483 ] ] ] } },
{ "type": "Feature", "properties": { "element": "way", "id": 996551279, "name": null, "building": "warehouse", "industrial": null }, "geometry": { "type": "Polygon", "coordinates": [ [ [ 121.1861179, 24.9318465 ], [ 121.1851684, 24.9313227 ], [ 121.1859264, 24.9301927 ], [ 121.1868254, 24.9306885 ], [ 121.1862977, 24.9314754 ], [ 121.1863482, 24.9315032 ], [ 121.1861179, 24.9318465 ] ] ] } },
{ "type": "Feature", "properties": { "element": "way", "id": 996551280, "name": null, "building": "warehouse", "industrial": null }, "geometry": { "type": "Polygon", "coordinates": [ [ [ 121.1812616, 24.9288058 ], [ 121.1808898, 24.9286032 ], [ 121.1816673, 24.9274294 ], [ 121.1820393, 24.9276321 ], [ 121.1812616, 24.9288058 ] ] ] } },
{ "type": "Feature", "properties": { "element": "way", "id": 997474389, "name": "中壢鐵道五號倉庫", "building": "warehouse", "industrial": null }, "geometry": { "type": "Polygon", "coordinates": [ [ [ 121.2276109, 24.9545595 ], [ 121.2276781, 24.954425 ], [ 121.2280912, 24.9545945 ], [ 121.2280241, 24.954729 ], [ 121.2276109, 24.9545595 ] ] ] } },
{ "type": "Feature", "properties": { "element": "way", "id": 1040095495, "name": null, "building": "warehouse", "industrial": null }, "geometry": { "type": "Polygon", "coordinates": [ [ [ 121.1859706, 24.929606 ], [ 121.1865396, 24.9287544 ], [ 121.1874764, 24.9292692 ], [ 121.1869076, 24.9301207 ], [ 121.1859706, 24.929606 ] ] ] } },
{ "type": "Feature", "properties": { "element": "way", "id": 1040095496, "name": null, "building": "warehouse", "industrial": null }, "geometry": { "type": "Polygon", "coordinates": [ [ [ 121.1847919, 24.9285825 ], [ 121.1860152, 24.9292253 ], [ 121.1863879, 24.9286633 ], [ 121.1851767, 24.9279764 ], [ 121.1847919, 24.9285825 ] ] ] } },
{ "type": "Feature", "properties": { "element": "way", "id": 1040981015, "name": "倉庫", "building": "warehouse", "industrial": null }, "geometry": { "type": "Polygon", "coordinates": [ [ [ 121.1200954, 25.0297804 ], [ 121.1201884, 25.0298711 ], [ 121.1203515, 25.0297012 ], [ 121.1202604, 25.0296117 ], [ 121.1200954, 25.0297804 ] ] ] } },
{ "type": "Feature", "properties": { "element": "way", "id": 1040981016, "name": null, "building": "warehouse", "industrial": null }, "geometry": { "type": "Polygon", "coordinates": [ [ [ 121.1189642, 25.0303271 ], [ 121.1191333, 25.0304628 ], [ 121.118985, 25.0306055 ], [ 121.1188252, 25.0304761 ], [ 121.1189642, 25.0303271 ] ] ] } },
{ "type": "Feature", "properties": { "element": "way", "id": 1042727220, "name": null, "building": "warehouse", "industrial": null }, "geometry": { "type": "Polygon", "coordinates": [ [ [ 121.1953338, 24.9313364 ], [ 121.1955189, 24.9314548 ], [ 121.1961561, 24.9308631 ], [ 121.1963655, 24.931042 ], [ 121.1957768, 24.9316501 ], [ 121.1954612, 24.931507 ], [ 121.1952882, 24.9314025 ], [ 121.1953338, 24.9313364 ] ] ] } },
{ "type": "Feature", "properties": { "element": "way", "id": 1044814931, "name": null, "building": "warehouse", "industrial": null }, "geometry": { "type": "Polygon", "coordinates": [ [ [ 121.1383227, 24.9088501 ], [ 121.1392841, 24.9082666 ], [ 121.1394272, 24.9084605 ], [ 121.1392233, 24.9085842 ], [ 121.1394112, 24.908839 ], [ 121.1393739, 24.9088616 ], [ 121.1394393, 24.9089502 ], [ 121.1388638, 24.9092992 ], [ 121.1388065, 24.9092215 ], [ 121.1386616, 24.9093094 ], [ 121.1383227, 24.9088501 ] ] ] } },
{ "type": "Feature", "properties": { "element": "way", "id": 1044814932, "name": null, "building": "warehouse", "industrial": null }, "geometry": { "type": "Polygon", "coordinates": [ [ [ 121.1387696, 24.9095285 ], [ 121.1390255, 24.9093701 ], [ 121.1390868, 24.9094516 ], [ 121.138831, 24.90961 ], [ 121.1387696, 24.9095285 ] ] ] } },
{ "type": "Feature", "properties": { "element": "way", "id": 1054085830, "name": null, "building": "warehouse", "industrial": null }, "geometry": { "type": "Polygon", "coordinates": [ [ [ 121.1715434, 24.9335186 ], [ 121.1718013, 24.9337004 ], [ 121.1723801, 24.933025 ], [ 121.1721221, 24.9328432 ], [ 121.1715434, 24.9335186 ] ] ] } },
{ "type": "Feature", "properties": { "element": "way", "id": 1054092623, "name": null, "building": "warehouse", "industrial": null }, "geometry": { "type": "Polygon", "coordinates": [ [ [ 121.1641976, 24.9702757 ], [ 121.1625488, 24.9709279 ], [ 121.1631102, 24.9720942 ], [ 121.1654268, 24.9711748 ], [ 121.1652737, 24.9708412 ], [ 121.1650129, 24.970671 ], [ 121.164945, 24.9706991 ], [ 121.1649145, 24.9706358 ], [ 121.1646799, 24.9707286 ], [ 121.1645389, 24.9704356 ], [ 121.1643168, 24.9705234 ], [ 121.1641976, 24.9702757 ] ] ] } },
{ "type": "Feature", "properties": { "element": "way", "id": 1056892716, "name": null, "building": "warehouse", "industrial": null }, "geometry": { "type": "Polygon", "coordinates": [ [ [ 121.1857506, 24.9221885 ], [ 121.1858617, 24.9221014 ], [ 121.1856054, 24.9218228 ], [ 121.1853604, 24.9221253 ], [ 121.1856893, 24.9221751 ], [ 121.1857506, 24.9221885 ] ] ] } },
{ "type": "Feature", "properties": { "element": "way", "id": 1056892719, "name": null, "building": "warehouse", "industrial": null }, "geometry": { "type": "Polygon", "coordinates": [ [ [ 121.185369, 24.9232545 ], [ 121.1853957, 24.9232777 ], [ 121.1861243, 24.9236456 ], [ 121.1861753, 24.9235045 ], [ 121.1856522, 24.923177 ], [ 121.1857875, 24.9229884 ], [ 121.1855961, 24.9228912 ], [ 121.1853731, 24.9232225 ], [ 121.185369, 24.9232545 ] ] ] } },
{ "type": "Feature", "properties": { "element": "way", "id": 1148779226, "name": "肥料倉庫", "building": "warehouse", "industrial": null }, "geometry": { "type": "Polygon", "coordinates": [ [ [ 121.006117, 24.8372577 ], [ 121.0063361, 24.8371253 ], [ 121.006532, 24.8373922 ], [ 121.0062732, 24.8375433 ], [ 121.0062147, 24.8374451 ], [ 121.0061493, 24.8373197 ], [ 121.006117, 24.8372577 ] ] ] } },
{ "type": "Feature", "properties": { "element": "way", "id": 1157868151, "name": null, "building": "warehouse", "industrial": null }, "geometry": { "type": "Polygon", "coordinates": [ [ [ 121.0191612, 24.8432613 ], [ 121.0192432, 24.8433516 ], [ 121.0192022, 24.8434552 ], [ 121.0190997, 24.8434818 ], [ 121.0190383, 24.8433862 ], [ 121.0191612, 24.8432613 ] ] ] } },
{ "type": "Feature", "properties": { "element": "way", "id": 1195156664, "name": "pchome八德物流中心", "building": "warehouse", "industrial": null }, "geometry": { "type": "Polygon", "coordinates": [ [ [ 121.2969342, 24.9423475 ], [ 121.2969771, 24.9423427 ], [ 121.2970201, 24.9423232 ], [ 121.297307, 24.941686 ], [ 121.2973097, 24.9416179 ], [ 121.2963093, 24.9412969 ], [ 121.2963468, 24.9411534 ], [ 121.294775, 24.9405867 ], [ 121.2947858, 24.9405575 ], [ 121.2947187, 24.9405356 ], [ 121.2947026, 24.9405673 ], [ 121.2946597, 24.9405478 ], [ 121.2943164, 24.9412823 ], [ 121.2943083, 24.9413285 ], [ 121.2943191, 24.9413747 ], [ 121.2969342, 24.9423475 ] ] ] } },
{ "type": "Feature", "properties": { "element": "way", "id": 1195156665, "name": null, "building": "warehouse", "industrial": null }, "geometry": { "type": "Polygon", "coordinates": [ [ [ 121.2944733, 24.9415218 ], [ 121.2955128, 24.9418927 ], [ 121.2954205, 24.9421053 ], [ 121.2943811, 24.9417341 ], [ 121.2944733, 24.9415218 ] ] ] } },
{ "type": "Feature", "properties": { "element": "way", "id": 1225235214, "name": "桃園市政府水務局防汛場", "building": "warehouse", "industrial": null }, "geometry": { "type": "Polygon", "coordinates": [ [ [ 121.2853167, 24.9796861 ], [ 121.2855008, 24.9798292 ], [ 121.2848649, 24.9805018 ], [ 121.2846806, 24.9803586 ], [ 121.2853167, 24.9796861 ] ] ] } },
{ "type": "Feature", "properties": { "element": "way", "id": 1236760259, "name": null, "building": "warehouse", "industrial": null }, "geometry": { "type": "Polygon", "coordinates": [ [ [ 121.0826266, 25.0405062 ], [ 121.0849174, 25.042636 ], [ 121.0841614, 25.0432955 ], [ 121.0818702, 25.041146 ], [ 121.0826266, 25.0405062 ] ] ] } },
{ "type": "Feature", "properties": { "element": "way", "id": 1236760260, "name": null, "building": "warehouse", "industrial": null }, "geometry": { "type": "Polygon", "coordinates": [ [ [ 121.0819349, 25.0415639 ], [ 121.0842193, 25.0436822 ], [ 121.0834411, 25.04429 ], [ 121.0825301, 25.04341 ], [ 121.0824608, 25.0433439 ], [ 121.0812418, 25.0421578 ], [ 121.0819349, 25.0415639 ] ] ] } },
{ "type": "Feature", "properties": { "element": "way", "id": 1291184901, "name": "好市多觀音物流中心", "building": "warehouse", "industrial": null }, "geometry": { "type": "Polygon", "coordinates": [ [ [ 121.0608517, 25.0345892 ], [ 121.0617305, 25.0351077 ], [ 121.061969, 25.0347435 ], [ 121.0616794, 25.0345645 ], [ 121.0628444, 25.0329227 ], [ 121.0629976, 25.0330122 ], [ 121.0632531, 25.0326449 ], [ 121.0631066, 25.0325585 ], [ 121.0633996, 25.0321573 ], [ 121.0622926, 25.0314907 ], [ 121.0619894, 25.0319227 ], [ 121.0625174, 25.032219 ], [ 121.0608517, 25.0345892 ] ] ] } },
{ "type": "Feature", "properties": { "element": "way", "id": 1291188628, "name": "全順物流", "building": "warehouse", "industrial": null }, "geometry": { "type": "Polygon", "coordinates": [ [ [ 121.0576989, 25.031279 ], [ 121.0580922, 25.0317073 ], [ 121.0584008, 25.0314719 ], [ 121.0580146, 25.0310452 ], [ 121.0576989, 25.031279 ] ] ] } },
{ "type": "Feature", "properties": { "element": "way", "id": 1309347076, "name": null, "building": "warehouse", "industrial": null }, "geometry": { "type": "Polygon", "coordinates": [ [ [ 121.185732, 24.9627614 ], [ 121.1859516, 24.9620445 ], [ 121.1871889, 24.9623432 ], [ 121.186962, 24.9630601 ], [ 121.185732, 24.9627614 ] ] ] } },
{ "type": "Feature", "properties": { "element": "way", "id": 1309347078, "name": null, "building": "warehouse", "industrial": null }, "geometry": { "type": "Polygon", "coordinates": [ [ [ 121.1864779, 24.9630868 ], [ 121.1865093, 24.9630058 ], [ 121.1868667, 24.9630934 ], [ 121.1867097, 24.9636079 ], [ 121.186374, 24.9635269 ], [ 121.1863595, 24.9635597 ], [ 121.1866542, 24.963632 ], [ 121.1865431, 24.9640239 ], [ 121.1865085, 24.9640676 ], [ 121.1864782, 24.9640618 ], [ 121.1864463, 24.9641803 ], [ 121.1852369, 24.9638885 ], [ 121.1853947, 24.9633324 ], [ 121.1857564, 24.963419 ], [ 121.1857676, 24.9633844 ], [ 121.1854106, 24.9632977 ], [ 121.1855301, 24.9628686 ], [ 121.1864779, 24.9630868 ] ] ] } },
{ "type": "Feature", "properties": { "element": "way", "id": 1319181807, "name": null, "building": "warehouse", "industrial": null }, "geometry": { "type": "Polygon", "coordinates": [ [ [ 121.2763451, 24.9640109 ], [ 121.2765635, 24.9640614 ], [ 121.2765021, 24.9642795 ], [ 121.2762837, 24.964229 ], [ 121.2763451, 24.9640109 ] ] ] } },
{ "type": "Feature", "properties": { "element": "way", "id": 1324097338, "name": "國軍同德彈藥及戰備物資中心", "building": "warehouse", "industrial": null }, "geometry": { "type": "Polygon", "coordinates": [ [ [ 121.2922472, 25.0195736 ], [ 121.2927487, 25.019576 ], [ 121.292801, 25.0192722 ], [ 121.2922458, 25.0192734 ], [ 121.2922472, 25.0195736 ] ] ] } },
{ "type": "Feature", "properties": { "element": "way", "id": 1461643078, "name": "米格國際公司(Lativ)", "building": "warehouse", "industrial": null }, "geometry": { "type": "Polygon", "coordinates": [ [ [ 121.2892665, 24.9463875 ], [ 121.2895166, 24.9463857 ], [ 121.2895115, 24.9462048 ], [ 121.2902406, 24.9461995 ], [ 121.2902417, 24.9463804 ], [ 121.2905445, 24.946379 ], [ 121.290621, 24.9464216 ], [ 121.290389, 24.9467973 ], [ 121.2892678, 24.946801 ], [ 121.2892665, 24.9463875 ] ] ] } },
{ "type": "Feature", "properties": { "element": "way", "id": 1564224577, "name": null, "building": "warehouse", "industrial": null }, "geometry": { "type": "Polygon", "coordinates": [ [ [ 121.2871255, 24.9345965 ], [ 121.2871054, 24.9345601 ], [ 121.2871629, 24.9345341 ], [ 121.2871823, 24.9345695 ], [ 121.2871255, 24.9345965 ] ] ] } },
{ "type": "Feature", "properties": { "element": "way", "id": 188230259, "name": "pchome八德物流中心", "building": null, "industrial": "warehouse" }, "geometry": { "type": "Polygon", "coordinates": [ [ [ 121.2935969, 24.9403224 ], [ 121.2944038, 24.9406175 ], [ 121.2942931, 24.9408665 ], [ 121.2941733, 24.9410186 ], [ 121.2941139, 24.9414008 ], [ 121.2943742, 24.9415094 ], [ 121.2943234, 24.9417557 ], [ 121.2944039, 24.9418101 ], [ 121.2955306, 24.9422186 ], [ 121.2956187, 24.9422507 ], [ 121.2965547, 24.9426045 ], [ 121.2970348, 24.9426792 ], [ 121.2971232, 24.9424378 ], [ 121.2971659, 24.9422504 ], [ 121.2973537, 24.9422545 ], [ 121.2973755, 24.9421022 ], [ 121.2973985, 24.9415742 ], [ 121.2969121, 24.9414129 ], [ 121.2963196, 24.9412469 ], [ 121.2963726, 24.9411132 ], [ 121.296089, 24.941044 ], [ 121.2962089, 24.9407259 ], [ 121.294715, 24.9402071 ], [ 121.2947012, 24.9402509 ], [ 121.2936845, 24.9399282 ], [ 121.2935485, 24.9403086 ], [ 121.2935969, 24.9403224 ] ] ] } },
{ "type": "Feature", "properties": { "element": "way", "id": 393303533, "name": "3M 大園物流中心", "building": null, "industrial": "warehouse" }, "geometry": { "type": "Polygon", "coordinates": [ [ [ 121.2367624, 25.0189743 ], [ 121.237745, 25.0190998 ], [ 121.2374795, 25.0208721 ], [ 121.2365025, 25.0207098 ], [ 121.2367624, 25.0189743 ] ] ] } },
{ "type": "Feature", "properties": { "element": "way", "id": 492586726, "name": "永全倉儲物流", "building": null, "industrial": "warehouse" }, "geometry": { "type": "Polygon", "coordinates": [ [ [ 121.2285676, 25.0125622 ], [ 121.2285086, 25.0095044 ], [ 121.2295037, 25.0094898 ], [ 121.2295426, 25.0108906 ], [ 121.2295493, 25.0111305 ], [ 121.22945, 25.0111475 ], [ 121.2294742, 25.011308 ], [ 121.2298497, 25.0112666 ], [ 121.2299677, 25.0112885 ], [ 121.2302574, 25.0112739 ], [ 121.2305497, 25.0126059 ], [ 121.2298497, 25.0126084 ], [ 121.2298537, 25.0124978 ], [ 121.2285676, 25.0125622 ] ] ] } },
{ "type": "Feature", "properties": { "element": "way", "id": 823561735, "name": "黑貓宅急便中壢轉運中心", "building": null, "industrial": "warehouse" }, "geometry": { "type": "Polygon", "coordinates": [ [ [ 121.2226319, 24.9843479 ], [ 121.224929, 24.9846505 ], [ 121.2250804, 24.9856391 ], [ 121.2251828, 24.9860547 ], [ 121.2251249, 24.9863775 ], [ 121.2250537, 24.9864744 ], [ 121.2246397, 24.986204 ], [ 121.2240298, 24.9855745 ], [ 121.2234777, 24.985506 ], [ 121.2234644, 24.9853244 ], [ 121.2224761, 24.9852195 ], [ 121.2226319, 24.9843479 ] ] ] } },
{ "type": "Feature", "properties": { "element": "way", "id": 824745534, "name": "中航物流怡聯前場", "building": null, "industrial": "warehouse" }, "geometry": { "type": "Polygon", "coordinates": [ [ [ 121.1756485, 24.913654 ], [ 121.1753957, 24.9138415 ], [ 121.174434, 24.9152342 ], [ 121.1746392, 24.9156164 ], [ 121.1753522, 24.9161748 ], [ 121.175806, 24.9164002 ], [ 121.1759626, 24.9160965 ], [ 121.1766541, 24.9163463 ], [ 121.1766487, 24.9164198 ], [ 121.1767675, 24.9164835 ], [ 121.1768755, 24.9163365 ], [ 121.1772969, 24.9165668 ], [ 121.1774157, 24.9167137 ], [ 121.177703, 24.9166425 ], [ 121.1778543, 24.9160791 ], [ 121.1779515, 24.9159958 ], [ 121.1781244, 24.9160301 ], [ 121.1784107, 24.9155108 ], [ 121.1787402, 24.9155402 ], [ 121.1791399, 24.9155206 ], [ 121.1791723, 24.9154226 ], [ 121.1785515, 24.91499 ], [ 121.1776984, 24.9145072 ], [ 121.1758799, 24.913698 ], [ 121.1756485, 24.913654 ] ] ] } },
{ "type": "Feature", "properties": { "element": "way", "id": 996551277, "name": "家樂福楊梅物流中心", "building": null, "industrial": "warehouse" }, "geometry": { "type": "Polygon", "coordinates": [ [ [ 121.1801761, 24.9285733 ], [ 121.1862383, 24.9319388 ], [ 121.1864076, 24.9314158 ], [ 121.187384, 24.9298281 ], [ 121.1877505, 24.9287516 ], [ 121.1819054, 24.9259398 ], [ 121.1801761, 24.9285733 ] ] ] } },
{ "type": "Feature", "properties": { "element": "way", "id": 1236760258, "name": "IKEA物流中心", "building": null, "industrial": "warehouse" }, "geometry": { "type": "Polygon", "coordinates": [ [ [ 121.0817862, 25.0404894 ], [ 121.0808425, 25.041849 ], [ 121.0835362, 25.0444175 ], [ 121.0836093, 25.0444222 ], [ 121.0837485, 25.0443458 ], [ 121.0839862, 25.0441722 ], [ 121.0839781, 25.0441318 ], [ 121.0845987, 25.0436895 ], [ 121.0846868, 25.0437585 ], [ 121.0848385, 25.0437438 ], [ 121.0850977, 25.0435583 ], [ 121.085108, 25.0434396 ], [ 121.0846123, 25.0429643 ], [ 121.0849982, 25.0426041 ], [ 121.0833292, 25.0410953 ], [ 121.0828222, 25.0405371 ], [ 121.082764, 25.0404536 ], [ 121.0827495, 25.0403349 ], [ 121.0827082, 25.0402602 ], [ 121.0817862, 25.0404894 ] ] ] } }
]
}
