{
"type": "FeatureCollection",
"name": "disaster_repair_lots",
"crs": { "type": "name", "properties": { "name": "urn:ogc:def:crs:OGC:1.3:CRS84" } },
"features": [
{ "type": "Feature", "properties": { "lot_id": "L0", "segment_ids": "S13", "n_segments": 1, "length_total_m": 317.17531338513601, "duration_days": 1, "primary_corridor_id": "A 81", "hard_disaster": false, "hard_metapath": false, "hard": false, "cost_k": 317.17531338513601, "impact_weight_k": 0.0 }, "geometry": { "type": "LineString", "coordinates": [ [ 9.077073, 48.8211124 ], [ 9.07779, 48.8218275 ], [ 9.0785524, 48.8226344 ], [ 9.0787005, 48.8227885 ], [ 9.0792084, 48.8233296 ], [ 9.0793786, 48.8235268 ] ] } },
{ "type": "Feature", "properties": { "lot_id": "L1", "segment_ids": "S37", "n_segments": 1, "length_total_m": 920.95651883849132, "duration_days": 2, "primary_corridor_id": "B 10", "hard_disaster": false, "hard_metapath": false, "hard": false, "cost_k": 920.95651883849132, "impact_weight_k": 0.0 }, "geometry": { "type": "LineString", "coordinates": [ [ 9.1771114, 48.8427542 ], [ 9.176811, 48.8426353 ], [ 9.1764441, 48.8423947 ], [ 9.1753815, 48.8417734 ], [ 9.1750496, 48.8415858 ], [ 9.1747367, 48.8414441 ], [ 9.1745093, 48.8413561 ], [ 9.1743657, 48.8413098 ], [ 9.1741398, 48.8412507 ], [ 9.1739262, 48.8412118 ], [ 9.1736306, 48.8411802 ], [ 9.1734184, 48.8411738 ], [ 9.1732034, 48.8411788 ], [ 9.1730628, 48.8411904 ], [ 9.1728145, 48.8412235 ], [ 9.1726105, 48.8412578 ], [ 9.1723691, 48.8413092 ], [ 9.1719775, 48.8414075 ], [ 9.1717286, 48.8414755 ], [ 9.1708701, 48.8416987 ], [ 9.170441, 48.8418059 ], [ 9.1700033, 48.841904 ], [ 9.1693534, 48.8420025 ], [ 9.1690227, 48.842041 ], [ 9.1686504, 48.8420645 ], [ 9.1683863, 48.8420689 ], [ 9.1681404, 48.8420698 ], [ 9.1677782, 48.8420594 ], [ 9.1674483, 48.8420338 ], [ 9.1670654, 48.8419891 ], [ 9.1667095, 48.8419362 ], [ 9.1663064, 48.8418543 ], [ 9.1659699, 48.8417855 ], [ 9.1656632, 48.8416615 ] ] } },
{ "type": "Feature", "properties": { "lot_id": "L2", "segment_ids": "S51; S862", "n_segments": 2, "length_total_m": 1446.8098157148991, "duration_days": 6, "primary_corridor_id": "L 1187", "hard_disaster": true, "hard_metapath": false, "hard": true, "cost_k": 1446.8098157148991, "impact_weight_k": 0.0 }, "geometry": { "type": "MultiLineString", "coordinates": [ [ [ 9.1187269, 48.7650423 ], [ 9.1185317, 48.7650138 ], [ 9.1184371, 48.7650061 ], [ 9.1183887, 48.7649988 ], [ 9.1183121, 48.764988 ], [ 9.1181802, 48.7649656 ], [ 9.1180819, 48.7649468 ], [ 9.1179426, 48.7649121 ], [ 9.1177813, 48.7648674 ], [ 9.1176395, 48.7648207 ], [ 9.1174979, 48.764767 ], [ 9.1173684, 48.76471 ], [ 9.1172334, 48.7646437 ], [ 9.117111, 48.7645739 ], [ 9.1169894, 48.7644937 ], [ 9.1169123, 48.7644375 ], [ 9.1168406, 48.7643807 ], [ 9.1167568, 48.7643049 ], [ 9.1166933, 48.7642419 ], [ 9.1166122, 48.7641482 ], [ 9.1165401, 48.7640537 ], [ 9.1164785, 48.7639556 ], [ 9.1164255, 48.7638531 ], [ 9.1163813, 48.763749 ], [ 9.1163488, 48.7636389 ], [ 9.1163209, 48.763538 ], [ 9.1163011, 48.7634322 ], [ 9.1162865, 48.7633177 ], [ 9.1162652, 48.7630867 ] ], [ [ 9.1339505, 48.7641758 ], [ 9.1337974, 48.7641143 ], [ 9.1336743, 48.7640722 ], [ 9.1335212, 48.7640349 ], [ 9.1333635, 48.7640029 ], [ 9.133105, 48.7639492 ], [ 9.1328982, 48.7639103 ], [ 9.1326986, 48.7638781 ], [ 9.1325402, 48.7638599 ], [ 9.1323973, 48.7638453 ], [ 9.1321001, 48.7638198 ], [ 9.1318307, 48.7638073 ], [ 9.131596, 48.7638011 ], [ 9.131371, 48.7638006 ], [ 9.1310749, 48.7638093 ], [ 9.1309198, 48.7638172 ], [ 9.1307726, 48.7638252 ], [ 9.1304738, 48.7638509 ], [ 9.1292822, 48.7639744 ], [ 9.1280248, 48.7641037 ], [ 9.1272754, 48.7641974 ], [ 9.1268472, 48.7642435 ], [ 9.1264544, 48.7642868 ], [ 9.1259687, 48.7643408 ], [ 9.1255618, 48.7643797 ], [ 9.1252317, 48.7644135 ], [ 9.1249349, 48.7644431 ], [ 9.1245654, 48.764479 ], [ 9.123486, 48.7645902 ], [ 9.122453, 48.7646957 ], [ 9.1217721, 48.7647663 ], [ 9.1213716, 48.7648086 ], [ 9.1207293, 48.7648764 ], [ 9.1201182, 48.7649421 ], [ 9.119781, 48.7649764 ], [ 9.119549, 48.7650024 ], [ 9.1193558, 48.7650193 ], [ 9.1192083, 48.7650318 ], [ 9.1190263, 48.7650416 ], [ 9.1188992, 48.7650436 ], [ 9.1187269, 48.7650423 ] ] ] } },
{ "type": "Feature", "properties": { "lot_id": "L3", "segment_ids": "S68; S69", "n_segments": 2, "length_total_m": 618.22238143352479, "duration_days": 4, "primary_corridor_id": "B 27", "hard_disaster": true, "hard_metapath": false, "hard": true, "cost_k": 618.22238143352479, "impact_weight_k": 0.0 }, "geometry": { "type": "MultiLineString", "coordinates": [ [ [ 9.1640908, 48.7122402 ], [ 9.1640264, 48.7124162 ], [ 9.1639639, 48.71261 ], [ 9.1638144, 48.7130803 ], [ 9.1637356, 48.713539 ], [ 9.1635993, 48.7140559 ], [ 9.1634083, 48.7148423 ] ], [ [ 9.1640908, 48.7122402 ], [ 9.1641772, 48.7123996 ], [ 9.1641498, 48.712604 ], [ 9.1641292, 48.7128143 ], [ 9.1640832, 48.7130235 ], [ 9.1640484, 48.713164 ], [ 9.1639935, 48.7133402 ], [ 9.1639755, 48.7134394 ], [ 9.1639645, 48.7135316 ], [ 9.1639643, 48.7135769 ], [ 9.164002, 48.7136322 ], [ 9.1640733, 48.7136939 ], [ 9.16424, 48.7137754 ], [ 9.1640985, 48.7137854 ], [ 9.1639982, 48.7138142 ], [ 9.1639209, 48.7138616 ], [ 9.1638723, 48.7139222 ], [ 9.1638452, 48.7139892 ], [ 9.16374, 48.7143416 ], [ 9.1636836, 48.7144706 ], [ 9.1635405, 48.7146942 ], [ 9.1635057, 48.7147698 ], [ 9.1634083, 48.7148423 ] ] ] } },
{ "type": "Feature", "properties": { "lot_id": "L4", "segment_ids": "S84", "n_segments": 1, "length_total_m": 36.651691728357079, "duration_days": 1, "primary_corridor_id": "Pragsattel", "hard_disaster": true, "hard_metapath": false, "hard": true, "cost_k": 36.651691728357079, "impact_weight_k": 0.0 }, "geometry": { "type": "LineString", "coordinates": [ [ 9.1831832, 48.8098959 ], [ 9.1834655, 48.8098427 ], [ 9.1835413, 48.8098334 ], [ 9.1835747, 48.8098402 ], [ 9.1835792, 48.8098411 ], [ 9.1836395, 48.8098852 ] ] } },
{ "type": "Feature", "properties": { "lot_id": "L5", "segment_ids": "S107", "n_segments": 1, "length_total_m": 75.266459985534411, "duration_days": 1, "primary_corridor_id": "segment_107", "hard_disaster": false, "hard_metapath": false, "hard": false, "cost_k": 75.266459985534411, "impact_weight_k": 0.0 }, "geometry": { "type": "LineString", "coordinates": [ [ 9.2325478, 48.9907503 ], [ 9.232803, 48.9911016 ], [ 9.2328724, 48.9912233 ], [ 9.2329339, 48.9913227 ], [ 9.2329628, 48.9913695 ] ] } },
{ "type": "Feature", "properties": { "lot_id": "L6", "segment_ids": "S124; S125", "n_segments": 2, "length_total_m": 683.43825564712381, "duration_days": 2, "primary_corridor_id": "B 27", "hard_disaster": false, "hard_metapath": false, "hard": false, "cost_k": 683.43825564712381, "impact_weight_k": 0.0 }, "geometry": { "type": "MultiLineString", "coordinates": [ [ [ 9.1659412, 48.7271802 ], [ 9.165847, 48.7269571 ], [ 9.1652378, 48.7256463 ], [ 9.1651149, 48.725399 ], [ 9.1650313, 48.7252324 ], [ 9.1649433, 48.7250428 ], [ 9.1648694, 48.7248895 ], [ 9.164792, 48.7247298 ], [ 9.1646583, 48.7244566 ], [ 9.1645034, 48.7241162 ], [ 9.1643451, 48.7237519 ], [ 9.1641896, 48.7233812 ], [ 9.1640635, 48.7230464 ] ], [ [ 9.1659412, 48.7271802 ], [ 9.1658312, 48.7271173 ], [ 9.1657719, 48.7270283 ], [ 9.1657081, 48.7269554 ], [ 9.1656262, 48.7268878 ], [ 9.1655437, 48.7268331 ], [ 9.1654653, 48.72679 ], [ 9.165379, 48.7267511 ], [ 9.1652876, 48.7267201 ], [ 9.1651855, 48.7266916 ], [ 9.1650942, 48.726673 ], [ 9.1649761, 48.7266528 ], [ 9.1648227, 48.7266305 ], [ 9.1646281, 48.7265953 ], [ 9.1644261, 48.7265378 ], [ 9.1642731, 48.7264696 ], [ 9.1641576, 48.7263849 ], [ 9.1640895, 48.7263068 ], [ 9.164036, 48.7262179 ], [ 9.1640107, 48.7261361 ], [ 9.1640124, 48.7260547 ] ] ] } },
{ "type": "Feature", "properties": { "lot_id": "L7", "segment_ids": "S126; S459; S689; S809; S810", "n_segments": 5, "length_total_m": 1573.9773310205173, "duration_days": 12, "primary_corridor_id": "B 27", "hard_disaster": true, "hard_metapath": false, "hard": true, "cost_k": 1573.9773310205173, "impact_weight_k": 0.0 }, "geometry": { "type": "MultiLineString", "coordinates": [ [ [ 9.1657422, 48.7254581 ], [ 9.1657908, 48.725583 ], [ 9.165817, 48.7256917 ] ], [ [ 9.1645515, 48.7359323 ], [ 9.1637701, 48.7368793 ], [ 9.1634553, 48.7372948 ], [ 9.1633648, 48.7374195 ], [ 9.1632779, 48.7375437 ], [ 9.1631425, 48.7377601 ], [ 9.1630519, 48.7379166 ], [ 9.162967, 48.7380675 ], [ 9.1628893, 48.7382278 ], [ 9.1628246, 48.7383782 ], [ 9.1626664, 48.7387481 ] ], [ [ 9.1653714, 48.7254047 ], [ 9.1654595, 48.7254266 ], [ 9.1655569, 48.7254148 ], [ 9.1656313, 48.72542 ], [ 9.165676, 48.7254338 ], [ 9.1657422, 48.7254581 ] ], [ [ 9.165817, 48.7256917 ], [ 9.1658431, 48.7258662 ], [ 9.1660277, 48.7265235 ], [ 9.16607, 48.7267255 ], [ 9.1661157, 48.7269306 ], [ 9.166143, 48.7270355 ], [ 9.1661308, 48.7271895 ] ], [ [ 9.1661308, 48.7271895 ], [ 9.1662039, 48.7274079 ], [ 9.1663923, 48.7279102 ], [ 9.1664439, 48.7280687 ], [ 9.166515, 48.7282916 ], [ 9.166596, 48.7285935 ], [ 9.1666612, 48.7288719 ], [ 9.1667087, 48.7291375 ], [ 9.1667528, 48.7294128 ], [ 9.1667899, 48.7296743 ], [ 9.1668043, 48.7298445 ], [ 9.1668222, 48.7303203 ], [ 9.1668231, 48.730635 ], [ 9.1668154, 48.7308172 ], [ 9.1667907, 48.7311461 ], [ 9.1667395, 48.7315052 ], [ 9.1666639, 48.7319185 ], [ 9.1665833, 48.7322807 ], [ 9.1663686, 48.7329697 ], [ 9.1661354, 48.7335368 ], [ 9.1658708, 48.734066 ], [ 9.1656376, 48.7344646 ], [ 9.1654023, 48.7348361 ], [ 9.1651498, 48.7351913 ], [ 9.1648741, 48.7355379 ], [ 9.1645515, 48.7359323 ] ] ] } },
{ "type": "Feature", "properties": { "lot_id": "L8", "segment_ids": "S129", "n_segments": 1, "length_total_m": 23.049903117333798, "duration_days": 1, "primary_corridor_id": "Arnulf-Klett-Platz", "hard_disaster": false, "hard_metapath": false, "hard": false, "cost_k": 23.049903117333798, "impact_weight_k": 0.0 }, "geometry": { "type": "LineString", "coordinates": [ [ 9.1786368, 48.7841446 ], [ 9.1789044, 48.7840356 ] ] } },
{ "type": "Feature", "properties": { "lot_id": "L9", "segment_ids": "S135", "n_segments": 1, "length_total_m": 1624.4948821204573, "duration_days": 17, "primary_corridor_id": "B 10;B 27", "hard_disaster": true, "hard_metapath": false, "hard": true, "cost_k": 1624.4948821204573, "impact_weight_k": 0.0 }, "geometry": { "type": "LineString", "coordinates": [ [ 9.1667113, 48.8356385 ], [ 9.1664905, 48.8353071 ], [ 9.1662629, 48.8348954 ], [ 9.1661417, 48.8346386 ], [ 9.1660366, 48.8343668 ], [ 9.1659708, 48.8341476 ], [ 9.165919, 48.8339315 ], [ 9.1658786, 48.833682 ], [ 9.1658614, 48.8334516 ], [ 9.1658668, 48.8330894 ], [ 9.1658852, 48.8328862 ], [ 9.1659155, 48.8326872 ], [ 9.1659623, 48.8324647 ], [ 9.1660187, 48.8322682 ], [ 9.1660981, 48.8320233 ], [ 9.1661962, 48.8317884 ], [ 9.1664535, 48.8313309 ], [ 9.166733, 48.8308622 ], [ 9.1670385, 48.8303974 ], [ 9.1673494, 48.8299222 ], [ 9.1683627, 48.8284651 ], [ 9.1691651, 48.8273881 ], [ 9.1701868, 48.8260726 ], [ 9.1704111, 48.825792 ], [ 9.170836, 48.8252561 ], [ 9.1715579, 48.8242805 ], [ 9.1716721, 48.8241335 ], [ 9.1717479, 48.8240296 ], [ 9.1718046, 48.8239327 ], [ 9.1718631, 48.8238342 ], [ 9.1718919, 48.8237785 ], [ 9.1719285, 48.823691 ], [ 9.171942, 48.8236284 ], [ 9.1719635, 48.8234704 ], [ 9.1719628, 48.8233673 ], [ 9.1719586, 48.8233017 ], [ 9.1719462, 48.8232286 ], [ 9.171938, 48.8231511 ], [ 9.1718904, 48.8229385 ], [ 9.1718714, 48.8228335 ], [ 9.1718683, 48.8227488 ], [ 9.1718684, 48.8226676 ], [ 9.1718819, 48.8225943 ], [ 9.1718974, 48.8225328 ], [ 9.1719337, 48.8224617 ], [ 9.1719604, 48.8224273 ], [ 9.1719948, 48.822392 ], [ 9.1720271, 48.8223662 ], [ 9.1720654, 48.82234 ], [ 9.1721136, 48.8223135 ], [ 9.1721718, 48.8222884 ], [ 9.1722172, 48.82227 ], [ 9.1722664, 48.8222547 ], [ 9.172322, 48.8222424 ], [ 9.1724079, 48.8222302 ], [ 9.1725081, 48.8222255 ] ] } },
{ "type": "Feature", "properties": { "lot_id": "L10", "segment_ids": "S149", "n_segments": 1, "length_total_m": 381.00947147418231, "duration_days": 4, "primary_corridor_id": "B 27a", "hard_disaster": true, "hard_metapath": false, "hard": true, "cost_k": 381.00947147418231, "impact_weight_k": 0.0 }, "geometry": { "type": "LineString", "coordinates": [ [ 9.1755426, 48.7786539 ], [ 9.1754097, 48.778529 ], [ 9.1753032, 48.778433 ], [ 9.174754, 48.7779348 ], [ 9.1745492, 48.7777635 ], [ 9.1743189, 48.7775753 ], [ 9.1740419, 48.7773418 ], [ 9.1737798, 48.7771162 ], [ 9.1733855, 48.7767861 ], [ 9.1731164, 48.7765657 ], [ 9.1729569, 48.7764351 ], [ 9.1728106, 48.7763167 ], [ 9.1727011, 48.7762255 ], [ 9.1723723, 48.7759389 ] ] } },
{ "type": "Feature", "properties": { "lot_id": "L11", "segment_ids": "S1020; S163", "n_segments": 2, "length_total_m": 761.39679836781102, "duration_days": 8, "primary_corridor_id": "L 1180", "hard_disaster": true, "hard_metapath": false, "hard": true, "cost_k": 761.39679836781102, "impact_weight_k": 0.0 }, "geometry": { "type": "MultiLineString", "coordinates": [ [ [ 9.1236433, 48.7643885 ], [ 9.1239727, 48.7644095 ] ], [ [ 9.1148572, 48.7655786 ], [ 9.115085, 48.7654864 ], [ 9.1152519, 48.7653943 ], [ 9.1155249, 48.7652433 ], [ 9.1157851, 48.7650711 ], [ 9.1159058, 48.7649804 ], [ 9.1160159, 48.7648899 ], [ 9.1162496, 48.7646972 ], [ 9.1164496, 48.7645313 ], [ 9.1165451, 48.7644575 ], [ 9.1166473, 48.764386 ], [ 9.1168317, 48.7642645 ], [ 9.117, 48.7641718 ], [ 9.1170967, 48.764124 ], [ 9.1171837, 48.7640767 ], [ 9.1174094, 48.7639919 ], [ 9.1177445, 48.7638953 ], [ 9.1179288, 48.7638555 ], [ 9.1181126, 48.7638219 ], [ 9.118303, 48.7637993 ], [ 9.1184844, 48.7637856 ], [ 9.1186684, 48.7637777 ], [ 9.1188489, 48.7637778 ], [ 9.1190299, 48.7637883 ], [ 9.1192156, 48.763807 ], [ 9.1195279, 48.7638524 ], [ 9.119825, 48.7639249 ], [ 9.1201131, 48.7640147 ], [ 9.1205733, 48.7641949 ], [ 9.1207411, 48.7642599 ], [ 9.1208739, 48.7643075 ], [ 9.1210153, 48.7643499 ], [ 9.1211631, 48.764388 ], [ 9.1213229, 48.764424 ], [ 9.1214522, 48.7644483 ], [ 9.1215836, 48.7644676 ], [ 9.1216996, 48.7644813 ], [ 9.1218483, 48.7644924 ], [ 9.122031, 48.7644976 ], [ 9.1221872, 48.7644976 ], [ 9.1223259, 48.7644946 ], [ 9.1224922, 48.7644891 ], [ 9.1227333, 48.7644747 ], [ 9.1230398, 48.7644491 ], [ 9.1236433, 48.7643885 ] ] ] } },
{ "type": "Feature", "properties": { "lot_id": "L12", "segment_ids": "S173; S174; S332", "n_segments": 3, "length_total_m": 1164.7303373989803, "duration_days": 3, "primary_corridor_id": "segment_173", "hard_disaster": false, "hard_metapath": false, "hard": false, "cost_k": 1164.7303373989803, "impact_weight_k": 0.0 }, "geometry": { "type": "MultiLineString", "coordinates": [ [ [ 9.1200226, 48.8517169 ], [ 9.1199085, 48.8518465 ], [ 9.1198093, 48.8519558 ], [ 9.119755, 48.8520065 ], [ 9.1197213, 48.8520558 ], [ 9.1196969, 48.8521108 ], [ 9.1196839, 48.8521655 ], [ 9.1196801, 48.8522327 ], [ 9.1196923, 48.8522846 ], [ 9.1197396, 48.8523695 ], [ 9.1198308, 48.85247 ], [ 9.1198761, 48.8525067 ], [ 9.1199304, 48.8525423 ], [ 9.1200022, 48.8525849 ], [ 9.1200548, 48.852608 ], [ 9.1201048, 48.8526287 ], [ 9.1201824, 48.8526532 ], [ 9.1202459, 48.8526678 ], [ 9.1203161, 48.8526802 ], [ 9.1204211, 48.852692 ], [ 9.1205467, 48.8526937 ], [ 9.1206392, 48.8526829 ], [ 9.1207493, 48.8526605 ], [ 9.1208534, 48.8526266 ], [ 9.1208907, 48.8526105 ], [ 9.1210134, 48.8525413 ], [ 9.1210696, 48.8524955 ], [ 9.1211238, 48.852443 ], [ 9.1211602, 48.8523938 ], [ 9.1211864, 48.8523457 ], [ 9.1211929, 48.8523109 ], [ 9.1212004, 48.8522588 ], [ 9.1212004, 48.8521916 ], [ 9.1211884, 48.8521282 ], [ 9.1211473, 48.8520374 ], [ 9.1210087, 48.851799 ], [ 9.1208201, 48.8514721 ], [ 9.120506, 48.8509803 ], [ 9.1203475, 48.8507334 ], [ 9.1201844, 48.8504779 ], [ 9.1199666, 48.8501605 ], [ 9.1197434, 48.8498403 ], [ 9.1195069, 48.8495177 ] ], [ [ 9.1200226, 48.8517169 ], [ 9.1190612, 48.8523822 ], [ 9.1186205, 48.8526922 ], [ 9.1179566, 48.8531516 ], [ 9.1179163, 48.8531794 ] ], [ [ 9.1222019, 48.8536838 ], [ 9.1220263, 48.8535359 ], [ 9.1218967, 48.8534006 ], [ 9.121771, 48.8532756 ], [ 9.1216209, 48.8531505 ], [ 9.1214794, 48.8530541 ], [ 9.121341, 48.8529736 ], [ 9.1212555, 48.852934 ], [ 9.1211478, 48.8528932 ], [ 9.1210393, 48.8528605 ], [ 9.1208892, 48.8528276 ], [ 9.1207251, 48.8528091 ], [ 9.1205619, 48.8528077 ], [ 9.1204474, 48.8528098 ], [ 9.1202703, 48.852793 ], [ 9.1201437, 48.8527643 ], [ 9.1199885, 48.8527107 ], [ 9.1198544, 48.8526633 ], [ 9.119777, 48.8526354 ], [ 9.1196469, 48.8526061 ], [ 9.1194797, 48.8525855 ], [ 9.1193088, 48.8525856 ], [ 9.1191494, 48.8526021 ], [ 9.1189775, 48.8526391 ], [ 9.1188226, 48.8526933 ], [ 9.1186489, 48.852761 ], [ 9.1183927, 48.8529276 ], [ 9.1181729, 48.8530779 ], [ 9.1180368, 48.8531469 ], [ 9.1179892, 48.8531598 ], [ 9.1179163, 48.8531794 ] ] ] } },
{ "type": "Feature", "properties": { "lot_id": "L13", "segment_ids": "S188", "n_segments": 1, "length_total_m": 417.44204232845823, "duration_days": 1, "primary_corridor_id": "segment_188", "hard_disaster": false, "hard_metapath": false, "hard": false, "cost_k": 417.44204232845823, "impact_weight_k": 0.0 }, "geometry": { "type": "LineString", "coordinates": [ [ 9.3436696, 48.8373647 ], [ 9.3438297, 48.8374118 ], [ 9.3441136, 48.8376672 ], [ 9.3443136, 48.8378199 ], [ 9.3444984, 48.8379389 ], [ 9.3446527, 48.8380244 ], [ 9.3448133, 48.8381038 ], [ 9.3449881, 48.8381737 ], [ 9.3452337, 48.8382461 ], [ 9.3456895, 48.8383521 ], [ 9.3459253, 48.8384183 ], [ 9.3460677, 48.8384747 ], [ 9.3462453, 48.838573 ], [ 9.3463481, 48.8386521 ], [ 9.3464332, 48.8387303 ], [ 9.3464793, 48.8387878 ], [ 9.3465474, 48.8388833 ], [ 9.3465885, 48.8389697 ], [ 9.3466117, 48.8390493 ], [ 9.3466551, 48.8392237 ], [ 9.3467632, 48.8400051 ], [ 9.3467671, 48.8400385 ], [ 9.3467816, 48.8401255 ] ] } },
{ "type": "Feature", "properties": { "lot_id": "L14", "segment_ids": "S189; S204", "n_segments": 2, "length_total_m": 977.45627221098925, "duration_days": 4, "primary_corridor_id": "B 14", "hard_disaster": true, "hard_metapath": false, "hard": true, "cost_k": 977.45627221098925, "impact_weight_k": 0.0 }, "geometry": { "type": "MultiLineString", "coordinates": [ [ [ 9.330878, 48.8203629 ], [ 9.3313006, 48.8207242 ], [ 9.3317476, 48.8211283 ], [ 9.331936, 48.8213085 ], [ 9.3322768, 48.821678 ], [ 9.332525, 48.8219851 ], [ 9.3327273, 48.8222522 ], [ 9.3329165, 48.8225466 ], [ 9.3330941, 48.8228518 ], [ 9.3332741, 48.8232148 ], [ 9.3334178, 48.8235506 ], [ 9.3335028, 48.8237849 ], [ 9.3335721, 48.8240181 ], [ 9.3336174, 48.8241956 ], [ 9.3336825, 48.8245288 ], [ 9.3337172, 48.8247708 ], [ 9.3337343, 48.8250132 ], [ 9.3337494, 48.825297 ], [ 9.3337412, 48.8255588 ], [ 9.3336931, 48.8259946 ], [ 9.3336501, 48.8262551 ], [ 9.3335925, 48.8265605 ], [ 9.3335293, 48.8268293 ] ], [ [ 9.3335293, 48.8268293 ], [ 9.3334233, 48.8272358 ], [ 9.33328, 48.8278116 ], [ 9.3331232, 48.8286646 ] ] ] } },
{ "type": "Feature", "properties": { "lot_id": "L15", "segment_ids": "S198", "n_segments": 1, "length_total_m": 29.461234617208223, "duration_days": 1, "primary_corridor_id": "segment_198", "hard_disaster": false, "hard_metapath": false, "hard": false, "cost_k": 29.461234617208223, "impact_weight_k": 0.0 }, "geometry": { "type": "LineString", "coordinates": [ [ 9.3435784, 48.8403276 ], [ 9.3436066, 48.8405919 ] ] } },
{ "type": "Feature", "properties": { "lot_id": "L16", "segment_ids": "S212", "n_segments": 1, "length_total_m": 1583.056626957341, "duration_days": 4, "primary_corridor_id": "B 29", "hard_disaster": false, "hard_metapath": false, "hard": false, "cost_k": 1583.056626957341, "impact_weight_k": 0.0 }, "geometry": { "type": "LineString", "coordinates": [ [ 9.3282605, 48.8181908 ], [ 9.328554, 48.8182199 ], [ 9.3291038, 48.8182605 ], [ 9.3294021, 48.8182726 ], [ 9.3298635, 48.8182717 ], [ 9.3302679, 48.8182596 ], [ 9.3306194, 48.8182369 ], [ 9.3310561, 48.8181998 ], [ 9.331499, 48.8181395 ], [ 9.3319103, 48.8180681 ], [ 9.3322806, 48.8179938 ], [ 9.3326245, 48.8179172 ], [ 9.3329602, 48.817829 ], [ 9.3335198, 48.8176495 ], [ 9.3337454, 48.8175681 ], [ 9.3340405, 48.8174515 ], [ 9.3343556, 48.8173192 ], [ 9.3349385, 48.8170505 ], [ 9.335347, 48.8168553 ], [ 9.3359526, 48.8165563 ], [ 9.3365063, 48.8162901 ], [ 9.3371003, 48.8160126 ], [ 9.337656, 48.8157781 ], [ 9.338184, 48.8155682 ], [ 9.3386807, 48.815388 ], [ 9.3391594, 48.8152183 ], [ 9.3395828, 48.8150816 ], [ 9.3400182, 48.8149489 ], [ 9.3405511, 48.8147967 ], [ 9.3413962, 48.8145816 ], [ 9.342121, 48.8144269 ], [ 9.3428302, 48.8142892 ], [ 9.3434485, 48.8141845 ], [ 9.344017, 48.8141024 ], [ 9.3446293, 48.8140293 ], [ 9.3451976, 48.8139736 ], [ 9.3458511, 48.8139231 ], [ 9.3463045, 48.8138952 ], [ 9.3466321, 48.8138769 ], [ 9.3471761, 48.8138594 ], [ 9.3477087, 48.8138495 ], [ 9.3482828, 48.8138535 ] ] } },
{ "type": "Feature", "properties": { "lot_id": "L17", "segment_ids": "S226", "n_segments": 1, "length_total_m": 422.98496217724079, "duration_days": 5, "primary_corridor_id": "segment_226", "hard_disaster": true, "hard_metapath": false, "hard": true, "cost_k": 422.98496217724079, "impact_weight_k": 0.0 }, "geometry": { "type": "LineString", "coordinates": [ [ 9.2947078, 48.8164155 ], [ 9.2947488, 48.8162345 ], [ 9.2947738, 48.8160758 ], [ 9.2947882, 48.8159153 ], [ 9.294793, 48.8157559 ], [ 9.2947872, 48.8155928 ], [ 9.2947728, 48.815431 ], [ 9.2947478, 48.8152799 ], [ 9.2947133, 48.8151155 ], [ 9.294672, 48.8149669 ], [ 9.2946163, 48.8147975 ], [ 9.2945529, 48.8146413 ], [ 9.2944838, 48.8144915 ], [ 9.2944089, 48.8143429 ], [ 9.294311, 48.8141836 ], [ 9.2942156, 48.8140422 ], [ 9.2941146, 48.8139051 ], [ 9.2939963, 48.8137631 ], [ 9.2939043, 48.8136712 ], [ 9.2936498, 48.8134282 ], [ 9.2931741, 48.8130249 ], [ 9.2931041, 48.8128906 ] ] } },
{ "type": "Feature", "properties": { "lot_id": "L18", "segment_ids": "S229", "n_segments": 1, "length_total_m": 205.6836135258379, "duration_days": 1, "primary_corridor_id": "B 14", "hard_disaster": false, "hard_metapath": false, "hard": false, "cost_k": 205.6836135258379, "impact_weight_k": 0.0 }, "geometry": { "type": "LineString", "coordinates": [ [ 9.2916135, 48.8051902 ], [ 9.2915739, 48.8050269 ], [ 9.2914844, 48.8048565 ], [ 9.2913818, 48.8047615 ], [ 9.2912362, 48.8046764 ], [ 9.2910848, 48.8046265 ], [ 9.2908868, 48.8046027 ], [ 9.29071, 48.8046105 ], [ 9.2905511, 48.8046447 ], [ 9.2904324, 48.804688 ], [ 9.2903076, 48.8047571 ], [ 9.2902186, 48.8048366 ], [ 9.2901675, 48.8049097 ], [ 9.2901305, 48.8049806 ], [ 9.2901105, 48.8050723 ], [ 9.2901173, 48.8051598 ], [ 9.2900921, 48.8053161 ] ] } },
{ "type": "Feature", "properties": { "lot_id": "L19", "segment_ids": "S238", "n_segments": 1, "length_total_m": 725.0825805452256, "duration_days": 8, "primary_corridor_id": "B 14", "hard_disaster": true, "hard_metapath": false, "hard": true, "cost_k": 725.0825805452256, "impact_weight_k": 0.0 }, "geometry": { "type": "LineString", "coordinates": [ [ 9.2324382, 48.7848567 ], [ 9.2327519, 48.7859509 ], [ 9.2327929, 48.7860778 ], [ 9.2328119, 48.7861365 ], [ 9.2328651, 48.786266 ], [ 9.232935, 48.7864017 ], [ 9.2330242, 48.786536 ], [ 9.2331507, 48.7866806 ], [ 9.2332825, 48.7868076 ], [ 9.2334097, 48.7869145 ], [ 9.2335231, 48.7870023 ], [ 9.2336336, 48.7870791 ], [ 9.2338013, 48.78719 ], [ 9.234032, 48.7873316 ], [ 9.2344061, 48.7875426 ], [ 9.2346789, 48.7876862 ], [ 9.2349598, 48.7878262 ], [ 9.2352231, 48.7879473 ], [ 9.2356023, 48.7881099 ], [ 9.2358539, 48.788216 ], [ 9.2363976, 48.7884216 ], [ 9.2369596, 48.7886225 ], [ 9.2374034, 48.7887709 ], [ 9.2379629, 48.7889527 ], [ 9.2388954, 48.7892562 ] ] } },
{ "type": "Feature", "properties": { "lot_id": "L20", "segment_ids": "S269", "n_segments": 1, "length_total_m": 29.192907376297626, "duration_days": 1, "primary_corridor_id": "segment_269", "hard_disaster": true, "hard_metapath": false, "hard": true, "cost_k": 29.192907376297626, "impact_weight_k": 0.0 }, "geometry": { "type": "LineString", "coordinates": [ [ 9.2930774, 48.8191114 ], [ 9.2932524, 48.8188755 ] ] } },
{ "type": "Feature", "properties": { "lot_id": "L21", "segment_ids": "S277", "n_segments": 1, "length_total_m": 423.99626749669585, "duration_days": 1, "primary_corridor_id": "A 81", "hard_disaster": false, "hard_metapath": false, "hard": false, "cost_k": 423.99626749669585, "impact_weight_k": 0.0 }, "geometry": { "type": "LineString", "coordinates": [ [ 9.1550986, 48.9160237 ], [ 9.1553806, 48.9168058 ], [ 9.1555812, 48.9172704 ], [ 9.1558529, 48.9178512 ], [ 9.1560914, 48.9182941 ], [ 9.15628, 48.9186381 ], [ 9.1569414, 48.9196304 ] ] } },
{ "type": "Feature", "properties": { "lot_id": "L22", "segment_ids": "S282", "n_segments": 1, "length_total_m": 403.40851021199813, "duration_days": 1, "primary_corridor_id": "A 8", "hard_disaster": false, "hard_metapath": false, "hard": false, "cost_k": 403.40851021199813, "impact_weight_k": 0.0 }, "geometry": { "type": "LineString", "coordinates": [ [ 9.1701238, 48.705073 ], [ 9.170521, 48.7049814 ], [ 9.1709321, 48.7048781 ], [ 9.1712652, 48.7047871 ], [ 9.1716536, 48.7046726 ], [ 9.1722439, 48.7044899 ], [ 9.1728092, 48.7043024 ], [ 9.1733933, 48.7040956 ], [ 9.1736839, 48.7039895 ], [ 9.1739869, 48.7038742 ], [ 9.1742473, 48.7037613 ], [ 9.1744872, 48.7036429 ], [ 9.1747251, 48.7035085 ], [ 9.1749394, 48.7033727 ] ] } },
{ "type": "Feature", "properties": { "lot_id": "L23", "segment_ids": "S283", "n_segments": 1, "length_total_m": 201.03124837932754, "duration_days": 1, "primary_corridor_id": "A 8", "hard_disaster": false, "hard_metapath": false, "hard": false, "cost_k": 201.03124837932754, "impact_weight_k": 0.0 }, "geometry": { "type": "LineString", "coordinates": [ [ 9.1696564, 48.7057676 ], [ 9.1686613, 48.7059673 ], [ 9.1685617, 48.7059942 ], [ 9.168475, 48.7060256 ], [ 9.1683558, 48.7060722 ], [ 9.1682313, 48.7061358 ], [ 9.1681342, 48.7062071 ], [ 9.1677706, 48.7064923 ], [ 9.1674411, 48.7067289 ] ] } },
{ "type": "Feature", "properties": { "lot_id": "L24", "segment_ids": "S286", "n_segments": 1, "length_total_m": 1508.9051716242288, "duration_days": 4, "primary_corridor_id": "A 8", "hard_disaster": false, "hard_metapath": false, "hard": false, "cost_k": 1508.9051716242288, "impact_weight_k": 0.0 }, "geometry": { "type": "LineString", "coordinates": [ [ 9.1617668, 48.7069987 ], [ 9.160038, 48.707238 ], [ 9.1597089, 48.707284 ], [ 9.1592004, 48.7073553 ], [ 9.1590981, 48.7073696 ], [ 9.1586946, 48.7074262 ], [ 9.1575327, 48.7075874 ], [ 9.1564568, 48.7077434 ], [ 9.1558717, 48.707822 ], [ 9.1544296, 48.7080268 ], [ 9.1526921, 48.7082673 ], [ 9.1514827, 48.7084378 ], [ 9.1508867, 48.7085214 ], [ 9.1501736, 48.7086209 ], [ 9.1495706, 48.7087038 ], [ 9.148983, 48.7087882 ], [ 9.147821, 48.7089507 ], [ 9.1472293, 48.7090337 ], [ 9.1466401, 48.7091138 ], [ 9.1453801, 48.7092903 ], [ 9.1443369, 48.7094391 ], [ 9.1437538, 48.7095206 ], [ 9.1432126, 48.7095924 ], [ 9.1425677, 48.7096672 ], [ 9.1420168, 48.7097214 ], [ 9.1416349, 48.7097583 ] ] } },
{ "type": "Feature", "properties": { "lot_id": "L25", "segment_ids": "S291", "n_segments": 1, "length_total_m": 143.59812860020429, "duration_days": 1, "primary_corridor_id": "segment_291", "hard_disaster": false, "hard_metapath": false, "hard": false, "cost_k": 143.59812860020429, "impact_weight_k": 0.0 }, "geometry": { "type": "LineString", "coordinates": [ [ 9.1668595, 48.702949 ], [ 9.1669178, 48.7031197 ], [ 9.166971, 48.7032503 ], [ 9.1670261, 48.7033625 ], [ 9.1671317, 48.7035537 ], [ 9.1672624, 48.7037672 ], [ 9.1675058, 48.7041655 ] ] } },
{ "type": "Feature", "properties": { "lot_id": "L26", "segment_ids": "S324", "n_segments": 1, "length_total_m": 179.18600759928111, "duration_days": 1, "primary_corridor_id": "B 27", "hard_disaster": false, "hard_metapath": false, "hard": false, "cost_k": 179.18600759928111, "impact_weight_k": 0.0 }, "geometry": { "type": "LineString", "coordinates": [ [ 9.1565212, 48.9211921 ], [ 9.1556008, 48.9221105 ], [ 9.1552055, 48.9225515 ] ] } },
{ "type": "Feature", "properties": { "lot_id": "L27", "segment_ids": "S350", "n_segments": 1, "length_total_m": 144.11117139544032, "duration_days": 1, "primary_corridor_id": "segment_350", "hard_disaster": false, "hard_metapath": false, "hard": false, "cost_k": 144.11117139544032, "impact_weight_k": 0.0 }, "geometry": { "type": "LineString", "coordinates": [ [ 9.0796983, 48.8799322 ], [ 9.0798984, 48.8800297 ], [ 9.0801117, 48.8801144 ], [ 9.0803916, 48.8802125 ], [ 9.0806428, 48.8802731 ], [ 9.0809246, 48.8803251 ], [ 9.0812604, 48.8803637 ], [ 9.0815144, 48.8803705 ] ] } },
{ "type": "Feature", "properties": { "lot_id": "L28", "segment_ids": "S354", "n_segments": 1, "length_total_m": 96.332549295019533, "duration_days": 1, "primary_corridor_id": "segment_354", "hard_disaster": false, "hard_metapath": false, "hard": false, "cost_k": 96.332549295019533, "impact_weight_k": 0.0 }, "geometry": { "type": "LineString", "coordinates": [ [ 9.0811414, 48.8785212 ], [ 9.0810625, 48.8784748 ], [ 9.0809914, 48.8784492 ], [ 9.0809311, 48.8784316 ], [ 9.0808412, 48.8784201 ], [ 9.080746, 48.8784183 ], [ 9.0806307, 48.8784316 ], [ 9.0805073, 48.8784616 ], [ 9.0803719, 48.8785065 ], [ 9.08016, 48.8785974 ], [ 9.0799814, 48.8786867 ] ] } },
{ "type": "Feature", "properties": { "lot_id": "L29", "segment_ids": "S358", "n_segments": 1, "length_total_m": 1367.8175442163633, "duration_days": 3, "primary_corridor_id": "B 10", "hard_disaster": false, "hard_metapath": false, "hard": false, "cost_k": 1367.8175442163633, "impact_weight_k": 0.0 }, "geometry": { "type": "LineString", "coordinates": [ [ 9.0789378, 48.8797866 ], [ 9.0782417, 48.8799303 ], [ 9.0774109, 48.8800777 ], [ 9.0770998, 48.8801298 ], [ 9.0765859, 48.8802237 ], [ 9.0760562, 48.8803246 ], [ 9.0757528, 48.8803884 ], [ 9.0753253, 48.8804878 ], [ 9.075039, 48.880575 ], [ 9.0745142, 48.880739 ], [ 9.0741827, 48.8808614 ], [ 9.0738873, 48.8809816 ], [ 9.0734866, 48.8811674 ], [ 9.0730602, 48.8813738 ], [ 9.0722837, 48.8817583 ], [ 9.0718465, 48.8819532 ], [ 9.0714782, 48.8820989 ], [ 9.0711571, 48.8822222 ], [ 9.0707079, 48.882373 ], [ 9.0702572, 48.8825115 ], [ 9.0697905, 48.8826323 ], [ 9.069357, 48.8827339 ], [ 9.068947, 48.8828175 ], [ 9.0685608, 48.8828863 ], [ 9.068122, 48.8829533 ], [ 9.0677241, 48.8830074 ], [ 9.0673251, 48.8830577 ], [ 9.066925, 48.8831041 ], [ 9.066524, 48.8831468 ], [ 9.066122, 48.8831856 ], [ 9.0657192, 48.8832205 ], [ 9.0653157, 48.8832516 ], [ 9.0649115, 48.8832788 ], [ 9.0645068, 48.8833021 ], [ 9.0641016, 48.8833215 ], [ 9.0632052, 48.8833475 ], [ 9.0623355, 48.8833542 ], [ 9.0614167, 48.8833534 ] ] } },
{ "type": "Feature", "properties": { "lot_id": "L30", "segment_ids": "S362", "n_segments": 1, "length_total_m": 62.416304490613541, "duration_days": 1, "primary_corridor_id": "B 10", "hard_disaster": false, "hard_metapath": false, "hard": false, "cost_k": 62.416304490613541, "impact_weight_k": 0.0 }, "geometry": { "type": "LineString", "coordinates": [ [ 9.1406282, 48.8398471 ], [ 9.1410985, 48.8396994 ], [ 9.1413893, 48.8395943 ] ] } },
{ "type": "Feature", "properties": { "lot_id": "L31", "segment_ids": "S370", "n_segments": 1, "length_total_m": 277.0387061392247, "duration_days": 1, "primary_corridor_id": "B 14", "hard_disaster": false, "hard_metapath": false, "hard": false, "cost_k": 277.0387061392247, "impact_weight_k": 0.0 }, "geometry": { "type": "LineString", "coordinates": [ [ 9.2420169, 48.7891214 ], [ 9.2419317, 48.7890845 ], [ 9.2418682, 48.7890612 ], [ 9.2418119, 48.7890462 ], [ 9.2417522, 48.789035 ], [ 9.2416966, 48.7890276 ], [ 9.2416125, 48.7890245 ], [ 9.2415372, 48.7890271 ], [ 9.2414655, 48.789034 ], [ 9.2413988, 48.7890439 ], [ 9.2413404, 48.789057 ], [ 9.2412791, 48.789075 ], [ 9.2412241, 48.789097 ], [ 9.2411684, 48.7891245 ], [ 9.2411093, 48.7891602 ], [ 9.2410596, 48.7891986 ], [ 9.2410117, 48.7892441 ], [ 9.2409718, 48.7892913 ], [ 9.2409458, 48.789336 ], [ 9.240929, 48.7893745 ], [ 9.2409159, 48.7894242 ], [ 9.2409122, 48.7894738 ], [ 9.2409187, 48.7895215 ], [ 9.240932, 48.7895683 ], [ 9.2409502, 48.7896075 ], [ 9.2409711, 48.7896431 ], [ 9.2409938, 48.789675 ], [ 9.2410219, 48.7897078 ], [ 9.2410592, 48.7897407 ], [ 9.2411019, 48.7897697 ], [ 9.2412053, 48.7898352 ], [ 9.2413141, 48.7898955 ], [ 9.2413593, 48.7899201 ], [ 9.2416112, 48.7900415 ], [ 9.2419924, 48.7902061 ], [ 9.2425301, 48.7904402 ] ] } },
{ "type": "Feature", "properties": { "lot_id": "L32", "segment_ids": "S394", "n_segments": 1, "length_total_m": 416.09224456821653, "duration_days": 5, "primary_corridor_id": "B 14", "hard_disaster": true, "hard_metapath": false, "hard": true, "cost_k": 416.09224456821653, "impact_weight_k": 0.0 }, "geometry": { "type": "LineString", "coordinates": [ [ 9.1123965, 48.7399411 ], [ 9.1121044, 48.7400722 ], [ 9.1120078, 48.7401173 ], [ 9.1118949, 48.7401681 ], [ 9.1117363, 48.7402341 ], [ 9.1115606, 48.7402982 ], [ 9.1112532, 48.7403985 ], [ 9.1110979, 48.7404397 ], [ 9.110939, 48.74048 ], [ 9.1107529, 48.7405242 ], [ 9.1106094, 48.7405511 ], [ 9.1102915, 48.740592 ], [ 9.1100762, 48.7406026 ], [ 9.1097435, 48.7406096 ], [ 9.109545, 48.7405901 ], [ 9.1093631, 48.740566 ], [ 9.1091755, 48.7405366 ], [ 9.1089215, 48.7404797 ], [ 9.1082059, 48.7402911 ], [ 9.1078521, 48.7401877 ], [ 9.1077826, 48.740173 ], [ 9.1071201, 48.7400252 ] ] } },
{ "type": "Feature", "properties": { "lot_id": "L33", "segment_ids": "S396", "n_segments": 1, "length_total_m": 227.63466960203476, "duration_days": 1, "primary_corridor_id": "B 14", "hard_disaster": false, "hard_metapath": false, "hard": false, "cost_k": 227.63466960203476, "impact_weight_k": 0.0 }, "geometry": { "type": "LineString", "coordinates": [ [ 9.1119473, 48.7397157 ], [ 9.1121493, 48.7396742 ], [ 9.1123427, 48.7396269 ], [ 9.1124668, 48.7395893 ], [ 9.1126012, 48.7395427 ], [ 9.1127387, 48.7394894 ], [ 9.1128729, 48.7394323 ], [ 9.1130306, 48.7393504 ], [ 9.1132493, 48.7392095 ], [ 9.1135311, 48.739027 ], [ 9.1139211, 48.7387671 ], [ 9.1142254, 48.7385793 ], [ 9.1142424, 48.7385665 ], [ 9.1142613, 48.7385551 ], [ 9.1142841, 48.7385415 ], [ 9.1143708, 48.7384831 ] ] } },
{ "type": "Feature", "properties": { "lot_id": "L34", "segment_ids": "S401", "n_segments": 1, "length_total_m": 91.383786509521997, "duration_days": 1, "primary_corridor_id": "B 10", "hard_disaster": false, "hard_metapath": false, "hard": false, "cost_k": 91.383786509521997, "impact_weight_k": 0.0 }, "geometry": { "type": "LineString", "coordinates": [ [ 9.1580474, 48.8393869 ], [ 9.1577972, 48.8394079 ], [ 9.1576501, 48.8394294 ], [ 9.1575441, 48.8394597 ], [ 9.1574512, 48.8394965 ], [ 9.1573664, 48.8395513 ], [ 9.1572972, 48.8396187 ], [ 9.1572474, 48.8396837 ], [ 9.157229, 48.8397399 ], [ 9.157197, 48.8398574 ] ] } },
{ "type": "Feature", "properties": { "lot_id": "L35", "segment_ids": "S410; S412; S682", "n_segments": 3, "length_total_m": 439.55194101920688, "duration_days": 2, "primary_corridor_id": "B 295", "hard_disaster": true, "hard_metapath": false, "hard": true, "cost_k": 439.55194101920688, "impact_weight_k": 0.0 }, "geometry": { "type": "MultiLineString", "coordinates": [ [ [ 9.1688593, 48.8119733 ], [ 9.1689532, 48.8119695 ], [ 9.1694774, 48.8119201 ], [ 9.170403, 48.8118246 ], [ 9.1705595, 48.8118107 ], [ 9.1707986, 48.8117916 ], [ 9.1710885, 48.811766 ], [ 9.1712808, 48.8117456 ], [ 9.1714883, 48.8117211 ], [ 9.1716752, 48.811687 ], [ 9.1718056, 48.811654 ], [ 9.1719466, 48.811611 ], [ 9.1720076, 48.8115907 ], [ 9.1720891, 48.8115604 ], [ 9.172211, 48.8114921 ], [ 9.1723321, 48.8114128 ], [ 9.1725499, 48.8112693 ], [ 9.1726565, 48.8112036 ], [ 9.1727182, 48.8111773 ], [ 9.1727556, 48.8111677 ], [ 9.172812, 48.8111586 ], [ 9.1728471, 48.8111545 ], [ 9.1729235, 48.8111541 ], [ 9.1729906, 48.8111613 ], [ 9.1730869, 48.8111944 ], [ 9.1732321, 48.8112476 ], [ 9.173365, 48.8112961 ] ], [ [ 9.173365, 48.8112961 ], [ 9.1734299, 48.8113678 ], [ 9.1734584, 48.8114184 ], [ 9.1734614, 48.8114702 ], [ 9.1734308, 48.8115474 ] ], [ [ 9.1740918, 48.8113562 ], [ 9.1738255, 48.8114271 ], [ 9.1736372, 48.8114796 ], [ 9.1734308, 48.8115474 ] ] ] } },
{ "type": "Feature", "properties": { "lot_id": "L36", "segment_ids": "S414", "n_segments": 1, "length_total_m": 105.35781356315584, "duration_days": 2, "primary_corridor_id": "B 295", "hard_disaster": true, "hard_metapath": false, "hard": true, "cost_k": 105.35781356315584, "impact_weight_k": 0.0 }, "geometry": { "type": "LineString", "coordinates": [ [ 9.1809965, 48.8105067 ], [ 9.1814364, 48.8104665 ], [ 9.1816395, 48.8104484 ], [ 9.1816602, 48.8104465 ], [ 9.1817164, 48.810441 ], [ 9.1818511, 48.8104261 ], [ 9.181946, 48.8104167 ], [ 9.1820182, 48.8104072 ], [ 9.1821284, 48.8103866 ], [ 9.1822112, 48.8103661 ], [ 9.1823868, 48.8102993 ] ] } },
{ "type": "Feature", "properties": { "lot_id": "L37", "segment_ids": "S421; S422; S897", "n_segments": 3, "length_total_m": 586.82981258756081, "duration_days": 4, "primary_corridor_id": "B 10", "hard_disaster": true, "hard_metapath": false, "hard": true, "cost_k": 586.82981258756081, "impact_weight_k": 0.0 }, "geometry": { "type": "MultiLineString", "coordinates": [ [ [ 9.0566334, 48.8844907 ], [ 9.0563918, 48.8844311 ], [ 9.0561001, 48.8843136 ], [ 9.0558863, 48.8842342 ], [ 9.0556729, 48.8841691 ], [ 9.0554622, 48.8841271 ], [ 9.0552559, 48.8841062 ], [ 9.0550519, 48.8841109 ], [ 9.0547972, 48.8841345 ], [ 9.0545678, 48.8841866 ], [ 9.0542137, 48.8842437 ] ], [ [ 9.0566334, 48.8844907 ], [ 9.0568095, 48.8845298 ], [ 9.056999, 48.8845449 ], [ 9.0571487, 48.8845373 ], [ 9.0573076, 48.8845068 ], [ 9.0574433, 48.884454 ], [ 9.0575784, 48.8843811 ], [ 9.0576711, 48.8843124 ], [ 9.0578083, 48.8841636 ], [ 9.0579861, 48.8839244 ] ], [ [ 9.0542137, 48.8842437 ], [ 9.0533227, 48.8845817 ], [ 9.0527531, 48.8847872 ], [ 9.0523996, 48.8848987 ], [ 9.0520841, 48.884987 ], [ 9.0517423, 48.8850619 ], [ 9.0513771, 48.8851292 ], [ 9.0509214, 48.8851719 ] ] ] } },
{ "type": "Feature", "properties": { "lot_id": "L38", "segment_ids": "S450; S870", "n_segments": 2, "length_total_m": 2000.8643602435475, "duration_days": 5, "primary_corridor_id": "segment_450", "hard_disaster": false, "hard_metapath": false, "hard": false, "cost_k": 2000.8643602435475, "impact_weight_k": 0.0 }, "geometry": { "type": "MultiLineString", "coordinates": [ [ [ 9.1404422, 48.810751 ], [ 9.140771, 48.8105954 ], [ 9.1409233, 48.8105274 ], [ 9.1411269, 48.8104585 ], [ 9.1413761, 48.8103968 ], [ 9.1416188, 48.8103472 ], [ 9.1421732, 48.8102692 ], [ 9.1424542, 48.8102382 ], [ 9.1427261, 48.8102199 ] ], [ [ 9.1636267, 48.8149655 ], [ 9.1634106, 48.8149968 ], [ 9.1631824, 48.8150226 ], [ 9.1629276, 48.8150347 ], [ 9.1626764, 48.815024 ], [ 9.162381, 48.8149863 ], [ 9.1620649, 48.8149122 ], [ 9.1613491, 48.8146479 ], [ 9.1607603, 48.8144235 ], [ 9.1606783, 48.8143911 ], [ 9.1604365, 48.8143247 ], [ 9.1601704, 48.8142647 ], [ 9.1600965, 48.8142434 ], [ 9.1594983, 48.8140573 ], [ 9.1593506, 48.8140114 ], [ 9.1591221, 48.81393 ], [ 9.1588345, 48.8138327 ], [ 9.1583084, 48.8136693 ], [ 9.1576637, 48.8134814 ], [ 9.1551626, 48.8126999 ], [ 9.1510803, 48.8114708 ], [ 9.149567, 48.8108833 ], [ 9.1486222, 48.8106652 ], [ 9.1470464, 48.8104462 ], [ 9.1437841, 48.8102634 ], [ 9.142677, 48.8103212 ], [ 9.1423626, 48.8103435 ], [ 9.1420529, 48.8103813 ], [ 9.1417585, 48.8104293 ], [ 9.141494, 48.8104816 ], [ 9.1409715, 48.8106051 ], [ 9.1404422, 48.810751 ] ] ] } },
{ "type": "Feature", "properties": { "lot_id": "L39", "segment_ids": "S454", "n_segments": 1, "length_total_m": 40.450180567429278, "duration_days": 1, "primary_corridor_id": "B 10", "hard_disaster": false, "hard_metapath": false, "hard": false, "cost_k": 40.450180567429278, "impact_weight_k": 0.0 }, "geometry": { "type": "LineString", "coordinates": [ [ 9.1417198, 48.8402393 ], [ 9.1415857, 48.8401914 ], [ 9.1414986, 48.8401462 ], [ 9.1414374, 48.8401253 ], [ 9.1413545, 48.840112 ], [ 9.1412205, 48.8401225 ] ] } },
{ "type": "Feature", "properties": { "lot_id": "L40", "segment_ids": "S484; S743", "n_segments": 2, "length_total_m": 361.04406499450721, "duration_days": 4, "primary_corridor_id": "B 14", "hard_disaster": true, "hard_metapath": false, "hard": true, "cost_k": 361.04406499450721, "impact_weight_k": 0.0 }, "geometry": { "type": "MultiLineString", "coordinates": [ [ [ 9.1824742, 48.7755595 ], [ 9.1823723, 48.7755238 ], [ 9.1822592, 48.7754629 ], [ 9.1821261, 48.7753606 ], [ 9.182012, 48.7752718 ], [ 9.18186, 48.77515 ], [ 9.1816766, 48.7750251 ], [ 9.1812907, 48.774765 ], [ 9.1809049, 48.7745218 ], [ 9.1805289, 48.774215 ], [ 9.1804066, 48.7740516 ] ], [ [ 9.1817048, 48.7748719 ], [ 9.181591, 48.7748593 ], [ 9.1814742, 48.7747858 ], [ 9.1811948, 48.7746123 ], [ 9.1808284, 48.7743573 ], [ 9.1804066, 48.7740516 ] ] ] } },
{ "type": "Feature", "properties": { "lot_id": "L41", "segment_ids": "S503; S894", "n_segments": 2, "length_total_m": 78.626227261475421, "duration_days": 1, "primary_corridor_id": "B 295", "hard_disaster": false, "hard_metapath": false, "hard": false, "cost_k": 78.626227261475421, "impact_weight_k": 0.0 }, "geometry": { "type": "MultiLineString", "coordinates": [ [ [ 9.1086249, 48.809289 ], [ 9.1084195, 48.8093881 ], [ 9.1082482, 48.8094652 ], [ 9.1081226, 48.8095234 ] ], [ [ 9.1081226, 48.8095234 ], [ 9.1079222, 48.8096147 ], [ 9.1078833, 48.8096332 ], [ 9.1078208, 48.809663 ], [ 9.1077485, 48.8096974 ] ] ] } },
{ "type": "Feature", "properties": { "lot_id": "L42", "segment_ids": "S518", "n_segments": 1, "length_total_m": 3457.5196034192054, "duration_days": 35, "primary_corridor_id": "A 81", "hard_disaster": true, "hard_metapath": false, "hard": true, "cost_k": 3457.5196034192054, "impact_weight_k": 0.0 }, "geometry": { "type": "LineString", "coordinates": [ [ 9.1445039, 48.8831637 ], [ 9.1441436, 48.8824918 ], [ 9.1437697, 48.8818364 ], [ 9.1435562, 48.8814839 ], [ 9.1432972, 48.8810634 ], [ 9.1430265, 48.8806416 ], [ 9.1426648, 48.8801051 ], [ 9.1423049, 48.8795877 ], [ 9.1420016, 48.8791711 ], [ 9.1417669, 48.8788545 ], [ 9.1416998, 48.8787643 ], [ 9.141588, 48.8786136 ], [ 9.1415208, 48.8785282 ], [ 9.1410381, 48.8779187 ], [ 9.1406471, 48.877446 ], [ 9.1403112, 48.8770512 ], [ 9.1399827, 48.8766689 ], [ 9.139648, 48.8762773 ], [ 9.1393106, 48.8758922 ], [ 9.13885, 48.8753582 ], [ 9.1386328, 48.8751059 ], [ 9.1383775, 48.8748086 ], [ 9.1380143, 48.8743889 ], [ 9.1375479, 48.8738423 ], [ 9.1374997, 48.8737931 ], [ 9.1374603, 48.8737462 ], [ 9.1372918, 48.8735495 ], [ 9.1371267, 48.8733568 ], [ 9.1368798, 48.873073 ], [ 9.1368163, 48.873 ], [ 9.1365486, 48.8726861 ], [ 9.1362768, 48.8723722 ], [ 9.1358233, 48.8718453 ], [ 9.13549, 48.8714622 ], [ 9.1351064, 48.8710153 ], [ 9.134729, 48.8705752 ], [ 9.1337171, 48.8694014 ], [ 9.1330649, 48.8686511 ], [ 9.1325469, 48.8680415 ], [ 9.1319624, 48.8673632 ], [ 9.1318845, 48.8672723 ], [ 9.1317134, 48.8670735 ], [ 9.130831, 48.8660502 ], [ 9.1306607, 48.8658536 ], [ 9.1303609, 48.8655074 ], [ 9.129906, 48.8649779 ], [ 9.1294801, 48.8644733 ], [ 9.1294214, 48.8643963 ], [ 9.1291532, 48.8640579 ], [ 9.128893, 48.8637169 ], [ 9.1286705, 48.8634165 ], [ 9.1284444, 48.8630998 ], [ 9.1281067, 48.8626103 ], [ 9.1278869, 48.8622749 ], [ 9.1276833, 48.8619533 ], [ 9.127023, 48.8609228 ], [ 9.1267542, 48.8605004 ], [ 9.1262725, 48.8597528 ], [ 9.1260029, 48.8593311 ], [ 9.1256656, 48.8587986 ], [ 9.1256564, 48.8587837 ], [ 9.1256202, 48.8587254 ], [ 9.1254116, 48.8583981 ], [ 9.125203, 48.8580707 ], [ 9.1249752, 48.8577126 ], [ 9.124804, 48.857442 ], [ 9.1243976, 48.8568005 ], [ 9.1240771, 48.8562914 ], [ 9.1238077, 48.8558693 ], [ 9.1237089, 48.8557153 ], [ 9.1234884, 48.8553697 ] ] } },
{ "type": "Feature", "properties": { "lot_id": "L43", "segment_ids": "S534; S536", "n_segments": 2, "length_total_m": 173.24191994934716, "duration_days": 2, "primary_corridor_id": "B 27", "hard_disaster": true, "hard_metapath": false, "hard": true, "cost_k": 173.24191994934716, "impact_weight_k": 0.0 }, "geometry": { "type": "MultiLineString", "coordinates": [ [ [ 9.1952893, 48.8599008 ], [ 9.1952502, 48.8600196 ], [ 9.1952534, 48.8602146 ], [ 9.1952882, 48.8603736 ], [ 9.1953447, 48.8606669 ], [ 9.1953518, 48.8606991 ], [ 9.1953794, 48.8608263 ] ], [ [ 9.1959083, 48.8601128 ], [ 9.1958426, 48.8599767 ], [ 9.1957895, 48.8598909 ], [ 9.1957056, 48.8598302 ], [ 9.1955974, 48.8598041 ], [ 9.195508, 48.8598124 ], [ 9.1954165, 48.8598327 ], [ 9.1952893, 48.8599008 ] ] ] } },
{ "type": "Feature", "properties": { "lot_id": "L44", "segment_ids": "S560", "n_segments": 1, "length_total_m": 468.20483066200444, "duration_days": 1, "primary_corridor_id": "B 10", "hard_disaster": false, "hard_metapath": false, "hard": false, "cost_k": 468.20483066200444, "impact_weight_k": 0.0 }, "geometry": { "type": "LineString", "coordinates": [ [ 9.262103, 48.7532382 ], [ 9.2619983, 48.7533871 ], [ 9.2616592, 48.7538806 ], [ 9.2606994, 48.7552427 ], [ 9.2603186, 48.755788 ], [ 9.2599856, 48.7562682 ], [ 9.2594382, 48.7570648 ] ] } },
{ "type": "Feature", "properties": { "lot_id": "L45", "segment_ids": "S585", "n_segments": 1, "length_total_m": 826.57036718692734, "duration_days": 2, "primary_corridor_id": "segment_585", "hard_disaster": false, "hard_metapath": false, "hard": false, "cost_k": 826.57036718692734, "impact_weight_k": 0.0 }, "geometry": { "type": "LineString", "coordinates": [ [ 9.086052, 48.780305 ], [ 9.0863371, 48.7800779 ], [ 9.0866167, 48.7799387 ], [ 9.0868815, 48.7797854 ], [ 9.0876253, 48.7793439 ], [ 9.0886416, 48.778744 ], [ 9.0893408, 48.7783483 ], [ 9.0895303, 48.7782437 ], [ 9.0897203, 48.7781406 ], [ 9.0897965, 48.7781125 ], [ 9.089891, 48.7780823 ], [ 9.0898981, 48.778063 ], [ 9.0899121, 48.7780431 ], [ 9.0899611, 48.7780086 ], [ 9.0900851, 48.7779465 ], [ 9.0905439, 48.7777344 ], [ 9.0917097, 48.7772256 ], [ 9.0922678, 48.7770025 ], [ 9.0925518, 48.7768814 ], [ 9.0928707, 48.7767413 ], [ 9.093075, 48.77665 ], [ 9.0937239, 48.7763255 ], [ 9.0943556, 48.7760029 ], [ 9.0949303, 48.7757723 ] ] } },
{ "type": "Feature", "properties": { "lot_id": "L46", "segment_ids": "S588", "n_segments": 1, "length_total_m": 218.02621650684401, "duration_days": 1, "primary_corridor_id": "B 10", "hard_disaster": false, "hard_metapath": false, "hard": false, "cost_k": 218.02621650684401, "impact_weight_k": 0.0 }, "geometry": { "type": "LineString", "coordinates": [ [ 9.2557357, 48.7624159 ], [ 9.2557099, 48.7623184 ], [ 9.2560149, 48.7617041 ], [ 9.2562519, 48.7612644 ], [ 9.2563645, 48.7610505 ], [ 9.2565595, 48.7606679 ], [ 9.2565828, 48.7606263 ], [ 9.2565953, 48.7606092 ], [ 9.2566349, 48.7605603 ] ] } },
{ "type": "Feature", "properties": { "lot_id": "L47", "segment_ids": "S589", "n_segments": 1, "length_total_m": 996.01901109970072, "duration_days": 10, "primary_corridor_id": "B 10", "hard_disaster": true, "hard_metapath": false, "hard": true, "cost_k": 996.01901109970072, "impact_weight_k": 0.0 }, "geometry": { "type": "LineString", "coordinates": [ [ 9.2981394, 48.7377911 ], [ 9.2988635, 48.7375947 ], [ 9.299141, 48.7375132 ], [ 9.2994414, 48.7374194 ], [ 9.2997077, 48.7373283 ], [ 9.299977, 48.7372316 ], [ 9.3002435, 48.7371314 ], [ 9.3004953, 48.7370273 ], [ 9.3008021, 48.7368896 ], [ 9.3010597, 48.7367679 ], [ 9.3013614, 48.7366239 ], [ 9.3017289, 48.7364382 ], [ 9.3022513, 48.7361771 ], [ 9.3027085, 48.7359532 ], [ 9.3030664, 48.7357877 ], [ 9.3033741, 48.7356539 ], [ 9.3036873, 48.7355316 ], [ 9.3040079, 48.7354112 ], [ 9.3043323, 48.7352966 ], [ 9.3049874, 48.7350846 ], [ 9.3054249, 48.7349436 ], [ 9.3057463, 48.7348403 ], [ 9.3060502, 48.7347422 ], [ 9.3063064, 48.7346535 ], [ 9.3065779, 48.7345593 ], [ 9.3068414, 48.7344589 ], [ 9.3070983, 48.7343565 ], [ 9.3073347, 48.734257 ], [ 9.307542, 48.7341628 ], [ 9.3077579, 48.734053 ], [ 9.3079644, 48.7339427 ], [ 9.3082749, 48.7337576 ], [ 9.3086523, 48.7335041 ], [ 9.3091414, 48.7331751 ], [ 9.3094698, 48.7329651 ] ] } },
{ "type": "Feature", "properties": { "lot_id": "L48", "segment_ids": "S594", "n_segments": 1, "length_total_m": 638.5600881257775, "duration_days": 7, "primary_corridor_id": "B 10", "hard_disaster": true, "hard_metapath": false, "hard": true, "cost_k": 638.5600881257775, "impact_weight_k": 0.0 }, "geometry": { "type": "LineString", "coordinates": [ [ 9.3237988, 48.7260961 ], [ 9.3231373, 48.7262914 ], [ 9.3222066, 48.7265581 ], [ 9.3210069, 48.7268929 ], [ 9.3203257, 48.72709 ], [ 9.3199345, 48.727212 ], [ 9.3195331, 48.7273495 ], [ 9.319142, 48.7274986 ], [ 9.3186986, 48.7276875 ], [ 9.3183926, 48.7278313 ], [ 9.3180627, 48.7280039 ], [ 9.3177005, 48.7282103 ], [ 9.317359, 48.7284256 ], [ 9.3170006, 48.7286656 ], [ 9.3167358, 48.7288574 ], [ 9.3164669, 48.7290558 ] ] } },
{ "type": "Feature", "properties": { "lot_id": "L49", "segment_ids": "S628", "n_segments": 1, "length_total_m": 79.979590501680946, "duration_days": 1, "primary_corridor_id": "segment_628", "hard_disaster": false, "hard_metapath": false, "hard": false, "cost_k": 79.979590501680946, "impact_weight_k": 0.0 }, "geometry": { "type": "LineString", "coordinates": [ [ 9.1534713, 48.9223912 ], [ 9.1533239, 48.9224244 ], [ 9.1532076, 48.922456 ], [ 9.15304, 48.9225404 ], [ 9.152898, 48.9226371 ], [ 9.1528411, 48.9226778 ], [ 9.1526323, 48.9228312 ] ] } },
{ "type": "Feature", "properties": { "lot_id": "L50", "segment_ids": "S632", "n_segments": 1, "length_total_m": 22.024161877227257, "duration_days": 1, "primary_corridor_id": "B 27", "hard_disaster": true, "hard_metapath": false, "hard": true, "cost_k": 22.024161877227257, "impact_weight_k": 0.0 }, "geometry": { "type": "LineString", "coordinates": [ [ 9.17913, 48.7841816 ], [ 9.1791402, 48.7841897 ], [ 9.1792193, 48.7842601 ], [ 9.1793211, 48.7843342 ] ] } },
{ "type": "Feature", "properties": { "lot_id": "L51", "segment_ids": "S637", "n_segments": 1, "length_total_m": 8.8372660399690783, "duration_days": 1, "primary_corridor_id": "B 27", "hard_disaster": false, "hard_metapath": false, "hard": false, "cost_k": 8.8372660399690783, "impact_weight_k": 0.0 }, "geometry": { "type": "LineString", "coordinates": [ [ 9.1788156, 48.7843093 ], [ 9.1787445, 48.7842451 ] ] } },
{ "type": "Feature", "properties": { "lot_id": "L52", "segment_ids": "S646", "n_segments": 1, "length_total_m": 16.786718535350161, "duration_days": 1, "primary_corridor_id": "Richard-von-Weizsäcker-Planie", "hard_disaster": true, "hard_metapath": false, "hard": true, "cost_k": 16.786718535350161, "impact_weight_k": 0.0 }, "geometry": { "type": "LineString", "coordinates": [ [ 9.1824859, 48.7762644 ], [ 9.1825779, 48.7762721 ], [ 9.182617, 48.7762838 ], [ 9.1826423, 48.7763051 ], [ 9.182664, 48.7763365 ] ] } },
{ "type": "Feature", "properties": { "lot_id": "L53", "segment_ids": "S649; S736", "n_segments": 2, "length_total_m": 18.356276884423654, "duration_days": 1, "primary_corridor_id": "Gebhard-Müller-Platz", "hard_disaster": true, "hard_metapath": false, "hard": true, "cost_k": 18.356276884423654, "impact_weight_k": 0.0 }, "geometry": { "type": "MultiLineString", "coordinates": [ [ [ 9.1868719, 48.7813599 ], [ 9.1869185, 48.7814177 ] ], [ [ 9.1868135, 48.781268 ], [ 9.1868719, 48.7813599 ] ] ] } },
{ "type": "Feature", "properties": { "lot_id": "L54", "segment_ids": "S694", "n_segments": 1, "length_total_m": 47.877057351646279, "duration_days": 1, "primary_corridor_id": "A 81", "hard_disaster": false, "hard_metapath": false, "hard": false, "cost_k": 47.877057351646279, "impact_weight_k": 0.0 }, "geometry": { "type": "LineString", "coordinates": [ [ 9.1432938, 48.8861958 ], [ 9.1433585, 48.8861438 ], [ 9.1434598, 48.8861228 ], [ 9.1435486, 48.8860986 ], [ 9.1435888, 48.8860833 ], [ 9.143637, 48.8860598 ], [ 9.1436663, 48.886041 ], [ 9.1436881, 48.8860238 ], [ 9.1437052, 48.8860007 ], [ 9.1437152, 48.8859811 ], [ 9.1437404, 48.8859186 ] ] } },
{ "type": "Feature", "properties": { "lot_id": "L55", "segment_ids": "S697", "n_segments": 1, "length_total_m": 45.08887870197028, "duration_days": 1, "primary_corridor_id": "B 295", "hard_disaster": false, "hard_metapath": false, "hard": false, "cost_k": 45.08887870197028, "impact_weight_k": 0.0 }, "geometry": { "type": "LineString", "coordinates": [ [ 9.0801114, 48.8227038 ], [ 9.0803189, 48.8226687 ], [ 9.0807116, 48.8226132 ] ] } },
{ "type": "Feature", "properties": { "lot_id": "L56", "segment_ids": "S700", "n_segments": 1, "length_total_m": 36.212147908820654, "duration_days": 1, "primary_corridor_id": "A 81", "hard_disaster": false, "hard_metapath": false, "hard": false, "cost_k": 36.212147908820654, "impact_weight_k": 0.0 }, "geometry": { "type": "LineString", "coordinates": [ [ 9.076355, 48.8230451 ], [ 9.0763171, 48.8229715 ], [ 9.0762485, 48.8227277 ] ] } },
{ "type": "Feature", "properties": { "lot_id": "L57", "segment_ids": "S711", "n_segments": 1, "length_total_m": 92.715196213246813, "duration_days": 1, "primary_corridor_id": "segment_711", "hard_disaster": false, "hard_metapath": false, "hard": false, "cost_k": 92.715196213246813, "impact_weight_k": 0.0 }, "geometry": { "type": "LineString", "coordinates": [ [ 9.2329727, 48.7835129 ], [ 9.2330888, 48.783418 ], [ 9.2331937, 48.7833592 ], [ 9.233224, 48.7833226 ], [ 9.2332407, 48.783284 ], [ 9.2332407, 48.7832526 ], [ 9.2332291, 48.783211 ], [ 9.2331637, 48.7831107 ], [ 9.2332675, 48.7831652 ], [ 9.2333488, 48.7832003 ], [ 9.2334126, 48.7832138 ], [ 9.2334923, 48.7832129 ], [ 9.233648, 48.7831782 ] ] } },
{ "type": "Feature", "properties": { "lot_id": "L58", "segment_ids": "S722", "n_segments": 1, "length_total_m": 30.691310005153138, "duration_days": 1, "primary_corridor_id": "B 27", "hard_disaster": true, "hard_metapath": false, "hard": true, "cost_k": 30.691310005153138, "impact_weight_k": 0.0 }, "geometry": { "type": "LineString", "coordinates": [ [ 9.1831419, 48.7757704 ], [ 9.1829657, 48.7760208 ] ] } },
{ "type": "Feature", "properties": { "lot_id": "L59", "segment_ids": "S734", "n_segments": 1, "length_total_m": 14.134482624391564, "duration_days": 1, "primary_corridor_id": "Gebhard-Müller-Platz", "hard_disaster": false, "hard_metapath": false, "hard": false, "cost_k": 14.134482624391564, "impact_weight_k": 0.0 }, "geometry": { "type": "LineString", "coordinates": [ [ 9.1865823, 48.7813345 ], [ 9.1867603, 48.7812855 ] ] } },
{ "type": "Feature", "properties": { "lot_id": "L60", "segment_ids": "S740", "n_segments": 1, "length_total_m": 221.74197533546402, "duration_days": 3, "primary_corridor_id": "B 14", "hard_disaster": true, "hard_metapath": false, "hard": true, "cost_k": 221.74197533546402, "impact_weight_k": 0.0 }, "geometry": { "type": "LineString", "coordinates": [ [ 9.1791455, 48.7728849 ], [ 9.1793956, 48.7730151 ], [ 9.1798713, 48.7733171 ], [ 9.1800022, 48.7733839 ], [ 9.1801651, 48.7735144 ], [ 9.1802952, 48.7736113 ], [ 9.1803107, 48.7736224 ], [ 9.1804687, 48.7737355 ], [ 9.1805418, 48.7737821 ], [ 9.1807711, 48.7739494 ], [ 9.1808816, 48.7740393 ], [ 9.1812535, 48.7743089 ] ] } },
{ "type": "Feature", "properties": { "lot_id": "L61", "segment_ids": "S758", "n_segments": 1, "length_total_m": 136.50779507703342, "duration_days": 1, "primary_corridor_id": "B 27", "hard_disaster": false, "hard_metapath": false, "hard": false, "cost_k": 136.50779507703342, "impact_weight_k": 0.0 }, "geometry": { "type": "LineString", "coordinates": [ [ 9.1724046, 48.7516632 ], [ 9.172423, 48.7517442 ], [ 9.1724181, 48.751963 ], [ 9.1723774, 48.7522128 ], [ 9.1722605, 48.7526644 ], [ 9.1721403, 48.752867 ] ] } },
{ "type": "Feature", "properties": { "lot_id": "L62", "segment_ids": "S765", "n_segments": 1, "length_total_m": 72.833959441064707, "duration_days": 1, "primary_corridor_id": "B 295", "hard_disaster": true, "hard_metapath": false, "hard": true, "cost_k": 72.833959441064707, "impact_weight_k": 0.0 }, "geometry": { "type": "LineString", "coordinates": [ [ 9.181014, 48.8106488 ], [ 9.180857, 48.8106597 ], [ 9.1803257, 48.8106907 ], [ 9.1802625, 48.8106944 ], [ 9.1800234, 48.8106813 ] ] } },
{ "type": "Feature", "properties": { "lot_id": "L63", "segment_ids": "S767", "n_segments": 1, "length_total_m": 177.63730710848114, "duration_days": 2, "primary_corridor_id": "A 81", "hard_disaster": true, "hard_metapath": false, "hard": true, "cost_k": 177.63730710848114, "impact_weight_k": 0.0 }, "geometry": { "type": "LineString", "coordinates": [ [ 9.0533011, 48.8104011 ], [ 9.0527858, 48.8102306 ], [ 9.0525502, 48.8101458 ], [ 9.0522325, 48.8100301 ], [ 9.0511789, 48.8096282 ] ] } },
{ "type": "Feature", "properties": { "lot_id": "L64", "segment_ids": "S774; S775", "n_segments": 2, "length_total_m": 65.295651455201707, "duration_days": 1, "primary_corridor_id": "B 14", "hard_disaster": true, "hard_metapath": false, "hard": true, "cost_k": 65.295651455201707, "impact_weight_k": 0.0 }, "geometry": { "type": "MultiLineString", "coordinates": [ [ [ 9.1607943, 48.7548813 ], [ 9.1609105, 48.7549071 ], [ 9.1609722, 48.7549336 ], [ 9.1610058, 48.7549482 ], [ 9.1610327, 48.7549648 ], [ 9.1609679, 48.7549773 ], [ 9.1609186, 48.7549836 ], [ 9.1608569, 48.7549848 ], [ 9.1607577, 48.7549813 ] ], [ [ 9.1607943, 48.7548813 ], [ 9.1608847, 48.7548619 ], [ 9.1609393, 48.7548459 ], [ 9.1609879, 48.7548149 ], [ 9.1610642, 48.7547572 ] ] ] } },
{ "type": "Feature", "properties": { "lot_id": "L65", "segment_ids": "S794; S796", "n_segments": 2, "length_total_m": 77.236205820730902, "duration_days": 1, "primary_corridor_id": "B 14", "hard_disaster": true, "hard_metapath": false, "hard": true, "cost_k": 77.236205820730902, "impact_weight_k": 0.0 }, "geometry": { "type": "MultiLineString", "coordinates": [ [ [ 9.1722536, 48.7680499 ], [ 9.172384, 48.7681976 ] ], [ [ 9.172384, 48.7681976 ], [ 9.1725273, 48.7683466 ] ] ] } },
{ "type": "Feature", "properties": { "lot_id": "L66", "segment_ids": "S805", "n_segments": 1, "length_total_m": 25.015915382844383, "duration_days": 1, "primary_corridor_id": "Friedrichsplatz", "hard_disaster": false, "hard_metapath": false, "hard": false, "cost_k": 25.015915382844383, "impact_weight_k": 0.0 }, "geometry": { "type": "LineString", "coordinates": [ [ 9.1775401, 48.7832056 ], [ 9.1775792, 48.7831021 ], [ 9.1776329, 48.7829892 ] ] } },
{ "type": "Feature", "properties": { "lot_id": "L67", "segment_ids": "S811", "n_segments": 1, "length_total_m": 24.079702168498802, "duration_days": 1, "primary_corridor_id": "segment_811", "hard_disaster": true, "hard_metapath": false, "hard": true, "cost_k": 24.079702168498802, "impact_weight_k": 0.0 }, "geometry": { "type": "LineString", "coordinates": [ [ 9.1630268, 48.7367246 ], [ 9.1631342, 48.7367621 ], [ 9.1631968, 48.7367704 ], [ 9.1632913, 48.736767 ], [ 9.1633378, 48.7367583 ] ] } },
{ "type": "Feature", "properties": { "lot_id": "L68", "segment_ids": "S825", "n_segments": 1, "length_total_m": 38.096473159402102, "duration_days": 1, "primary_corridor_id": "B 295", "hard_disaster": true, "hard_metapath": false, "hard": true, "cost_k": 38.096473159402102, "impact_weight_k": 0.0 }, "geometry": { "type": "LineString", "coordinates": [ [ 9.1067277, 48.808106 ], [ 9.1065714, 48.8081656 ], [ 9.1064952, 48.8082025 ], [ 9.1064448, 48.8082242 ], [ 9.1063597, 48.8082665 ], [ 9.1062976, 48.8082978 ] ] } },
{ "type": "Feature", "properties": { "lot_id": "L69", "segment_ids": "S840", "n_segments": 1, "length_total_m": 87.918375495451642, "duration_days": 1, "primary_corridor_id": "A 8", "hard_disaster": true, "hard_metapath": false, "hard": true, "cost_k": 87.918375495451642, "impact_weight_k": 0.0 }, "geometry": { "type": "LineString", "coordinates": [ [ 9.1637175, 48.7067443 ], [ 9.1634596, 48.7067082 ], [ 9.1631623, 48.7067249 ], [ 9.162908, 48.7067412 ], [ 9.1625294, 48.7067153 ] ] } },
{ "type": "Feature", "properties": { "lot_id": "L70", "segment_ids": "S867", "n_segments": 1, "length_total_m": 394.38437507762234, "duration_days": 1, "primary_corridor_id": "B 10", "hard_disaster": false, "hard_metapath": false, "hard": false, "cost_k": 394.38437507762234, "impact_weight_k": 0.0 }, "geometry": { "type": "LineString", "coordinates": [ [ 9.0945176, 48.8672965 ], [ 9.09433, 48.8674414 ], [ 9.0941606, 48.8675722 ], [ 9.0939536, 48.867732 ], [ 9.0937647, 48.8678779 ], [ 9.0934976, 48.8680649 ], [ 9.0931196, 48.8683296 ], [ 9.0926626, 48.8686375 ], [ 9.0922584, 48.8689099 ], [ 9.0919082, 48.8691459 ], [ 9.0913265, 48.8695433 ], [ 9.09083, 48.8698825 ] ] } },
{ "type": "Feature", "properties": { "lot_id": "L71", "segment_ids": "S868", "n_segments": 1, "length_total_m": 1911.6662166622471, "duration_days": 4, "primary_corridor_id": "B 27", "hard_disaster": false, "hard_metapath": false, "hard": false, "cost_k": 1911.6662166622471, "impact_weight_k": 0.0 }, "geometry": { "type": "LineString", "coordinates": [ [ 9.1316644, 48.9625474 ], [ 9.1315928, 48.9620154 ], [ 9.1315963, 48.9618941 ], [ 9.1316039, 48.9617812 ], [ 9.1316228, 48.9616611 ], [ 9.1316551, 48.9615363 ], [ 9.1316936, 48.961407 ], [ 9.1317305, 48.9613118 ], [ 9.1317729, 48.961218 ], [ 9.1318889, 48.9609886 ], [ 9.1320922, 48.9606348 ], [ 9.132163, 48.9604925 ], [ 9.1324151, 48.9599309 ], [ 9.1325425, 48.9596291 ], [ 9.1326221, 48.9594339 ], [ 9.1326787, 48.9592306 ], [ 9.1327122, 48.9590528 ], [ 9.1327132, 48.9589109 ], [ 9.1327012, 48.9587312 ], [ 9.1326894, 48.9586419 ], [ 9.1326769, 48.9585473 ], [ 9.1326389, 48.9583981 ], [ 9.1325656, 48.9582246 ], [ 9.1324787, 48.95808 ], [ 9.1323839, 48.9579492 ], [ 9.1322679, 48.9578213 ], [ 9.1322179, 48.9577709 ], [ 9.1320728, 48.9575978 ], [ 9.1320056, 48.9575042 ], [ 9.1319778, 48.9574544 ], [ 9.1319578, 48.9574154 ], [ 9.1319342, 48.9573587 ], [ 9.1319022, 48.9572344 ], [ 9.1318982, 48.9571722 ], [ 9.1318999, 48.9571137 ], [ 9.1319056, 48.9570571 ], [ 9.1319308, 48.9569652 ], [ 9.1319655, 48.9568821 ], [ 9.1320096, 48.9568007 ], [ 9.1320569, 48.9567357 ], [ 9.1321245, 48.9566621 ], [ 9.1322378, 48.9565646 ], [ 9.132362, 48.9564853 ], [ 9.1325129, 48.9564085 ], [ 9.1326161, 48.9563681 ], [ 9.1327151, 48.9563376 ], [ 9.1328267, 48.9563095 ], [ 9.1329858, 48.9562768 ], [ 9.1330968, 48.9562647 ], [ 9.1333393, 48.9562644 ], [ 9.1334756, 48.9562662 ], [ 9.1335459, 48.9562675 ], [ 9.1339075, 48.9562789 ], [ 9.1340885, 48.9562811 ], [ 9.1341811, 48.9562771 ], [ 9.1342488, 48.9562733 ], [ 9.1343312, 48.9562658 ], [ 9.1344355, 48.9562516 ], [ 9.1345277, 48.9562328 ], [ 9.1346095, 48.9562106 ], [ 9.1347357, 48.9561653 ], [ 9.1348941, 48.9560968 ], [ 9.1350093, 48.9560296 ], [ 9.1350952, 48.9559645 ], [ 9.135119, 48.9559434 ], [ 9.1351546, 48.9559072 ], [ 9.1351813, 48.955867 ], [ 9.1352049, 48.9558237 ], [ 9.1352204, 48.9557796 ], [ 9.1352247, 48.9557361 ], [ 9.1352212, 48.955687 ], [ 9.135213, 48.9556544 ], [ 9.1351894, 48.9556079 ], [ 9.135152, 48.9555615 ], [ 9.1351006, 48.9555191 ], [ 9.1350251, 48.9554715 ], [ 9.1349682, 48.9554422 ], [ 9.1348933, 48.9554086 ], [ 9.1346298, 48.9553098 ], [ 9.1344928, 48.9552598 ], [ 9.1344204, 48.9552277 ], [ 9.1343714, 48.9551937 ], [ 9.1343178, 48.9551397 ], [ 9.1342916, 48.9550956 ], [ 9.1342762, 48.9550422 ], [ 9.1342714, 48.9550152 ], [ 9.1342742, 48.9549827 ], [ 9.1342799, 48.9549564 ], [ 9.1342966, 48.9549034 ], [ 9.1343255, 48.9548249 ], [ 9.1343622, 48.9547252 ], [ 9.134404, 48.9546259 ], [ 9.1345202, 48.9543568 ], [ 9.1345558, 48.9542828 ], [ 9.1345974, 48.9541978 ], [ 9.1346948, 48.9540113 ], [ 9.1348299, 48.9537528 ], [ 9.134844, 48.9537241 ], [ 9.1348905, 48.9536365 ], [ 9.1349473, 48.9535302 ], [ 9.1350079, 48.9534127 ], [ 9.1350879, 48.9532622 ], [ 9.1351861, 48.9530746 ], [ 9.1353952, 48.952664 ], [ 9.1355207, 48.9524162 ], [ 9.1356793, 48.9521029 ], [ 9.1357083, 48.9520456 ], [ 9.1357864, 48.9518911 ], [ 9.1359366, 48.9515942 ], [ 9.1360624, 48.9513495 ], [ 9.1360741, 48.9513226 ], [ 9.1361278, 48.9512242 ], [ 9.1362745, 48.9509351 ], [ 9.1363527, 48.950781 ], [ 9.1364195, 48.9506493 ], [ 9.1364635, 48.9505626 ], [ 9.1365145, 48.9504634 ], [ 9.1366184, 48.9502594 ], [ 9.1367237, 48.9500609 ], [ 9.1367915, 48.9499357 ], [ 9.1368272, 48.9498755 ], [ 9.1368702, 48.9498141 ], [ 9.1369113, 48.9497585 ], [ 9.1369639, 48.9496904 ], [ 9.1370178, 48.949634 ], [ 9.1370748, 48.9495823 ], [ 9.13712, 48.9495507 ], [ 9.1372099, 48.9495099 ], [ 9.1372903, 48.9494834 ], [ 9.1374107, 48.9494526 ], [ 9.1375395, 48.9494294 ], [ 9.1379236, 48.9493698 ], [ 9.1380956, 48.9493446 ], [ 9.1382231, 48.949325 ], [ 9.1384637, 48.9492811 ], [ 9.1385356, 48.9492653 ], [ 9.1386062, 48.9492433 ], [ 9.1386826, 48.9492111 ], [ 9.1387503, 48.9491781 ], [ 9.1388181, 48.9491305 ], [ 9.1393616, 48.9486241 ] ] } },
{ "type": "Feature", "properties": { "lot_id": "L72", "segment_ids": "S871; S991", "n_segments": 2, "length_total_m": 445.66383694132622, "duration_days": 5, "primary_corridor_id": "B 295", "hard_disaster": true, "hard_metapath": false, "hard": true, "cost_k": 445.66383694132622, "impact_weight_k": 0.0 }, "geometry": { "type": "MultiLineString", "coordinates": [ [ [ 9.1643329, 48.8147332 ], [ 9.1643409, 48.8146962 ], [ 9.1643718, 48.8146309 ], [ 9.1644025, 48.8145894 ], [ 9.1644215, 48.8145617 ], [ 9.1644341, 48.8145433 ], [ 9.164734, 48.8141182 ], [ 9.1651538, 48.8134954 ], [ 9.1652073, 48.813418 ], [ 9.1652558, 48.8133432 ], [ 9.165321, 48.8132456 ], [ 9.16545, 48.8130573 ], [ 9.1655475, 48.8129098 ], [ 9.1657795, 48.8125592 ], [ 9.1658293, 48.8124834 ], [ 9.1663325, 48.8117507 ], [ 9.1665499, 48.8114341 ], [ 9.1665759, 48.8113961 ], [ 9.1666299, 48.8113172 ] ], [ [ 9.1647362, 48.8147813 ], [ 9.1646164, 48.8147701 ], [ 9.1645376, 48.8147611 ], [ 9.1643329, 48.8147332 ] ] ] } },
{ "type": "Feature", "properties": { "lot_id": "L73", "segment_ids": "S876", "n_segments": 1, "length_total_m": 74.257318165572187, "duration_days": 1, "primary_corridor_id": "segment_876", "hard_disaster": false, "hard_metapath": false, "hard": false, "cost_k": 74.257318165572187, "impact_weight_k": 0.0 }, "geometry": { "type": "LineString", "coordinates": [ [ 9.1163007, 48.853084 ], [ 9.11617, 48.8531341 ], [ 9.1159852, 48.8531391 ], [ 9.1157611, 48.8531376 ], [ 9.1156905, 48.8531447 ], [ 9.1156166, 48.8531672 ], [ 9.1155445, 48.8532107 ], [ 9.1154963, 48.8532508 ], [ 9.1154542, 48.8533291 ] ] } },
{ "type": "Feature", "properties": { "lot_id": "L74", "segment_ids": "S879", "n_segments": 1, "length_total_m": 28.003258714827105, "duration_days": 1, "primary_corridor_id": "segment_879", "hard_disaster": false, "hard_metapath": false, "hard": false, "cost_k": 28.003258714827105, "impact_weight_k": 0.0 }, "geometry": { "type": "LineString", "coordinates": [ [ 9.0819219, 48.8801498 ], [ 9.0819317, 48.8802135 ], [ 9.0819087, 48.8802806 ], [ 9.0818641, 48.8803375 ], [ 9.0818123, 48.8803807 ] ] } },
{ "type": "Feature", "properties": { "lot_id": "L75", "segment_ids": "S908", "n_segments": 1, "length_total_m": 334.45503422188114, "duration_days": 1, "primary_corridor_id": "B 27", "hard_disaster": false, "hard_metapath": false, "hard": false, "cost_k": 334.45503422188114, "impact_weight_k": 0.0 }, "geometry": { "type": "LineString", "coordinates": [ [ 9.1771842, 48.7826209 ], [ 9.1771508, 48.782506 ], [ 9.1771256, 48.7823942 ], [ 9.1770991, 48.782225 ], [ 9.1770756, 48.7819671 ], [ 9.1770665, 48.7818201 ], [ 9.1770339, 48.781485 ], [ 9.1770228, 48.7813722 ], [ 9.1769938, 48.7811484 ], [ 9.1769505, 48.780937 ], [ 9.1769108, 48.780789 ], [ 9.1768753, 48.7806649 ], [ 9.1767994, 48.7804584 ], [ 9.1767212, 48.7802839 ], [ 9.17666, 48.7801448 ], [ 9.1764944, 48.7798628 ], [ 9.1763834, 48.7796796 ] ] } },
{ "type": "Feature", "properties": { "lot_id": "L76", "segment_ids": "S917", "n_segments": 1, "length_total_m": 100.39342163651582, "duration_days": 1, "primary_corridor_id": "B 27", "hard_disaster": false, "hard_metapath": false, "hard": false, "cost_k": 100.39342163651582, "impact_weight_k": 0.0 }, "geometry": { "type": "LineString", "coordinates": [ [ 9.1979352, 48.866445 ], [ 9.197931, 48.8659549 ], [ 9.1979241, 48.8656655 ], [ 9.1979167, 48.8656033 ], [ 9.1978919, 48.8655446 ] ] } },
{ "type": "Feature", "properties": { "lot_id": "L77", "segment_ids": "S920", "n_segments": 1, "length_total_m": 909.56603358574193, "duration_days": 2, "primary_corridor_id": "B 14", "hard_disaster": false, "hard_metapath": false, "hard": false, "cost_k": 909.56603358574193, "impact_weight_k": 0.0 }, "geometry": { "type": "LineString", "coordinates": [ [ 9.1583364, 48.7553051 ], [ 9.1575748, 48.7551713 ], [ 9.1570608, 48.755115 ], [ 9.1561159, 48.7550148 ], [ 9.1549072, 48.7549143 ], [ 9.1537308, 48.7548427 ], [ 9.1525847, 48.7548117 ], [ 9.1516624, 48.7547808 ], [ 9.1485585, 48.7546863 ], [ 9.1476807, 48.7546841 ], [ 9.1466966, 48.7546469 ], [ 9.1460066, 48.7545689 ] ] } },
{ "type": "Feature", "properties": { "lot_id": "L78", "segment_ids": "S926", "n_segments": 1, "length_total_m": 729.90714870030365, "duration_days": 2, "primary_corridor_id": "A 8", "hard_disaster": false, "hard_metapath": false, "hard": false, "cost_k": 729.90714870030365, "impact_weight_k": 0.0 }, "geometry": { "type": "LineString", "coordinates": [ [ 9.1518871, 48.707875 ], [ 9.1537634, 48.7076134 ], [ 9.15869, 48.7069203 ], [ 9.1616187, 48.7065159 ] ] } },
{ "type": "Feature", "properties": { "lot_id": "L79", "segment_ids": "S934", "n_segments": 1, "length_total_m": 70.472797386253347, "duration_days": 1, "primary_corridor_id": "segment_934", "hard_disaster": false, "hard_metapath": false, "hard": false, "cost_k": 70.472797386253347, "impact_weight_k": 0.0 }, "geometry": { "type": "LineString", "coordinates": [ [ 9.096019, 48.866077 ], [ 9.0959755, 48.8661659 ], [ 9.0959131, 48.8662282 ], [ 9.0958669, 48.8662976 ], [ 9.0958377, 48.8663873 ], [ 9.0958344, 48.8664677 ], [ 9.0958482, 48.8665282 ], [ 9.0958779, 48.8665853 ], [ 9.0959131, 48.8666788 ] ] } },
{ "type": "Feature", "properties": { "lot_id": "L80", "segment_ids": "S962; S979", "n_segments": 2, "length_total_m": 38.316890029013194, "duration_days": 1, "primary_corridor_id": "Gebhard-Müller-Platz", "hard_disaster": false, "hard_metapath": false, "hard": false, "cost_k": 38.316890029013194, "impact_weight_k": 0.0 }, "geometry": { "type": "MultiLineString", "coordinates": [ [ [ 9.1862908, 48.7815789 ], [ 9.1862929, 48.7814683 ] ], [ [ 9.1862929, 48.7814683 ], [ 9.1864385, 48.7814544 ], [ 9.1864918, 48.7814519 ], [ 9.1865382, 48.7814528 ], [ 9.1866456, 48.781461 ] ] ] } },
{ "type": "Feature", "properties": { "lot_id": "L81", "segment_ids": "S971", "n_segments": 1, "length_total_m": 5.9617008083827479, "duration_days": 1, "primary_corridor_id": "Gebhard-Müller-Platz", "hard_disaster": true, "hard_metapath": false, "hard": true, "cost_k": 5.9617008083827479, "impact_weight_k": 0.0 }, "geometry": { "type": "LineString", "coordinates": [ [ 9.1862732, 48.7811904 ], [ 9.1862309, 48.7811446 ] ] } },
{ "type": "Feature", "properties": { "lot_id": "L82", "segment_ids": "S986", "n_segments": 1, "length_total_m": 39.536266639125031, "duration_days": 1, "primary_corridor_id": "L 1100", "hard_disaster": false, "hard_metapath": false, "hard": false, "cost_k": 39.536266639125031, "impact_weight_k": 0.0 }, "geometry": { "type": "LineString", "coordinates": [ [ 9.2401173, 48.7912082 ], [ 9.2400844, 48.7912173 ], [ 9.2400568, 48.7912216 ], [ 9.2400252, 48.7912212 ], [ 9.2399982, 48.7912145 ], [ 9.2399737, 48.7911994 ], [ 9.239704, 48.7910215 ] ] } },
{ "type": "Feature", "properties": { "lot_id": "L83", "segment_ids": "S997", "n_segments": 1, "length_total_m": 5.6631441591568148, "duration_days": 1, "primary_corridor_id": "segment_997", "hard_disaster": true, "hard_metapath": false, "hard": true, "cost_k": 5.6631441591568148, "impact_weight_k": 0.0 }, "geometry": { "type": "LineString", "coordinates": [ [ 9.1789703, 48.7842464 ], [ 9.1789301, 48.7842029 ] ] } },
{ "type": "Feature", "properties": { "lot_id": "L84", "segment_ids": "S999", "n_segments": 1, "length_total_m": 1212.5151147436416, "duration_days": 3, "primary_corridor_id": "B 10", "hard_disaster": false, "hard_metapath": false, "hard": false, "cost_k": 1212.5151147436416, "impact_weight_k": 0.0 }, "geometry": { "type": "LineString", "coordinates": [ [ 9.2783507, 48.7404041 ], [ 9.2787649, 48.7404343 ], [ 9.2792177, 48.7404703 ], [ 9.2796805, 48.7405048 ], [ 9.2801583, 48.7405358 ], [ 9.2805523, 48.7405575 ], [ 9.2809342, 48.7405697 ], [ 9.2811336, 48.740573 ], [ 9.2815052, 48.7405777 ], [ 9.2818001, 48.7405773 ], [ 9.2821624, 48.7405721 ], [ 9.2824706, 48.7405629 ], [ 9.282817, 48.7405477 ], [ 9.2831018, 48.740533 ], [ 9.2834173, 48.740512 ], [ 9.2838381, 48.7404771 ], [ 9.2842062, 48.7404429 ], [ 9.2845822, 48.7404002 ], [ 9.2849794, 48.7403539 ], [ 9.2853001, 48.7403119 ], [ 9.2856656, 48.740264 ], [ 9.2861588, 48.7401935 ], [ 9.2866338, 48.7401185 ], [ 9.28716, 48.7400318 ], [ 9.2877251, 48.73993 ], [ 9.2882779, 48.7398268 ], [ 9.2888911, 48.7397012 ], [ 9.2904816, 48.7393602 ], [ 9.2920548, 48.7390225 ], [ 9.2927458, 48.7388829 ], [ 9.2934373, 48.7387455 ], [ 9.2944581, 48.7385532 ] ] } },
{ "type": "Feature", "properties": { "lot_id": "L85", "segment_ids": "S1006", "n_segments": 1, "length_total_m": 48.040492923751479, "duration_days": 1, "primary_corridor_id": "Poststraße", "hard_disaster": false, "hard_metapath": false, "hard": false, "cost_k": 48.040492923751479, "impact_weight_k": 0.0 }, "geometry": { "type": "LineString", "coordinates": [ [ 9.2156679, 48.7944665 ], [ 9.2156804, 48.7944382 ], [ 9.2156844, 48.7944205 ], [ 9.2156878, 48.7943797 ], [ 9.2156923, 48.7943617 ], [ 9.2157004, 48.7943369 ], [ 9.2157184, 48.7942988 ], [ 9.2157248, 48.7942754 ], [ 9.2157276, 48.794251 ], [ 9.2157262, 48.7942143 ], [ 9.2157136, 48.7941724 ], [ 9.215693, 48.7941354 ], [ 9.2156571, 48.794094 ], [ 9.215609, 48.7940613 ] ] } },
{ "type": "Feature", "properties": { "lot_id": "L86", "segment_ids": "S1014", "n_segments": 1, "length_total_m": 62.870970249059255, "duration_days": 1, "primary_corridor_id": "A 81", "hard_disaster": false, "hard_metapath": false, "hard": false, "cost_k": 62.870970249059255, "impact_weight_k": 0.0 }, "geometry": { "type": "LineString", "coordinates": [ [ 9.1476999, 48.8847912 ], [ 9.1477642, 48.8849501 ], [ 9.1478141, 48.8850756 ], [ 9.1478326, 48.8851238 ], [ 9.1478475, 48.8851611 ], [ 9.1478596, 48.8851953 ], [ 9.147932, 48.8853353 ] ] } },
{ "type": "Feature", "properties": { "lot_id": "L87", "segment_ids": "S1028", "n_segments": 1, "length_total_m": 20.653234626297483, "duration_days": 1, "primary_corridor_id": "B 27", "hard_disaster": false, "hard_metapath": false, "hard": false, "cost_k": 20.653234626297483, "impact_weight_k": 0.0 }, "geometry": { "type": "LineString", "coordinates": [ [ 9.1397221, 48.9484202 ], [ 9.1397925, 48.9484799 ], [ 9.139661, 48.9485484 ] ] } }
]
}
