{
"type": "FeatureCollection",
"name": "disaster_repair_lots",
"crs": { "type": "name", "properties": { "name": "urn:ogc:def:crs:OGC:1.3:CRS84" } },
"features": [
{ "type": "Feature", "properties": { "lot_id": "L0", "segment_ids": "S2", "n_segments": 1, "length_total_m": 296.64716023794449, "duration_days": 1, "primary_corridor_id": "NH148A", "hard_disaster": false, "hard_metapath": false, "hard": false, "cost_k": 296.64716023794449, "impact_weight_k": 0.0 }, "geometry": { "type": "LineString", "coordinates": [ [ 77.0948598, 28.4836831 ], [ 77.094928, 28.48426 ], [ 77.0949777, 28.4843728 ], [ 77.0950255, 28.4845526 ], [ 77.095068, 28.4846973 ], [ 77.0951619, 28.4848015 ], [ 77.0952908, 28.4848211 ], [ 77.0953364, 28.4848281 ], [ 77.0955189, 28.4848203 ], [ 77.0957685, 28.4847212 ], [ 77.0960034, 28.4846428 ], [ 77.0966766, 28.4842291 ] ] } },
{ "type": "Feature", "properties": { "lot_id": "L1", "segment_ids": "S16", "n_segments": 1, "length_total_m": 1222.8613170186886, "duration_days": 3, "primary_corridor_id": "NH48", "hard_disaster": false, "hard_metapath": true, "hard": true, "cost_k": 1222.8613170186886, "impact_weight_k": 1.3983796705363667 }, "geometry": { "type": "LineString", "coordinates": [ [ 77.0842347, 28.4932964 ], [ 77.0834698, 28.4925302 ], [ 77.0761371, 28.4849126 ] ] } },
{ "type": "Feature", "properties": { "lot_id": "L2", "segment_ids": "S51", "n_segments": 1, "length_total_m": 442.39226668300677, "duration_days": 5, "primary_corridor_id": "NH48", "hard_disaster": true, "hard_metapath": false, "hard": true, "cost_k": 442.39226668300677, "impact_weight_k": 0.0 }, "geometry": { "type": "LineString", "coordinates": [ [ 77.0543743, 28.4647531 ], [ 77.0529332, 28.4633055 ], [ 77.0514472, 28.4617194 ] ] } },
{ "type": "Feature", "properties": { "lot_id": "L3", "segment_ids": "S68", "n_segments": 1, "length_total_m": 14.683963046957116, "duration_days": 1, "primary_corridor_id": "segment_68", "hard_disaster": true, "hard_metapath": false, "hard": true, "cost_k": 14.683963046957116, "impact_weight_k": 0.0 }, "geometry": { "type": "LineString", "coordinates": [ [ 76.9139649, 28.3299421 ], [ 76.9138856, 28.3300542 ] ] } },
{ "type": "Feature", "properties": { "lot_id": "L4", "segment_ids": "S71", "n_segments": 1, "length_total_m": 1741.4242150671889, "duration_days": 4, "primary_corridor_id": "MDR137", "hard_disaster": false, "hard_metapath": false, "hard": false, "cost_k": 1741.4242150671889, "impact_weight_k": 0.0 }, "geometry": { "type": "LineString", "coordinates": [ [ 77.0943887, 28.4786502 ], [ 77.0956696, 28.4779698 ], [ 77.0962213, 28.4776621 ], [ 77.0964936, 28.4774979 ], [ 77.0966523, 28.4773905 ], [ 77.0973825, 28.4768704 ], [ 77.1011633, 28.4741191 ], [ 77.1014997, 28.4738743 ], [ 77.1017101, 28.4737087 ], [ 77.1019442, 28.4734737 ], [ 77.1022295, 28.4731691 ], [ 77.1025191, 28.4728488 ], [ 77.1032875, 28.4720031 ], [ 77.1033275, 28.4719562 ], [ 77.1039283, 28.471226 ], [ 77.1041241, 28.471002 ], [ 77.1043146, 28.4708039 ], [ 77.1050715, 28.470158 ], [ 77.1074901, 28.4683492 ], [ 77.1075882, 28.4682758 ] ] } },
{ "type": "Feature", "properties": { "lot_id": "L5", "segment_ids": "S84", "n_segments": 1, "length_total_m": 15.131896978302025, "duration_days": 1, "primary_corridor_id": "segment_84", "hard_disaster": true, "hard_metapath": false, "hard": true, "cost_k": 15.131896978302025, "impact_weight_k": 0.0 }, "geometry": { "type": "LineString", "coordinates": [ [ 77.0236621, 28.4573008 ], [ 77.023718, 28.4571739 ] ] } },
{ "type": "Feature", "properties": { "lot_id": "L6", "segment_ids": "S87", "n_segments": 1, "length_total_m": 25.553093600137537, "duration_days": 1, "primary_corridor_id": "SH15A", "hard_disaster": false, "hard_metapath": false, "hard": false, "cost_k": 25.553093600137537, "impact_weight_k": 0.0 }, "geometry": { "type": "LineString", "coordinates": [ [ 76.841848, 28.4533893 ], [ 76.84178, 28.4534743 ], [ 76.8416907, 28.4535727 ] ] } },
{ "type": "Feature", "properties": { "lot_id": "L7", "segment_ids": "S97", "n_segments": 1, "length_total_m": 268.26096114552939, "duration_days": 1, "primary_corridor_id": "segment_97", "hard_disaster": false, "hard_metapath": false, "hard": false, "cost_k": 268.26096114552939, "impact_weight_k": 0.0 }, "geometry": { "type": "LineString", "coordinates": [ [ 76.8935975, 28.3162786 ], [ 76.8932324, 28.3171458 ], [ 76.8928634, 28.3181659 ], [ 76.8927231, 28.3185643 ] ] } },
{ "type": "Feature", "properties": { "lot_id": "L8", "segment_ids": "S100", "n_segments": 1, "length_total_m": 648.22505561938601, "duration_days": 2, "primary_corridor_id": "segment_100", "hard_disaster": false, "hard_metapath": false, "hard": false, "cost_k": 648.22505561938601, "impact_weight_k": 0.0 }, "geometry": { "type": "LineString", "coordinates": [ [ 76.89378, 28.3171068 ], [ 76.8947187, 28.3146528 ], [ 76.8949574, 28.3139137 ], [ 76.8951774, 28.3130164 ], [ 76.8954831, 28.3119255 ], [ 76.8955475, 28.3117862 ], [ 76.8957138, 28.3115477 ] ] } },
{ "type": "Feature", "properties": { "lot_id": "L9", "segment_ids": "S118", "n_segments": 1, "length_total_m": 686.16829994458544, "duration_days": 2, "primary_corridor_id": "Delhi Western Peripheral Expressway", "hard_disaster": false, "hard_metapath": false, "hard": false, "cost_k": 686.16829994458544, "impact_weight_k": 25.036837507224618 }, "geometry": { "type": "LineString", "coordinates": [ [ 76.8676431, 28.3888307 ], [ 76.8678769, 28.3876899 ], [ 76.8684004, 28.3860754 ], [ 76.8684928, 28.3858434 ], [ 76.8696536, 28.3829303 ] ] } },
{ "type": "Feature", "properties": { "lot_id": "L10", "segment_ids": "S135", "n_segments": 1, "length_total_m": 28.825853623456162, "duration_days": 1, "primary_corridor_id": "segment_135", "hard_disaster": true, "hard_metapath": false, "hard": true, "cost_k": 28.825853623456162, "impact_weight_k": 0.0 }, "geometry": { "type": "LineString", "coordinates": [ [ 77.0075854, 28.4324391 ], [ 77.00747, 28.4323873 ], [ 77.007448, 28.4323774 ], [ 77.0073195, 28.4323274 ] ] } },
{ "type": "Feature", "properties": { "lot_id": "L11", "segment_ids": "S144", "n_segments": 1, "length_total_m": 640.40288564784066, "duration_days": 2, "primary_corridor_id": "Flyover", "hard_disaster": false, "hard_metapath": false, "hard": false, "cost_k": 640.40288564784066, "impact_weight_k": 0.0 }, "geometry": { "type": "LineString", "coordinates": [ [ 77.0720808, 28.4808993 ], [ 77.0721304, 28.4810427 ], [ 77.0722187, 28.4812206 ], [ 77.0724804, 28.4815901 ], [ 77.0725807, 28.4817317 ], [ 77.0729484, 28.4821551 ], [ 77.073108, 28.4823304 ], [ 77.0732985, 28.4826429 ], [ 77.0742078, 28.4836337 ], [ 77.0743353, 28.483756 ], [ 77.0744628, 28.4838129 ], [ 77.0746641, 28.4838175 ], [ 77.074858, 28.4837338 ], [ 77.0748654, 28.4837306 ], [ 77.0749724, 28.4836163 ], [ 77.0750188, 28.4834867 ], [ 77.0750285, 28.4833644 ], [ 77.0749775, 28.4832422 ], [ 77.0741118, 28.4822806 ] ] } },
{ "type": "Feature", "properties": { "lot_id": "L12", "segment_ids": "S149", "n_segments": 1, "length_total_m": 80.897359586921951, "duration_days": 1, "primary_corridor_id": "segment_149", "hard_disaster": true, "hard_metapath": false, "hard": true, "cost_k": 80.897359586921951, "impact_weight_k": 0.0 }, "geometry": { "type": "LineString", "coordinates": [ [ 77.1083819, 28.4675994 ], [ 77.1082614, 28.4676254 ], [ 77.1081143, 28.4676068 ], [ 77.1079916, 28.4675756 ], [ 77.1078722, 28.467517 ], [ 77.1076447, 28.4673583 ] ] } },
{ "type": "Feature", "properties": { "lot_id": "L13", "segment_ids": "S163; S414", "n_segments": 2, "length_total_m": 127.41614391404345, "duration_days": 2, "primary_corridor_id": "SH15A", "hard_disaster": true, "hard_metapath": false, "hard": true, "cost_k": 127.41614391404345, "impact_weight_k": 0.078812180570712126 }, "geometry": { "type": "MultiLineString", "coordinates": [ [ [ 76.8551265, 28.458652 ], [ 76.8560664, 28.4590191 ], [ 76.8561547, 28.459051 ] ], [ [ 76.8561547, 28.459051 ], [ 76.8563207, 28.4591109 ] ] ] } },
{ "type": "Feature", "properties": { "lot_id": "L14", "segment_ids": "S168", "n_segments": 1, "length_total_m": 1169.0909757928607, "duration_days": 3, "primary_corridor_id": "NH352W", "hard_disaster": false, "hard_metapath": false, "hard": false, "cost_k": 1169.0909757928607, "impact_weight_k": 0.0 }, "geometry": { "type": "LineString", "coordinates": [ [ 76.8771356, 28.4020836 ], [ 76.8769074, 28.4019473 ], [ 76.8755491, 28.4011133 ], [ 76.8746413, 28.4004886 ], [ 76.8745408, 28.4004195 ], [ 76.8742662, 28.4002305 ], [ 76.8735711, 28.3997345 ], [ 76.8732852, 28.3994876 ], [ 76.8727635, 28.3990711 ], [ 76.8722675, 28.3986368 ], [ 76.8721392, 28.3985243 ], [ 76.870782, 28.3974319 ], [ 76.8697974, 28.3967153 ], [ 76.8696379, 28.3965992 ], [ 76.8694066, 28.3964413 ], [ 76.8685206, 28.3958363 ], [ 76.8683364, 28.3957253 ], [ 76.8678698, 28.395473 ] ] } },
{ "type": "Feature", "properties": { "lot_id": "L15", "segment_ids": "S200", "n_segments": 1, "length_total_m": 360.30414183938717, "duration_days": 1, "primary_corridor_id": "SH15A", "hard_disaster": false, "hard_metapath": false, "hard": false, "cost_k": 360.30414183938717, "impact_weight_k": 0.039406090285356063 }, "geometry": { "type": "LineString", "coordinates": [ [ 76.9431627, 28.4723603 ], [ 76.9428161, 28.4723293 ], [ 76.9427007, 28.47233 ], [ 76.9411598, 28.4723388 ], [ 76.9396789, 28.4723695 ], [ 76.9394788, 28.4723694 ] ] } },
{ "type": "Feature", "properties": { "lot_id": "L16", "segment_ids": "S204", "n_segments": 1, "length_total_m": 22.25502052841259, "duration_days": 1, "primary_corridor_id": "segment_204", "hard_disaster": true, "hard_metapath": false, "hard": true, "cost_k": 22.25502052841259, "impact_weight_k": 0.0 }, "geometry": { "type": "LineString", "coordinates": [ [ 77.0778188, 28.4791147 ], [ 77.0777786, 28.4793117 ] ] } },
{ "type": "Feature", "properties": { "lot_id": "L17", "segment_ids": "S215", "n_segments": 1, "length_total_m": 10.830633300841598, "duration_days": 1, "primary_corridor_id": "segment_215", "hard_disaster": false, "hard_metapath": false, "hard": false, "cost_k": 10.830633300841598, "impact_weight_k": 0.0 }, "geometry": { "type": "LineString", "coordinates": [ [ 76.8368621, 28.2718782 ], [ 76.8369125, 28.2717915 ] ] } },
{ "type": "Feature", "properties": { "lot_id": "L18", "segment_ids": "S226", "n_segments": 1, "length_total_m": 244.5109630180342, "duration_days": 3, "primary_corridor_id": "Mehrauli-Gurgaon Road", "hard_disaster": true, "hard_metapath": false, "hard": true, "cost_k": 244.5109630180342, "impact_weight_k": 0.0 }, "geometry": { "type": "LineString", "coordinates": [ [ 77.0393176, 28.4657405 ], [ 77.0396505, 28.4659244 ], [ 77.0405812, 28.466443 ], [ 77.0406616, 28.4664807 ], [ 77.0408728, 28.4666026 ], [ 77.0412169, 28.4668026 ], [ 77.0413427, 28.4668755 ], [ 77.0413827, 28.4668987 ], [ 77.0414305, 28.4669153 ] ] } },
{ "type": "Feature", "properties": { "lot_id": "L19", "segment_ids": "S238", "n_segments": 1, "length_total_m": 235.74823155686278, "duration_days": 3, "primary_corridor_id": "Delhi-Gurugram Expressway Ramp", "hard_disaster": true, "hard_metapath": false, "hard": true, "cost_k": 235.74823155686278, "impact_weight_k": 0.0 }, "geometry": { "type": "LineString", "coordinates": [ [ 77.0639299, 28.4743166 ], [ 77.0642129, 28.4744622 ], [ 77.0647806, 28.4748638 ], [ 77.0651235, 28.475072 ], [ 77.0658883, 28.4755502 ] ] } },
{ "type": "Feature", "properties": { "lot_id": "L20", "segment_ids": "S255; S256; S257", "n_segments": 3, "length_total_m": 400.17641321589429, "duration_days": 1, "primary_corridor_id": "NH48", "hard_disaster": false, "hard_metapath": true, "hard": true, "cost_k": 400.17641321589429, "impact_weight_k": 1.3983796705363667 }, "geometry": { "type": "MultiLineString", "coordinates": [ [ [ 77.0742677, 28.4832263 ], [ 77.0747129, 28.4836919 ], [ 77.075618, 28.4846144 ] ], [ [ 77.0742677, 28.4832263 ], [ 77.07451, 28.4836474 ], [ 77.0748194, 28.4839696 ], [ 77.0751072, 28.4843153 ] ], [ [ 77.0751903, 28.4843659 ], [ 77.075618, 28.4846144 ] ] ] } },
{ "type": "Feature", "properties": { "lot_id": "L21", "segment_ids": "S260", "n_segments": 1, "length_total_m": 154.74663363906663, "duration_days": 1, "primary_corridor_id": "NH48", "hard_disaster": false, "hard_metapath": true, "hard": true, "cost_k": 154.74663363906663, "impact_weight_k": 1.3983796705363667 }, "geometry": { "type": "LineString", "coordinates": [ [ 77.073637, 28.4823215 ], [ 77.0728751, 28.481499 ], [ 77.0726365, 28.4812429 ] ] } },
{ "type": "Feature", "properties": { "lot_id": "L22", "segment_ids": "S269", "n_segments": 1, "length_total_m": 309.68419796482823, "duration_days": 4, "primary_corridor_id": "NH248BB", "hard_disaster": true, "hard_metapath": false, "hard": true, "cost_k": 309.68419796482823, "impact_weight_k": 0.0 }, "geometry": { "type": "LineString", "coordinates": [ [ 76.9895347, 28.4060197 ], [ 76.987563, 28.4068663 ], [ 76.9866699, 28.4072042 ] ] } },
{ "type": "Feature", "properties": { "lot_id": "L23", "segment_ids": "S304", "n_segments": 1, "length_total_m": 47.95508343798064, "duration_days": 1, "primary_corridor_id": "segment_304", "hard_disaster": false, "hard_metapath": false, "hard": false, "cost_k": 47.95508343798064, "impact_weight_k": 0.0 }, "geometry": { "type": "LineString", "coordinates": [ [ 76.8968967, 28.5080804 ], [ 76.8969879, 28.508005 ], [ 76.8970817, 28.507926 ], [ 76.8971354, 28.5078789 ], [ 76.8971689, 28.5078365 ], [ 76.8972165, 28.5077582 ] ] } },
{ "type": "Feature", "properties": { "lot_id": "L24", "segment_ids": "S305", "n_segments": 1, "length_total_m": 14.775533874325278, "duration_days": 1, "primary_corridor_id": "segment_305", "hard_disaster": false, "hard_metapath": false, "hard": false, "cost_k": 14.775533874325278, "impact_weight_k": 0.0 }, "geometry": { "type": "LineString", "coordinates": [ [ 76.9269893, 28.3370921 ], [ 76.9269779, 28.3372246 ] ] } },
{ "type": "Feature", "properties": { "lot_id": "L25", "segment_ids": "S319; S320; S825", "n_segments": 3, "length_total_m": 1669.5773815412144, "duration_days": 17, "primary_corridor_id": "NH352W", "hard_disaster": true, "hard_metapath": false, "hard": true, "cost_k": 1669.5773815412144, "impact_weight_k": 0.0 }, "geometry": { "type": "MultiLineString", "coordinates": [ [ [ 76.9360466, 28.4246171 ], [ 76.9356729, 28.4245242 ], [ 76.935518, 28.4244863 ], [ 76.9353676, 28.4244627 ], [ 76.9353026, 28.4244521 ] ], [ [ 76.919363, 28.4221124 ], [ 76.919361, 28.4221957 ] ], [ [ 76.9353026, 28.4244521 ], [ 76.9349558, 28.4243897 ], [ 76.9347693, 28.4243525 ], [ 76.9342333, 28.4242478 ], [ 76.9340739, 28.4242155 ], [ 76.9339422, 28.424193 ], [ 76.9317031, 28.4238662 ], [ 76.9312513, 28.4238062 ], [ 76.9308834, 28.4237657 ], [ 76.9305967, 28.4237307 ], [ 76.9302951, 28.4236939 ], [ 76.929667, 28.4236073 ], [ 76.9295643, 28.4235929 ], [ 76.9293402, 28.42356 ], [ 76.9289307, 28.4234737 ], [ 76.9284906, 28.4233632 ], [ 76.9280876, 28.4232616 ], [ 76.9259213, 28.4227103 ], [ 76.9251674, 28.4225564 ], [ 76.92492, 28.4225077 ], [ 76.9247644, 28.4224781 ], [ 76.9244386, 28.4224408 ], [ 76.9240574, 28.4224263 ], [ 76.923667, 28.422413 ], [ 76.9233792, 28.4223982 ], [ 76.9221178, 28.422343 ], [ 76.921269, 28.4222938 ], [ 76.9210565, 28.4222793 ], [ 76.9209293, 28.4222654 ], [ 76.919363, 28.4221124 ] ] ] } },
{ "type": "Feature", "properties": { "lot_id": "L26", "segment_ids": "S329", "n_segments": 1, "length_total_m": 243.12269535322031, "duration_days": 1, "primary_corridor_id": "SH15A", "hard_disaster": false, "hard_metapath": false, "hard": false, "cost_k": 243.12269535322031, "impact_weight_k": 0.0 }, "geometry": { "type": "LineString", "coordinates": [ [ 76.9991857, 28.4571337 ], [ 76.9990192, 28.4571464 ], [ 76.9989805, 28.4571481 ], [ 76.9987593, 28.4571579 ], [ 76.9984324, 28.4571659 ], [ 76.9977598, 28.4571772 ], [ 76.9977061, 28.4571792 ], [ 76.9967002, 28.4571963 ] ] } },
{ "type": "Feature", "properties": { "lot_id": "L27", "segment_ids": "S343", "n_segments": 1, "length_total_m": 156.75425853223362, "duration_days": 1, "primary_corridor_id": "SH15A", "hard_disaster": false, "hard_metapath": false, "hard": false, "cost_k": 156.75425853223362, "impact_weight_k": 0.0 }, "geometry": { "type": "LineString", "coordinates": [ [ 76.925079, 28.472207 ], [ 76.9251609, 28.4722391 ], [ 76.9253474, 28.4722352 ], [ 76.9262162, 28.4722491 ], [ 76.9266747, 28.4722532 ] ] } },
{ "type": "Feature", "properties": { "lot_id": "L28", "segment_ids": "S360", "n_segments": 1, "length_total_m": 23.073791931954503, "duration_days": 1, "primary_corridor_id": "segment_360", "hard_disaster": false, "hard_metapath": false, "hard": false, "cost_k": 23.073791931954503, "impact_weight_k": 0.0 }, "geometry": { "type": "LineString", "coordinates": [ [ 76.9622261, 28.4726793 ], [ 76.96225, 28.4727488 ], [ 76.962295, 28.4728034 ], [ 76.9623574, 28.4728427 ] ] } },
{ "type": "Feature", "properties": { "lot_id": "L29", "segment_ids": "S394", "n_segments": 1, "length_total_m": 777.56242048875924, "duration_days": 8, "primary_corridor_id": "NH48", "hard_disaster": true, "hard_metapath": false, "hard": true, "cost_k": 777.56242048875924, "impact_weight_k": 0.0 }, "geometry": { "type": "LineString", "coordinates": [ [ 76.900335, 28.3234745 ], [ 76.8995481, 28.3228368 ], [ 76.8982785, 28.3218078 ], [ 76.8973619, 28.3210651 ], [ 76.8968655, 28.3206628 ], [ 76.8967126, 28.3205389 ], [ 76.8959119, 28.3198846 ], [ 76.8958103, 28.3198018 ], [ 76.8954118, 28.3194765 ], [ 76.8944987, 28.3187308 ] ] } },
{ "type": "Feature", "properties": { "lot_id": "L30", "segment_ids": "S408", "n_segments": 1, "length_total_m": 15.151908644057521, "duration_days": 1, "primary_corridor_id": "segment_408", "hard_disaster": false, "hard_metapath": false, "hard": false, "cost_k": 15.151908644057521, "impact_weight_k": 0.0 }, "geometry": { "type": "LineString", "coordinates": [ [ 76.8262303, 28.2596578 ], [ 76.8263503, 28.2595718 ] ] } },
{ "type": "Feature", "properties": { "lot_id": "L31", "segment_ids": "S413", "n_segments": 1, "length_total_m": 307.12933903178981, "duration_days": 1, "primary_corridor_id": "NH248BB", "hard_disaster": false, "hard_metapath": false, "hard": false, "cost_k": 307.12933903178981, "impact_weight_k": 0.0 }, "geometry": { "type": "LineString", "coordinates": [ [ 76.9868007, 28.40741 ], [ 76.987638, 28.406995 ], [ 76.9895989, 28.406159 ] ] } },
{ "type": "Feature", "properties": { "lot_id": "L32", "segment_ids": "S417; S493", "n_segments": 2, "length_total_m": 720.81202311576794, "duration_days": 2, "primary_corridor_id": "NH352W", "hard_disaster": false, "hard_metapath": false, "hard": false, "cost_k": 720.81202311576794, "impact_weight_k": 0.0 }, "geometry": { "type": "MultiLineString", "coordinates": [ [ [ 76.967142, 28.4339449 ], [ 76.9690789, 28.4350026 ], [ 76.9694572, 28.4352078 ], [ 76.9695725, 28.4352703 ], [ 76.9699936, 28.4354991 ], [ 76.9702739, 28.4356559 ], [ 76.9708277, 28.4359531 ], [ 76.9720964, 28.4366241 ], [ 76.972306, 28.4367378 ] ], [ [ 76.972306, 28.4367378 ], [ 76.9725341, 28.4368615 ], [ 76.9731291, 28.4371843 ], [ 76.9734201, 28.4373423 ] ] ] } },
{ "type": "Feature", "properties": { "lot_id": "L33", "segment_ids": "S421; S422", "n_segments": 2, "length_total_m": 459.74103451665275, "duration_days": 5, "primary_corridor_id": "segment_421", "hard_disaster": true, "hard_metapath": false, "hard": true, "cost_k": 459.74103451665275, "impact_weight_k": 0.0 }, "geometry": { "type": "MultiLineString", "coordinates": [ [ [ 76.8581099, 28.4536746 ], [ 76.8582055, 28.4534617 ], [ 76.8582533, 28.4533605 ], [ 76.858287, 28.4532691 ], [ 76.8583123, 28.4531851 ], [ 76.8583909, 28.4528962 ], [ 76.8584162, 28.4528097 ], [ 76.8584359, 28.4527455 ], [ 76.8584639, 28.4526739 ], [ 76.8585538, 28.4524689 ], [ 76.858596, 28.4523948 ], [ 76.8586662, 28.4522837 ], [ 76.8587364, 28.4521799 ], [ 76.858787, 28.4521108 ], [ 76.8588488, 28.4520392 ], [ 76.8589808, 28.4518885 ], [ 76.8590538, 28.4518218 ], [ 76.8593263, 28.4515897 ], [ 76.8600679, 28.4509895 ], [ 76.8601466, 28.4509179 ] ], [ [ 76.8601466, 28.4509179 ], [ 76.8601971, 28.4508586 ], [ 76.8602786, 28.4507425 ], [ 76.8603432, 28.4506067 ], [ 76.8603713, 28.450498 ], [ 76.8603741, 28.4503844 ], [ 76.8603573, 28.450293 ], [ 76.860332, 28.4502115 ] ] ] } },
{ "type": "Feature", "properties": { "lot_id": "L34", "segment_ids": "S455", "n_segments": 1, "length_total_m": 9.0342287827898211, "duration_days": 1, "primary_corridor_id": "segment_455", "hard_disaster": false, "hard_metapath": false, "hard": false, "cost_k": 9.0342287827898211, "impact_weight_k": 0.0 }, "geometry": { "type": "LineString", "coordinates": [ [ 76.8704615, 28.2995732 ], [ 76.8705324, 28.2995212 ] ] } },
{ "type": "Feature", "properties": { "lot_id": "L35", "segment_ids": "S463", "n_segments": 1, "length_total_m": 1839.9004565830048, "duration_days": 4, "primary_corridor_id": "NH48", "hard_disaster": false, "hard_metapath": true, "hard": true, "cost_k": 1839.9004565830048, "impact_weight_k": 26.282025207984464 }, "geometry": { "type": "LineString", "coordinates": [ [ 76.8819829, 28.3085627 ], [ 76.8814123, 28.3081012 ], [ 76.8796152, 28.3066194 ], [ 76.8774292, 28.3048613 ], [ 76.8770134, 28.3045377 ], [ 76.8757716, 28.3035046 ], [ 76.8742975, 28.3023154 ], [ 76.87407, 28.3021318 ], [ 76.8740416, 28.3021089 ], [ 76.8699136, 28.2987365 ], [ 76.8683553, 28.2971825 ] ] } },
{ "type": "Feature", "properties": { "lot_id": "L36", "segment_ids": "S481", "n_segments": 1, "length_total_m": 11.862517780806423, "duration_days": 1, "primary_corridor_id": "segment_481", "hard_disaster": false, "hard_metapath": false, "hard": false, "cost_k": 11.862517780806423, "impact_weight_k": 0.0 }, "geometry": { "type": "LineString", "coordinates": [ [ 76.8888963, 28.314159 ], [ 76.8889818, 28.3140834 ] ] } },
{ "type": "Feature", "properties": { "lot_id": "L37", "segment_ids": "S484; S485", "n_segments": 2, "length_total_m": 5430.4900436341368, "duration_days": 12, "primary_corridor_id": "segment_484", "hard_disaster": true, "hard_metapath": false, "hard": true, "cost_k": 5430.4900436341368, "impact_weight_k": 0.0 }, "geometry": { "type": "MultiLineString", "coordinates": [ [ [ 77.0551613, 28.3779351 ], [ 77.0549772, 28.3781563 ] ], [ [ 77.0551613, 28.3779351 ], [ 77.0550997, 28.3781216 ], [ 77.0550818, 28.3781793 ], [ 77.0550256, 28.3783597 ], [ 77.0549746, 28.3785238 ], [ 77.0540445, 28.381353 ], [ 77.0539046, 28.3817638 ], [ 77.0530391, 28.3843844 ], [ 77.0528308, 28.3848738 ], [ 77.0525435, 28.3854119 ], [ 77.0524912, 28.3855098 ], [ 77.0524551, 28.3855774 ], [ 77.052131, 28.3861225 ], [ 77.0512361, 28.387517 ], [ 77.050614, 28.3885071 ], [ 77.0505001, 28.3886927 ], [ 77.0499263, 28.3896015 ], [ 77.0494038, 28.3903585 ], [ 77.0489266, 28.3909718 ], [ 77.0478299, 28.3923637 ], [ 77.0472786, 28.3931032 ], [ 77.0471344, 28.3933074 ], [ 77.0470695, 28.3933992 ], [ 77.0468519, 28.3937073 ], [ 77.0466617, 28.3940572 ], [ 77.0465235, 28.3944255 ], [ 77.0461557, 28.3959181 ], [ 77.0461181, 28.3960766 ], [ 77.0456572, 28.397966 ], [ 77.0454891, 28.3985859 ], [ 77.0454605, 28.3986913 ], [ 77.0450869, 28.4000689 ], [ 77.0450185, 28.4003996 ], [ 77.0449378, 28.4007427 ], [ 77.0448643, 28.4010319 ], [ 77.044834, 28.4011583 ], [ 77.0447459, 28.4015253 ], [ 77.0447158, 28.4016335 ], [ 77.0444625, 28.4025448 ], [ 77.0443969, 28.4027807 ], [ 77.0433578, 28.4065189 ], [ 77.0425625, 28.409271 ], [ 77.0425053, 28.4094404 ], [ 77.0424772, 28.4095367 ], [ 77.0418513, 28.4116816 ], [ 77.0413478, 28.413407 ], [ 77.0413302, 28.4134744 ], [ 77.0412616, 28.4136961 ], [ 77.0408076, 28.4152194 ], [ 77.0402731, 28.4170692 ], [ 77.0399341, 28.4182962 ], [ 77.0399005, 28.4184152 ], [ 77.0397785, 28.4188563 ], [ 77.0394604, 28.4199495 ], [ 77.0386605, 28.4226788 ], [ 77.0383942, 28.4235949 ], [ 77.0383322, 28.4238083 ] ] ] } },
{ "type": "Feature", "properties": { "lot_id": "L38", "segment_ids": "S489", "n_segments": 1, "length_total_m": 8.0058997603606681, "duration_days": 1, "primary_corridor_id": "segment_489", "hard_disaster": false, "hard_metapath": false, "hard": false, "cost_k": 8.0058997603606681, "impact_weight_k": 0.0 }, "geometry": { "type": "LineString", "coordinates": [ [ 76.7704552, 28.4960442 ], [ 76.7704989, 28.4961051 ] ] } },
{ "type": "Feature", "properties": { "lot_id": "L39", "segment_ids": "S501; S828; S842", "n_segments": 3, "length_total_m": 1723.0708336880425, "duration_days": 4, "primary_corridor_id": "NH352W", "hard_disaster": false, "hard_metapath": false, "hard": false, "cost_k": 1723.0708336880425, "impact_weight_k": 0.0 }, "geometry": { "type": "MultiLineString", "coordinates": [ [ [ 76.9468678, 28.427376 ], [ 76.9467854, 28.427364 ], [ 76.9465527, 28.4273302 ], [ 76.9465103, 28.427324 ] ], [ [ 76.9628335, 28.431005 ], [ 76.9627865, 28.4309681 ], [ 76.9624378, 28.4307063 ], [ 76.9616043, 28.4301436 ], [ 76.9609974, 28.4297826 ], [ 76.9608553, 28.4297097 ], [ 76.9607805, 28.4296753 ], [ 76.9603041, 28.4294561 ], [ 76.9598266, 28.4292474 ], [ 76.9594564, 28.429077 ], [ 76.9593143, 28.4290044 ], [ 76.9589294, 28.4287461 ], [ 76.9587323, 28.428561 ], [ 76.9585352, 28.4283723 ], [ 76.958441, 28.4282908 ], [ 76.9582629, 28.4281541 ], [ 76.9580188, 28.428022 ], [ 76.9578839, 28.4279524 ], [ 76.9577667, 28.4279194 ], [ 76.9577243, 28.4279103 ], [ 76.9574985, 28.4278616 ], [ 76.9571927, 28.4278392 ], [ 76.9569272, 28.4278357 ], [ 76.9565785, 28.4278593 ], [ 76.9562647, 28.4279052 ], [ 76.9558814, 28.4279842 ], [ 76.9557725, 28.4280067 ], [ 76.9551931, 28.4281093 ], [ 76.9550962, 28.4281316 ] ], [ [ 76.9550962, 28.4281316 ], [ 76.9547988, 28.4282001 ], [ 76.9544314, 28.4282732 ], [ 76.9542613, 28.4283054 ], [ 76.9539607, 28.4283286 ], [ 76.953612, 28.4283263 ], [ 76.9533049, 28.4282956 ], [ 76.9521824, 28.4281458 ], [ 76.9510286, 28.4279882 ], [ 76.9509915, 28.4279819 ], [ 76.9500347, 28.4278197 ], [ 76.9491162, 28.4277027 ], [ 76.9468678, 28.427376 ] ] ] } },
{ "type": "Feature", "properties": { "lot_id": "L40", "segment_ids": "S518", "n_segments": 1, "length_total_m": 211.65667616154511, "duration_days": 3, "primary_corridor_id": "NH48", "hard_disaster": true, "hard_metapath": false, "hard": true, "cost_k": 211.65667616154511, "impact_weight_k": 1.3983796705363667 }, "geometry": { "type": "LineString", "coordinates": [ [ 76.9482354, 28.3724898 ], [ 76.9494983, 28.3731218 ], [ 76.9497103, 28.3732277 ], [ 76.9501161, 28.3734305 ] ] } },
{ "type": "Feature", "properties": { "lot_id": "L41", "segment_ids": "S527", "n_segments": 1, "length_total_m": 1014.6278973516946, "duration_days": 3, "primary_corridor_id": "NH48", "hard_disaster": false, "hard_metapath": false, "hard": false, "cost_k": 1014.6278973516946, "impact_weight_k": 1.3983796705363667 }, "geometry": { "type": "LineString", "coordinates": [ [ 76.9571331, 28.3769795 ], [ 76.9582951, 28.3775557 ], [ 76.961132, 28.3790035 ], [ 76.9613235, 28.3791012 ], [ 76.9643668, 28.3806544 ], [ 76.9649889, 28.3809779 ], [ 76.9661097, 28.3815494 ] ] } },
{ "type": "Feature", "properties": { "lot_id": "L42", "segment_ids": "S532", "n_segments": 1, "length_total_m": 15.823596860108433, "duration_days": 1, "primary_corridor_id": "segment_532", "hard_disaster": false, "hard_metapath": false, "hard": false, "cost_k": 15.823596860108433, "impact_weight_k": 0.0 }, "geometry": { "type": "LineString", "coordinates": [ [ 76.9243779, 28.4721289 ], [ 76.9243956, 28.4721738 ], [ 76.9243993, 28.472223 ], [ 76.9243904, 28.4722678 ] ] } },
{ "type": "Feature", "properties": { "lot_id": "L43", "segment_ids": "S534", "n_segments": 1, "length_total_m": 11.801518454742103, "duration_days": 1, "primary_corridor_id": "segment_534", "hard_disaster": true, "hard_metapath": false, "hard": true, "cost_k": 11.801518454742103, "impact_weight_k": 0.0 }, "geometry": { "type": "LineString", "coordinates": [ [ 76.8336925, 28.2697317 ], [ 76.8337585, 28.2696429 ] ] } },
{ "type": "Feature", "properties": { "lot_id": "L44", "segment_ids": "S541; S543", "n_segments": 2, "length_total_m": 376.49729306677187, "duration_days": 1, "primary_corridor_id": "NH48", "hard_disaster": false, "hard_metapath": true, "hard": true, "cost_k": 376.49729306677187, "impact_weight_k": 24.883645537448096 }, "geometry": { "type": "MultiLineString", "coordinates": [ [ [ 76.8443486, 28.2758843 ], [ 76.8439552, 28.2756583 ], [ 76.8435742, 28.2754421 ], [ 76.8433973, 28.2753417 ], [ 76.8412348, 28.2740708 ] ], [ [ 76.8412348, 28.2740708 ], [ 76.8412981, 28.27399 ] ] ] } },
{ "type": "Feature", "properties": { "lot_id": "L45", "segment_ids": "S581; S590", "n_segments": 2, "length_total_m": 365.86623910759789, "duration_days": 1, "primary_corridor_id": "NH248BB", "hard_disaster": false, "hard_metapath": false, "hard": false, "cost_k": 365.86623910759789, "impact_weight_k": 0.0 }, "geometry": { "type": "MultiLineString", "coordinates": [ [ [ 76.9604651, 28.4438237 ], [ 76.9603102, 28.4426256 ], [ 76.9602434, 28.4419018 ], [ 76.9602306, 28.4414177 ], [ 76.9602265, 28.4412951 ] ], [ [ 76.9604624, 28.4420082 ], [ 76.9603653, 28.4418405 ], [ 76.9603462, 28.4417794 ], [ 76.9603108, 28.4415095 ], [ 76.9602822, 28.441399 ], [ 76.9602265, 28.4412951 ] ] ] } },
{ "type": "Feature", "properties": { "lot_id": "L46", "segment_ids": "S585", "n_segments": 1, "length_total_m": 163.48525823441935, "duration_days": 1, "primary_corridor_id": "segment_585", "hard_disaster": false, "hard_metapath": false, "hard": false, "cost_k": 163.48525823441935, "impact_weight_k": 0.0 }, "geometry": { "type": "LineString", "coordinates": [ [ 76.960244, 28.4361059 ], [ 76.9601277, 28.4364463 ], [ 76.9600823, 28.4367216 ], [ 76.9600601, 28.4368844 ], [ 76.9600211, 28.4371749 ], [ 76.9600072, 28.4372472 ], [ 76.9599047, 28.4375405 ] ] } },
{ "type": "Feature", "properties": { "lot_id": "L47", "segment_ids": "S589", "n_segments": 1, "length_total_m": 1492.6556714051928, "duration_days": 15, "primary_corridor_id": "NH248BB", "hard_disaster": true, "hard_metapath": false, "hard": true, "cost_k": 1492.6556714051928, "impact_weight_k": 0.0 }, "geometry": { "type": "LineString", "coordinates": [ [ 76.9606293, 28.446595 ], [ 76.960759, 28.4473203 ], [ 76.9610011, 28.4484468 ], [ 76.9612571, 28.4494539 ], [ 76.961494, 28.4502608 ], [ 76.9617144, 28.4509396 ], [ 76.9619509, 28.4516078 ], [ 76.9622929, 28.4525116 ], [ 76.9632859, 28.4547038 ], [ 76.9637966, 28.4558142 ], [ 76.9646072, 28.4575813 ], [ 76.9650997, 28.4585339 ], [ 76.9655125, 28.4592585 ] ] } },
{ "type": "Feature", "properties": { "lot_id": "L48", "segment_ids": "S594", "n_segments": 1, "length_total_m": 158.81163225867846, "duration_days": 2, "primary_corridor_id": "segment_594", "hard_disaster": true, "hard_metapath": false, "hard": true, "cost_k": 158.81163225867846, "impact_weight_k": 0.0 }, "geometry": { "type": "LineString", "coordinates": [ [ 76.9653449, 28.4594617 ], [ 76.9655451, 28.4595542 ], [ 76.9657602, 28.4598737 ], [ 76.9660413, 28.4603653 ], [ 76.9663069, 28.460566 ] ] } },
{ "type": "Feature", "properties": { "lot_id": "L49", "segment_ids": "S632; S634", "n_segments": 2, "length_total_m": 491.79401212732984, "duration_days": 5, "primary_corridor_id": "NH48", "hard_disaster": true, "hard_metapath": false, "hard": true, "cost_k": 491.79401212732984, "impact_weight_k": 0.0 }, "geometry": { "type": "MultiLineString", "coordinates": [ [ [ 76.9390161, 28.3580015 ], [ 76.9388131, 28.3575377 ], [ 76.9380984, 28.3557061 ], [ 76.9378548, 28.3550817 ], [ 76.937731, 28.3546556 ], [ 76.9376775, 28.3543708 ], [ 76.9376615, 28.3540894 ], [ 76.9376587, 28.3539846 ], [ 76.9376565, 28.353903 ] ], [ [ 76.9376565, 28.353903 ], [ 76.9378069, 28.3539018 ] ] ] } },
{ "type": "Feature", "properties": { "lot_id": "L50", "segment_ids": "S646", "n_segments": 1, "length_total_m": 12.28254725050722, "duration_days": 1, "primary_corridor_id": "segment_646", "hard_disaster": true, "hard_metapath": false, "hard": true, "cost_k": 12.28254725050722, "impact_weight_k": 0.0 }, "geometry": { "type": "LineString", "coordinates": [ [ 76.9380992, 28.3390736 ], [ 76.9379768, 28.339098 ] ] } },
{ "type": "Feature", "properties": { "lot_id": "L51", "segment_ids": "S649", "n_segments": 1, "length_total_m": 1084.9125141070144, "duration_days": 11, "primary_corridor_id": "NH48", "hard_disaster": true, "hard_metapath": false, "hard": true, "cost_k": 1084.9125141070144, "impact_weight_k": 0.0 }, "geometry": { "type": "LineString", "coordinates": [ [ 76.9376169, 28.3375668 ], [ 76.9374076, 28.3373009 ], [ 76.9372317, 28.3371182 ], [ 76.9370507, 28.3369569 ], [ 76.9367757, 28.3367547 ], [ 76.9364991, 28.3365685 ], [ 76.9362232, 28.3364265 ], [ 76.93589, 28.3362657 ], [ 76.9354735, 28.3361075 ], [ 76.9352576, 28.3360511 ], [ 76.9349921, 28.3359874 ], [ 76.9345744, 28.3359376 ], [ 76.9344192, 28.3359335 ], [ 76.9339269, 28.3359203 ], [ 76.9332562, 28.3359698 ], [ 76.9327298, 28.3360527 ], [ 76.9309075, 28.3363395 ], [ 76.929507, 28.3365402 ], [ 76.9292843, 28.3365788 ], [ 76.9285889, 28.3367001 ], [ 76.927264, 28.3369018 ] ] } },
{ "type": "Feature", "properties": { "lot_id": "L52", "segment_ids": "S667", "n_segments": 1, "length_total_m": 8.9882190320161168, "duration_days": 1, "primary_corridor_id": "segment_667", "hard_disaster": false, "hard_metapath": false, "hard": false, "cost_k": 8.9882190320161168, "impact_weight_k": 0.0 }, "geometry": { "type": "LineString", "coordinates": [ [ 76.9116724, 28.3289322 ], [ 76.9117083, 28.3288578 ] ] } },
{ "type": "Feature", "properties": { "lot_id": "L53", "segment_ids": "S682", "n_segments": 1, "length_total_m": 7.5334517388319151, "duration_days": 1, "primary_corridor_id": "SH15A", "hard_disaster": true, "hard_metapath": false, "hard": true, "cost_k": 7.5334517388319151, "impact_weight_k": 0.039406090285356063 }, "geometry": { "type": "LineString", "coordinates": [ [ 76.9897991, 28.4574443 ], [ 76.9897225, 28.4574517 ] ] } },
{ "type": "Feature", "properties": { "lot_id": "L54", "segment_ids": "S691", "n_segments": 1, "length_total_m": 952.89058420903109, "duration_days": 2, "primary_corridor_id": "SH26", "hard_disaster": false, "hard_metapath": false, "hard": false, "cost_k": 952.89058420903109, "impact_weight_k": 0.0 }, "geometry": { "type": "LineString", "coordinates": [ [ 77.0066477, 28.4517035 ], [ 77.0065619, 28.4516656 ], [ 77.0063659, 28.4515872 ], [ 77.0061064, 28.4514833 ], [ 77.0054132, 28.4512461 ], [ 77.0050705, 28.4511457 ], [ 77.0045866, 28.4510241 ], [ 77.0041745, 28.4509571 ], [ 77.0041236, 28.4509488 ], [ 77.0034788, 28.4508576 ], [ 77.0032368, 28.4507981 ], [ 77.0031278, 28.4507579 ], [ 77.0030347, 28.4507256 ], [ 77.0028535, 28.4506607 ], [ 77.0025012, 28.4505136 ], [ 77.0017794, 28.4502171 ], [ 77.0016459, 28.450162 ], [ 77.0011798, 28.4499525 ], [ 77.0010698, 28.449912 ], [ 77.0009737, 28.4498748 ], [ 77.0004133, 28.4496333 ], [ 76.9997122, 28.4493414 ], [ 76.9996058, 28.4492971 ], [ 76.9992773, 28.4491603 ], [ 76.9991634, 28.4491117 ], [ 76.9976692, 28.4484697 ] ] } },
{ "type": "Feature", "properties": { "lot_id": "L55", "segment_ids": "S716", "n_segments": 1, "length_total_m": 363.38422108930689, "duration_days": 1, "primary_corridor_id": "NH48", "hard_disaster": false, "hard_metapath": false, "hard": false, "cost_k": 363.38422108930689, "impact_weight_k": 1.3983796705363667 }, "geometry": { "type": "LineString", "coordinates": [ [ 77.0517929, 28.4623706 ], [ 77.0541828, 28.4648737 ] ] } },
{ "type": "Feature", "properties": { "lot_id": "L56", "segment_ids": "S719; S722", "n_segments": 2, "length_total_m": 141.07403787462621, "duration_days": 2, "primary_corridor_id": "segment_719", "hard_disaster": true, "hard_metapath": false, "hard": true, "cost_k": 141.07403787462621, "impact_weight_k": 0.0 }, "geometry": { "type": "MultiLineString", "coordinates": [ [ [ 76.9713184, 28.4676318 ], [ 76.9713424, 28.4676858 ], [ 76.9713758, 28.4677358 ], [ 76.9714178, 28.4677806 ], [ 76.9714672, 28.4678191 ], [ 76.9715229, 28.4678502 ], [ 76.9715834, 28.4678733 ] ], [ [ 76.9719709, 28.4672311 ], [ 76.9719158, 28.4672002 ], [ 76.971856, 28.4671773 ], [ 76.9717242, 28.4671571 ], [ 76.9715918, 28.4671745 ], [ 76.9714724, 28.4672277 ], [ 76.9713783, 28.4673113 ], [ 76.971319, 28.4674168 ], [ 76.9713005, 28.4675333 ], [ 76.9713056, 28.4675831 ], [ 76.9713184, 28.4676318 ] ] ] } },
{ "type": "Feature", "properties": { "lot_id": "L57", "segment_ids": "S740; S820", "n_segments": 2, "length_total_m": 5793.2219463604088, "duration_days": 52, "primary_corridor_id": "SH15A", "hard_disaster": true, "hard_metapath": false, "hard": true, "cost_k": 5793.2219463604088, "impact_weight_k": 25.076243597509976 }, "geometry": { "type": "MultiLineString", "coordinates": [ [ [ 76.7752625, 28.493463 ], [ 76.7754932, 28.4933317 ], [ 76.7767511, 28.4926339 ], [ 76.7813095, 28.4900868 ], [ 76.7827754, 28.4892782 ], [ 76.783944, 28.4886233 ], [ 76.7845014, 28.4883117 ], [ 76.7853034, 28.4878661 ], [ 76.7858089, 28.4875762 ], [ 76.7869878, 28.4869137 ], [ 76.7883262, 28.4861711 ], [ 76.7913008, 28.4845079 ], [ 76.7928497, 28.4836462 ], [ 76.7937322, 28.4831464 ], [ 76.7949855, 28.4824545 ], [ 76.795363, 28.4822411 ], [ 76.7966343, 28.4815338 ], [ 76.798064, 28.4807535 ], [ 76.7983805, 28.4805672 ], [ 76.7996867, 28.4798588 ], [ 76.8006738, 28.4792953 ], [ 76.8026398, 28.4781872 ], [ 76.8030368, 28.477955 ], [ 76.8043819, 28.4772182 ], [ 76.8047319, 28.4770225 ], [ 76.8058799, 28.4763659 ], [ 76.8065692, 28.4759957 ], [ 76.8068334, 28.4758472 ], [ 76.8069729, 28.4757588 ], [ 76.8077494, 28.4752919 ], [ 76.8086573, 28.4747084 ], [ 76.8105027, 28.4735696 ], [ 76.8131212, 28.4721225 ], [ 76.8132292, 28.4720536 ], [ 76.8145032, 28.4713427 ], [ 76.8156619, 28.4706849 ], [ 76.8168367, 28.4700323 ], [ 76.8180065, 28.469369 ] ], [ [ 76.8180065, 28.469369 ], [ 76.8187733, 28.4689342 ], [ 76.8190067, 28.4688186 ], [ 76.8191059, 28.4687561 ], [ 76.8194023, 28.4685993 ], [ 76.8196852, 28.4684708 ], [ 76.822342, 28.4673025 ], [ 76.8235919, 28.4667484 ], [ 76.8241484, 28.4664985 ], [ 76.8254984, 28.4658745 ] ] ] } },
{ "type": "Feature", "properties": { "lot_id": "L58", "segment_ids": "S743", "n_segments": 1, "length_total_m": 16.954945092044454, "duration_days": 1, "primary_corridor_id": "segment_743", "hard_disaster": true, "hard_metapath": false, "hard": true, "cost_k": 16.954945092044454, "impact_weight_k": 0.0 }, "geometry": { "type": "LineString", "coordinates": [ [ 76.8216592, 28.2542175 ], [ 76.8217095, 28.2540716 ] ] } },
{ "type": "Feature", "properties": { "lot_id": "L59", "segment_ids": "S759", "n_segments": 1, "length_total_m": 8.4851084188377932, "duration_days": 1, "primary_corridor_id": "segment_759", "hard_disaster": false, "hard_metapath": false, "hard": false, "cost_k": 8.4851084188377932, "impact_weight_k": 0.0 }, "geometry": { "type": "LineString", "coordinates": [ [ 76.9154454, 28.4706518 ], [ 76.9154336, 28.4707274 ] ] } },
{ "type": "Feature", "properties": { "lot_id": "L60", "segment_ids": "S765", "n_segments": 1, "length_total_m": 206.05756649857591, "duration_days": 3, "primary_corridor_id": "SH15A", "hard_disaster": true, "hard_metapath": false, "hard": true, "cost_k": 206.05756649857591, "impact_weight_k": 0.039406090285356063 }, "geometry": { "type": "LineString", "coordinates": [ [ 76.9159925, 28.4707782 ], [ 76.9163119, 28.4708073 ], [ 76.916413, 28.4708222 ], [ 76.9168152, 28.4708882 ], [ 76.9171724, 28.4709693 ], [ 76.9173506, 28.4710144 ], [ 76.9177672, 28.4711021 ], [ 76.9179231, 28.4711305 ], [ 76.9179893, 28.4711371 ], [ 76.9180556, 28.4711437 ] ] } },
{ "type": "Feature", "properties": { "lot_id": "L61", "segment_ids": "S767; S768", "n_segments": 2, "length_total_m": 438.69764038916742, "duration_days": 5, "primary_corridor_id": "SH15A", "hard_disaster": true, "hard_metapath": false, "hard": true, "cost_k": 438.69764038916742, "impact_weight_k": 0.0 }, "geometry": { "type": "MultiLineString", "coordinates": [ [ [ 76.9560525, 28.4723672 ], [ 76.9559268, 28.472348 ], [ 76.9557355, 28.4723036 ], [ 76.9554564, 28.4722486 ], [ 76.9553705, 28.4722332 ], [ 76.9550328, 28.4721848 ], [ 76.9549394, 28.4721746 ], [ 76.9546987, 28.4721547 ], [ 76.9544808, 28.472153 ], [ 76.9534201, 28.472145 ], [ 76.9532658, 28.4721464 ], [ 76.9526456, 28.4721521 ], [ 76.9516462, 28.4721682 ] ], [ [ 76.9560369, 28.4724165 ], [ 76.9560525, 28.4723672 ] ] ] } },
{ "type": "Feature", "properties": { "lot_id": "L62", "segment_ids": "S774", "n_segments": 1, "length_total_m": 114.71628777898819, "duration_days": 2, "primary_corridor_id": "segment_774", "hard_disaster": true, "hard_metapath": false, "hard": true, "cost_k": 114.71628777898819, "impact_weight_k": 0.0 }, "geometry": { "type": "LineString", "coordinates": [ [ 76.9803321, 28.39422 ], [ 76.9803988, 28.3942183 ], [ 76.9805488, 28.3943611 ], [ 76.9808528, 28.3946742 ], [ 76.9809213, 28.3947345 ], [ 76.9809727, 28.3947591 ], [ 76.9810147, 28.3947578 ], [ 76.9810428, 28.3947331 ], [ 76.9810614, 28.394677 ], [ 76.9810816, 28.3945789 ] ] } },
{ "type": "Feature", "properties": { "lot_id": "L63", "segment_ids": "S794; S796", "n_segments": 2, "length_total_m": 61.159795176488792, "duration_days": 1, "primary_corridor_id": "segment_794", "hard_disaster": true, "hard_metapath": false, "hard": true, "cost_k": 61.159795176488792, "impact_weight_k": 0.0 }, "geometry": { "type": "LineString", "coordinates": [ [ 77.0954015, 28.5172692 ], [ 77.0954437, 28.5169967 ] ] } },
{ "type": "Feature", "properties": { "lot_id": "L64", "segment_ids": "S810; S811", "n_segments": 2, "length_total_m": 15.701651125303956, "duration_days": 1, "primary_corridor_id": "segment_810", "hard_disaster": true, "hard_metapath": false, "hard": true, "cost_k": 15.701651125303956, "impact_weight_k": 0.0 }, "geometry": { "type": "LineString", "coordinates": [ [ 76.7476543, 28.5078552 ], [ 76.7477084, 28.5079074 ] ] } },
{ "type": "Feature", "properties": { "lot_id": "L65", "segment_ids": "S831", "n_segments": 1, "length_total_m": 43.441079214689147, "duration_days": 1, "primary_corridor_id": "NH352W", "hard_disaster": false, "hard_metapath": false, "hard": false, "cost_k": 43.441079214689147, "impact_weight_k": 0.0 }, "geometry": { "type": "LineString", "coordinates": [ [ 76.9084983, 28.4199077 ], [ 76.9089425, 28.4199102 ] ] } },
{ "type": "Feature", "properties": { "lot_id": "L66", "segment_ids": "S840", "n_segments": 1, "length_total_m": 816.98974027017653, "duration_days": 9, "primary_corridor_id": "NH48", "hard_disaster": true, "hard_metapath": true, "hard": true, "cost_k": 816.98974027017653, "impact_weight_k": 26.282025207984464 }, "geometry": { "type": "LineString", "coordinates": [ [ 76.8597538, 28.2879002 ], [ 76.8595888, 28.2878735 ], [ 76.8587664, 28.2869866 ], [ 76.8576372, 28.2857513 ], [ 76.8564141, 28.2843767 ], [ 76.8544431, 28.2822792 ] ] } },
{ "type": "Feature", "properties": { "lot_id": "L67", "segment_ids": "S865", "n_segments": 1, "length_total_m": 7147.5332894050307, "duration_days": 15, "primary_corridor_id": "NH352W", "hard_disaster": false, "hard_metapath": false, "hard": false, "cost_k": 7147.5332894050307, "impact_weight_k": 0.0 }, "geometry": { "type": "LineString", "coordinates": [ [ 76.7572763, 28.3151741 ], [ 76.7583275, 28.3153727 ], [ 76.759552, 28.3153665 ], [ 76.7607624, 28.3151608 ], [ 76.7640327, 28.3142448 ], [ 76.7662765, 28.3136279 ], [ 76.7667083, 28.313497 ], [ 76.7683929, 28.3129736 ], [ 76.7703652, 28.3124381 ], [ 76.7714225, 28.312151 ], [ 76.7744521, 28.3113088 ], [ 76.7751218, 28.3111249 ], [ 76.7752254, 28.3110965 ], [ 76.7755862, 28.3110248 ], [ 76.7760449, 28.3109338 ], [ 76.7766673, 28.3108388 ], [ 76.7772743, 28.3107683 ], [ 76.778092, 28.3107125 ], [ 76.7787439, 28.310714 ], [ 76.7796251, 28.3107737 ], [ 76.7803152, 28.3108632 ], [ 76.780799, 28.3109338 ], [ 76.7812611, 28.3110341 ], [ 76.7818157, 28.3111508 ], [ 76.7823487, 28.3113162 ], [ 76.7834733, 28.3117014 ], [ 76.7851343, 28.3123714 ], [ 76.7853158, 28.3124446 ], [ 76.7871151, 28.3131444 ], [ 76.7886187, 28.3137981 ], [ 76.7894475, 28.3142674 ], [ 76.7901438, 28.3147339 ], [ 76.7905339, 28.3149819 ], [ 76.7907814, 28.3151579 ], [ 76.7910072, 28.3153368 ], [ 76.7912212, 28.3155124 ], [ 76.7915491, 28.3158138 ], [ 76.7925079, 28.3167334 ], [ 76.7934816, 28.3178556 ], [ 76.7938556, 28.3183976 ], [ 76.7940313, 28.3186516 ], [ 76.7948361, 28.3200583 ], [ 76.795303, 28.3211749 ], [ 76.795523, 28.321834 ], [ 76.7957105, 28.322561 ], [ 76.7958399, 28.3232522 ], [ 76.7958961, 28.323605 ], [ 76.7959646, 28.3242237 ], [ 76.7960678, 28.3252742 ], [ 76.7962917, 28.3277619 ], [ 76.7963892, 28.3287704 ], [ 76.7964916, 28.3299161 ], [ 76.796575, 28.3309267 ], [ 76.7965759, 28.3316408 ], [ 76.7965747, 28.3316645 ], [ 76.7965157, 28.3327902 ], [ 76.7964542, 28.3333483 ], [ 76.7963363, 28.3340185 ], [ 76.796188, 28.334612 ], [ 76.7959579, 28.3353918 ], [ 76.7958429, 28.3357705 ], [ 76.7953944, 28.3367181 ], [ 76.7952532, 28.3369238 ], [ 76.7951187, 28.3372559 ], [ 76.7947003, 28.3383277 ], [ 76.7943696, 28.3391419 ], [ 76.7942228, 28.3395033 ], [ 76.7939761, 28.3401171 ], [ 76.7938205, 28.3406034 ], [ 76.7936455, 28.34131 ], [ 76.7936381, 28.34134 ], [ 76.7936059, 28.3419065 ], [ 76.7936328, 28.3422937 ], [ 76.793724, 28.3426289 ], [ 76.7938044, 28.3429547 ], [ 76.7938723, 28.3431223 ], [ 76.793972, 28.3433684 ], [ 76.7939975, 28.3434315 ], [ 76.794196, 28.3438848 ], [ 76.7942683, 28.344 ], [ 76.7943677, 28.3441586 ], [ 76.7947056, 28.3446119 ], [ 76.7954888, 28.3456128 ], [ 76.7958433, 28.3458349 ] ] } },
{ "type": "Feature", "properties": { "lot_id": "L68", "segment_ids": "S867", "n_segments": 1, "length_total_m": 569.35629758913467, "duration_days": 2, "primary_corridor_id": "segment_867", "hard_disaster": false, "hard_metapath": false, "hard": false, "cost_k": 569.35629758913467, "impact_weight_k": 0.0 }, "geometry": { "type": "LineString", "coordinates": [ [ 76.9917592, 28.4084794 ], [ 76.9917503, 28.4079689 ], [ 76.9917537, 28.4078657 ], [ 76.9917648, 28.4078083 ], [ 76.991776, 28.4077503 ], [ 76.9918277, 28.4076154 ], [ 76.9919194, 28.4074681 ], [ 76.9921966, 28.4071053 ], [ 76.9924291, 28.4067918 ], [ 76.9924878, 28.4066759 ], [ 76.9925291, 28.4065623 ], [ 76.9925667, 28.4063916 ], [ 76.9926466, 28.4057498 ], [ 76.9926819, 28.4055818 ], [ 76.9927291, 28.4054324 ], [ 76.992782, 28.4053137 ], [ 76.992835, 28.4052049 ], [ 76.9929123, 28.4050991 ], [ 76.9930327, 28.404965 ], [ 76.9932585, 28.4048124 ], [ 76.9938911, 28.4044984 ], [ 76.9942972, 28.4042342 ] ] } },
{ "type": "Feature", "properties": { "lot_id": "L69", "segment_ids": "S871", "n_segments": 1, "length_total_m": 33.000890765047998, "duration_days": 1, "primary_corridor_id": "SH15A", "hard_disaster": true, "hard_metapath": false, "hard": true, "cost_k": 33.000890765047998, "impact_weight_k": 0.039406090285356063 }, "geometry": { "type": "LineString", "coordinates": [ [ 77.0232974, 28.4572954 ], [ 77.0235115, 28.4573607 ], [ 77.0236197, 28.4573823 ] ] } },
{ "type": "Feature", "properties": { "lot_id": "L70", "segment_ids": "S889", "n_segments": 1, "length_total_m": 18.170559395747382, "duration_days": 1, "primary_corridor_id": "segment_889", "hard_disaster": false, "hard_metapath": false, "hard": false, "cost_k": 18.170559395747382, "impact_weight_k": 0.0 }, "geometry": { "type": "LineString", "coordinates": [ [ 76.8646955, 28.3935974 ], [ 76.8646105, 28.3937427 ] ] } }
]
}
