{
"type": "FeatureCollection",
"name": "industrial_polygons",
"crs": { "type": "name", "properties": { "name": "urn:ogc:def:crs:OGC:1.3:CRS84" } },
"features": [
{ "type": "Feature", "properties": { "element": "relation", "id": 3594115, "name": null, "landuse": "industrial" }, "geometry": { "type": "Polygon", "coordinates": [ [ [ 77.0781524, 28.5157087 ], [ 77.0787666, 28.5162284 ], [ 77.0795515, 28.5169518 ], [ 77.0800435, 28.5175646 ], [ 77.0804111, 28.5180224 ], [ 77.0830554, 28.5169565 ], [ 77.0864443, 28.515956 ], [ 77.0925943, 28.5142311 ], [ 77.092899, 28.5121524 ], [ 77.0932423, 28.5109928 ], [ 77.095482, 28.5069595 ], [ 77.0951239, 28.5051167 ], [ 77.0930397, 28.502044 ], [ 77.0930223, 28.5020237 ], [ 77.0925399, 28.5016157 ], [ 77.0922032, 28.5013309 ], [ 77.0918625, 28.5010415 ], [ 77.0916743, 28.5009315 ], [ 77.0911395, 28.5012251 ], [ 77.083368, 28.506939 ], [ 77.07916, 28.5100327 ], [ 77.0811509, 28.5120581 ], [ 77.0801564, 28.512833 ], [ 77.0807969, 28.5135194 ], [ 77.0796382, 28.5143584 ], [ 77.0794483, 28.5150956 ], [ 77.0781524, 28.5157087 ] ] ] } },
{ "type": "Feature", "properties": { "element": "relation", "id": 3596105, "name": "Electronic Hardware and Technology Park", "landuse": "industrial" }, "geometry": { "type": "Polygon", "coordinates": [ [ [ 77.0065073, 28.4315906 ], [ 77.0101187, 28.4358808 ], [ 77.0141524, 28.4332276 ], [ 77.011467, 28.4299749 ], [ 77.0107736, 28.4299871 ], [ 77.010458, 28.4299927 ], [ 77.0093508, 28.4300569 ], [ 77.0077594, 28.4302723 ], [ 77.0069977, 28.4305658 ], [ 77.0074745, 28.4310521 ], [ 77.0070558, 28.4312477 ], [ 77.0065073, 28.4315906 ] ] ] } },
{ "type": "Feature", "properties": { "element": "relation", "id": 3596106, "name": "Infocity", "landuse": "industrial" }, "geometry": { "type": "Polygon", "coordinates": [ [ [ 77.011467, 28.4299749 ], [ 77.0141524, 28.4332276 ], [ 77.0165188, 28.4316848 ], [ 77.0166281, 28.4316096 ], [ 77.0171298, 28.4312509 ], [ 77.0185663, 28.4302836 ], [ 77.0186003, 28.4302654 ], [ 77.0185155, 28.4301718 ], [ 77.0158442, 28.4270536 ], [ 77.0152667, 28.4274074 ], [ 77.014748, 28.4278329 ], [ 77.0146084, 28.4282314 ], [ 77.0142439, 28.4288355 ], [ 77.0134825, 28.4293409 ], [ 77.0122009, 28.4298353 ], [ 77.011467, 28.4299749 ] ] ] } },
{ "type": "Feature", "properties": { "element": "relation", "id": 3611269, "name": "Pace City I", "landuse": "industrial" }, "geometry": { "type": "Polygon", "coordinates": [ [ [ 77.0074539, 28.4375406 ], [ 77.0077392, 28.4378991 ], [ 77.0083118, 28.4376695 ], [ 77.0097052, 28.4394691 ], [ 77.0117625, 28.4417939 ], [ 77.0102844, 28.4427438 ], [ 77.0109766, 28.4434705 ], [ 77.011965, 28.4435123 ], [ 77.0123223, 28.4429207 ], [ 77.0126141, 28.4426746 ], [ 77.0130725, 28.4421589 ], [ 77.0133405, 28.4424835 ], [ 77.0136561, 28.4423369 ], [ 77.0136501, 28.4420097 ], [ 77.0138943, 28.4420044 ], [ 77.0138913, 28.4418788 ], [ 77.0131768, 28.4409521 ], [ 77.0129624, 28.4410515 ], [ 77.0126111, 28.4405803 ], [ 77.0129564, 28.4403971 ], [ 77.0126349, 28.4399468 ], [ 77.0122717, 28.44013 ], [ 77.009322, 28.436365 ], [ 77.0074539, 28.4375406 ] ] ] } },
{ "type": "Feature", "properties": { "element": "relation", "id": 3611270, "name": "Pace CityII", "landuse": "industrial" }, "geometry": { "type": "Polygon", "coordinates": [ [ [ 76.9887061, 28.4303221 ], [ 76.9920539, 28.4346049 ], [ 76.9924683, 28.4351219 ], [ 76.9927571, 28.4354822 ], [ 76.9937, 28.4366584 ], [ 76.9947346, 28.437949 ], [ 76.9947336, 28.4380677 ], [ 76.9970987, 28.4410194 ], [ 76.9971713, 28.4411076 ], [ 76.9995911, 28.4440701 ], [ 77.0001506, 28.4434109 ], [ 77.0009331, 28.4425741 ], [ 77.0022039, 28.4411764 ], [ 77.0060488, 28.4383915 ], [ 77.0074539, 28.4375406 ], [ 77.009322, 28.436365 ], [ 77.0092948, 28.4361535 ], [ 77.0087589, 28.4361849 ], [ 77.0087321, 28.4358681 ], [ 77.0083897, 28.4357713 ], [ 77.0083808, 28.4356954 ], [ 77.0081456, 28.4356954 ], [ 77.0081277, 28.4354021 ], [ 77.0075115, 28.4353943 ], [ 77.0074089, 28.4351493 ], [ 77.0069101, 28.435122 ], [ 77.0064337, 28.4353576 ], [ 77.0058382, 28.4346822 ], [ 77.0056239, 28.4343366 ], [ 77.0054214, 28.4344204 ], [ 77.0053023, 28.4342057 ], [ 77.0039566, 28.4346926 ], [ 77.0037601, 28.4343732 ], [ 77.0035755, 28.434457 ], [ 77.0037661, 28.4347345 ], [ 77.003909, 28.4349859 ], [ 77.003391, 28.4352372 ], [ 77.0032482, 28.4350348 ], [ 77.0022116, 28.4356484 ], [ 77.0021048, 28.4355308 ], [ 77.002357, 28.4353427 ], [ 77.0022084, 28.4351651 ], [ 77.0024528, 28.4349587 ], [ 77.0022006, 28.4346782 ], [ 77.001787, 28.4350378 ], [ 77.0019813, 28.4352045 ], [ 77.0018521, 28.4353369 ], [ 77.0019159, 28.4354648 ], [ 77.0017256, 28.4356121 ], [ 77.0009646, 28.4348104 ], [ 77.0015956, 28.4343545 ], [ 77.0012858, 28.4338425 ], [ 77.0016116, 28.4336864 ], [ 77.0014181, 28.4333784 ], [ 77.0010934, 28.4335569 ], [ 77.000895, 28.4331046 ], [ 76.999765, 28.4336229 ], [ 76.9995188, 28.4333789 ], [ 76.9988962, 28.4326382 ], [ 76.9997963, 28.4322205 ], [ 76.9992816, 28.4313292 ], [ 76.9999874, 28.4309778 ], [ 77.0006512, 28.4316139 ], [ 77.0014614, 28.4312516 ], [ 77.0010446, 28.4303195 ], [ 77.0004967, 28.4294398 ], [ 77.0001514, 28.4290209 ], [ 77.0004015, 28.4288533 ], [ 76.9988652, 28.426832 ], [ 76.9998775, 28.4263084 ], [ 76.9994249, 28.4254286 ], [ 76.9991105, 28.4247066 ], [ 76.9978002, 28.4253474 ], [ 76.9897779, 28.4297524 ], [ 76.9887061, 28.4303221 ] ] ] } },
{ "type": "Feature", "properties": { "element": "relation", "id": 3632692, "name": "Sector 3", "landuse": "industrial" }, "geometry": { "type": "Polygon", "coordinates": [ [ [ 76.9047162, 28.3607455 ], [ 76.9047554, 28.3651502 ], [ 76.9194192, 28.3650106 ], [ 76.9339491, 28.3647873 ], [ 76.9338764, 28.3600481 ], [ 76.9353146, 28.3601819 ], [ 76.9353249, 28.360014 ], [ 76.9354891, 28.3574187 ], [ 76.9303782, 28.3572297 ], [ 76.9303181, 28.357486 ], [ 76.9298255, 28.3574857 ], [ 76.9298008, 28.3574857 ], [ 76.9295069, 28.3577175 ], [ 76.9284024, 28.3581039 ], [ 76.9284082, 28.3581796 ], [ 76.9272045, 28.3582603 ], [ 76.9271683, 28.3584244 ], [ 76.9257741, 28.3583816 ], [ 76.9257741, 28.3603504 ], [ 76.9222723, 28.3603575 ], [ 76.9222927, 28.3604233 ], [ 76.9223209, 28.3605144 ], [ 76.9047162, 28.3607455 ] ] ] } },
{ "type": "Feature", "properties": { "element": "relation", "id": 3632902, "name": "Sector 5", "landuse": "industrial" }, "geometry": { "type": "Polygon", "coordinates": [ [ [ 76.9194192, 28.3650106 ], [ 76.9195428, 28.3722399 ], [ 76.9340449, 28.3720517 ], [ 76.9340319, 28.3698896 ], [ 76.9340243, 28.3696969 ], [ 76.9339491, 28.3647873 ], [ 76.9194192, 28.3650106 ] ] ] } },
{ "type": "Feature", "properties": { "element": "relation", "id": 3633262, "name": "Sector 4", "landuse": "industrial" }, "geometry": { "type": "Polygon", "coordinates": [ [ [ 76.9047554, 28.3651502 ], [ 76.9047852, 28.3671915 ], [ 76.9048621, 28.3724665 ], [ 76.9195428, 28.3722399 ], [ 76.9194192, 28.3650106 ], [ 76.9047554, 28.3651502 ] ] ] } },
{ "type": "Feature", "properties": { "element": "relation", "id": 3633263, "name": "Sector 7", "landuse": "industrial" }, "geometry": { "type": "Polygon", "coordinates": [ [ [ 76.9048202, 28.3797902 ], [ 76.9096825, 28.3797241 ], [ 76.9196319, 28.379589 ], [ 76.9195428, 28.3722399 ], [ 76.9048621, 28.3724665 ], [ 76.9048202, 28.3797902 ] ] ] } },
{ "type": "Feature", "properties": { "element": "relation", "id": 3633269, "name": "Sector 8", "landuse": "industrial" }, "geometry": { "type": "Polygon", "coordinates": [ [ [ 76.8786654, 28.3693686 ], [ 76.8787979, 28.3801257 ], [ 76.8932719, 28.3799132 ], [ 76.8965668, 28.379882 ], [ 76.9048202, 28.3797902 ], [ 76.9048621, 28.3724665 ], [ 76.8964757, 28.3725763 ], [ 76.8963898, 28.3691266 ], [ 76.8786654, 28.3693686 ] ] ] } },
{ "type": "Feature", "properties": { "element": "relation", "id": 3633944, "name": "Sector 3A", "landuse": "industrial" }, "geometry": { "type": "Polygon", "coordinates": [ [ [ 76.8779732, 28.3590267 ], [ 76.8786654, 28.3693686 ], [ 76.8963898, 28.3691266 ], [ 76.8964757, 28.3725763 ], [ 76.9048621, 28.3724665 ], [ 76.9047852, 28.3671915 ], [ 76.9047554, 28.3651502 ], [ 76.9047162, 28.3607455 ], [ 76.902946, 28.3611396 ], [ 76.9024989, 28.3617246 ], [ 76.9002902, 28.3627831 ], [ 76.899818, 28.3624995 ], [ 76.898918, 28.3625248 ], [ 76.8967091, 28.3617936 ], [ 76.896166, 28.361939 ], [ 76.8958022, 28.3617009 ], [ 76.8960909, 28.36115 ], [ 76.8949518, 28.3605935 ], [ 76.893742, 28.3602493 ], [ 76.8928787, 28.3610643 ], [ 76.8925403, 28.3616064 ], [ 76.8912774, 28.3604805 ], [ 76.8908081, 28.3606011 ], [ 76.8907708, 28.3605255 ], [ 76.8893458, 28.360446 ], [ 76.8893547, 28.3590655 ], [ 76.88792, 28.3591965 ], [ 76.8864014, 28.3608571 ], [ 76.8858066, 28.3603631 ], [ 76.8838956, 28.3606756 ], [ 76.8838129, 28.3601516 ], [ 76.8836947, 28.360069 ], [ 76.8822969, 28.3603998 ], [ 76.8779732, 28.3590267 ] ] ] } },
{ "type": "Feature", "properties": { "element": "relation", "id": 3633979, "name": "Sector 10", "landuse": "industrial" }, "geometry": { "type": "Polygon", "coordinates": [ [ [ 76.8790219, 28.3871405 ], [ 76.8796311, 28.3957333 ], [ 76.8934798, 28.3956132 ], [ 76.8934304, 28.3892089 ], [ 76.8934127, 28.3868253 ], [ 76.8790219, 28.3871405 ] ] ] } },
{ "type": "Feature", "properties": { "element": "relation", "id": 3633980, "name": "Sector 12", "landuse": "industrial" }, "geometry": { "type": "Polygon", "coordinates": [ [ [ 76.8933025, 28.4015516 ], [ 76.9098897, 28.3867902 ], [ 76.8934127, 28.3868253 ], [ 76.8934304, 28.3892089 ], [ 76.8934798, 28.3956132 ], [ 76.8933025, 28.4015516 ] ] ] } },
{ "type": "Feature", "properties": { "element": "relation", "id": 3633981, "name": "Sector 12", "landuse": "industrial" }, "geometry": { "type": "Polygon", "coordinates": [ [ [ 76.8796311, 28.3957333 ], [ 76.8877189, 28.4035728 ], [ 76.8933025, 28.4015516 ], [ 76.8934798, 28.3956132 ], [ 76.8796311, 28.3957333 ] ] ] } },
{ "type": "Feature", "properties": { "element": "relation", "id": 3633982, "name": "Sector 14", "landuse": "industrial" }, "geometry": { "type": "Polygon", "coordinates": [ [ [ 76.8932719, 28.3799132 ], [ 76.8934127, 28.3868253 ], [ 76.9098897, 28.3867902 ], [ 76.9096825, 28.3797241 ], [ 76.9048202, 28.3797902 ], [ 76.8965668, 28.379882 ], [ 76.8932719, 28.3799132 ] ] ] } },
{ "type": "Feature", "properties": { "element": "relation", "id": 3633983, "name": "Sector 15", "landuse": "industrial" }, "geometry": { "type": "Polygon", "coordinates": [ [ [ 76.9096825, 28.3797241 ], [ 76.9098897, 28.3867902 ], [ 76.919406, 28.3818495 ], [ 76.9197016, 28.381696 ], [ 76.9212602, 28.3809188 ], [ 76.9234356, 28.3798095 ], [ 76.9240718, 28.3794851 ], [ 76.9196319, 28.379589 ], [ 76.9096825, 28.3797241 ] ] ] } },
{ "type": "Feature", "properties": { "element": "relation", "id": 3633984, "name": "Sector 9", "landuse": "industrial" }, "geometry": { "type": "Polygon", "coordinates": [ [ [ 76.8787979, 28.3801257 ], [ 76.8788102, 28.3813718 ], [ 76.8790219, 28.3871405 ], [ 76.8934127, 28.3868253 ], [ 76.8932719, 28.3799132 ], [ 76.8787979, 28.3801257 ] ] ] } },
{ "type": "Feature", "properties": { "element": "relation", "id": 3633992, "name": "Sector 11", "landuse": "industrial" }, "geometry": { "type": "Polygon", "coordinates": [ [ [ 76.8696144, 28.3854157 ], [ 76.8796311, 28.3957333 ], [ 76.8790219, 28.3871405 ], [ 76.8788102, 28.3813718 ], [ 76.8787979, 28.3801257 ], [ 76.8786654, 28.3693686 ], [ 76.8779732, 28.3590267 ], [ 76.8771301, 28.3611083 ], [ 76.8760385, 28.3636109 ], [ 76.8740926, 28.3701919 ], [ 76.8727612, 28.3761601 ], [ 76.8698757, 28.3834975 ], [ 76.8696144, 28.3854157 ] ] ] } },
{ "type": "Feature", "properties": { "element": "relation", "id": 3642999, "name": "Sector 6", "landuse": "industrial" }, "geometry": { "type": "Polygon", "coordinates": [ [ [ 76.9195428, 28.3722399 ], [ 76.9196319, 28.379589 ], [ 76.9240718, 28.3794851 ], [ 76.925138, 28.3792622 ], [ 76.9257447, 28.3788499 ], [ 76.9271925, 28.3780307 ], [ 76.9296616, 28.3762865 ], [ 76.9293577, 28.3755573 ], [ 76.9290008, 28.3747008 ], [ 76.9315599, 28.3729459 ], [ 76.934071, 28.3729935 ], [ 76.9340449, 28.3720517 ], [ 76.9195428, 28.3722399 ] ] ] } },
{ "type": "Feature", "properties": { "element": "way", "id": 27035476, "name": null, "landuse": "industrial" }, "geometry": { "type": "Polygon", "coordinates": [ [ [ 77.0505444, 28.4715879 ], [ 77.0522948, 28.4679378 ], [ 77.0526803, 28.4671117 ], [ 77.0555213, 28.4681593 ], [ 77.0533855, 28.4726355 ], [ 77.0505444, 28.4715879 ] ] ] } },
{ "type": "Feature", "properties": { "element": "way", "id": 43194600, "name": "AtoTech", "landuse": "industrial" }, "geometry": { "type": "Polygon", "coordinates": [ [ [ 76.8233237, 28.255148 ], [ 76.8233156, 28.2560741 ], [ 76.8238118, 28.2561001 ], [ 76.8238333, 28.2564592 ], [ 76.8243268, 28.2564876 ], [ 76.8244529, 28.2551645 ], [ 76.8233237, 28.255148 ] ] ] } },
{ "type": "Feature", "properties": { "element": "way", "id": 44350312, "name": null, "landuse": "industrial" }, "geometry": { "type": "Polygon", "coordinates": [ [ [ 77.0042914, 28.4552689 ], [ 77.0083155, 28.4551481 ], [ 77.0085314, 28.4553594 ], [ 77.0084027, 28.4557745 ], [ 77.0081018, 28.4563085 ], [ 77.0080087, 28.4568577 ], [ 77.0061855, 28.4568797 ], [ 77.0042914, 28.4552689 ] ] ] } },
{ "type": "Feature", "properties": { "element": "way", "id": 143527652, "name": null, "landuse": "industrial" }, "geometry": { "type": "Polygon", "coordinates": [ [ [ 77.0881531, 28.3447089 ], [ 77.0881132, 28.3463267 ], [ 77.086845, 28.3463407 ], [ 77.086841, 28.3461056 ], [ 77.0861312, 28.346095 ], [ 77.0861073, 28.3452562 ], [ 77.0862229, 28.3452457 ], [ 77.086211, 28.3447061 ], [ 77.0867233, 28.3447066 ], [ 77.0871497, 28.3447074 ], [ 77.0881531, 28.3447089 ] ] ] } },
{ "type": "Feature", "properties": { "element": "way", "id": 143671274, "name": null, "landuse": "industrial" }, "geometry": { "type": "Polygon", "coordinates": [ [ [ 77.0773423, 28.492886 ], [ 77.078464, 28.4929155 ], [ 77.0786572, 28.4929194 ], [ 77.0787281, 28.499084 ], [ 77.0778657, 28.4990652 ], [ 77.0774218, 28.4990557 ], [ 77.0772044, 28.4990508 ], [ 77.0770922, 28.4990484 ], [ 77.0773423, 28.492886 ] ] ] } },
{ "type": "Feature", "properties": { "element": "way", "id": 168567460, "name": null, "landuse": "industrial" }, "geometry": { "type": "Polygon", "coordinates": [ [ [ 76.8799737, 28.3646598 ], [ 76.8799892, 28.3665382 ], [ 76.8807739, 28.3665386 ], [ 76.8807425, 28.3646447 ], [ 76.8799737, 28.3646598 ] ] ] } },
{ "type": "Feature", "properties": { "element": "way", "id": 168567461, "name": null, "landuse": "industrial" }, "geometry": { "type": "Polygon", "coordinates": [ [ [ 76.8792294, 28.3665438 ], [ 76.8799655, 28.3665384 ], [ 76.8799892, 28.3665382 ], [ 76.8799737, 28.3646598 ], [ 76.879214, 28.3646654 ], [ 76.8792294, 28.3665438 ] ] ] } },
{ "type": "Feature", "properties": { "element": "way", "id": 189047262, "name": null, "landuse": "industrial" }, "geometry": { "type": "Polygon", "coordinates": [ [ [ 76.8792891, 28.3688384 ], [ 76.8838552, 28.3687732 ], [ 76.8838522, 28.3686727 ], [ 76.8838218, 28.3667422 ], [ 76.8838207, 28.3665005 ], [ 76.8837808, 28.3645911 ], [ 76.8837787, 28.3643236 ], [ 76.8837782, 28.3642641 ], [ 76.8837987, 28.3624215 ], [ 76.8829454, 28.3624409 ], [ 76.8822106, 28.3624478 ], [ 76.8806602, 28.362466 ], [ 76.8806889, 28.3643569 ], [ 76.8806863, 28.3646179 ], [ 76.8791797, 28.3646294 ], [ 76.8792401, 28.366812 ], [ 76.8792828, 28.3687388 ], [ 76.8792891, 28.3688384 ] ] ] } },
{ "type": "Feature", "properties": { "element": "way", "id": 190049556, "name": "Hero MotoCorp", "landuse": "industrial" }, "geometry": { "type": "Polygon", "coordinates": [ [ [ 77.0188256, 28.435415 ], [ 77.0159859, 28.432417 ], [ 77.0108661, 28.4357408 ], [ 77.0108138, 28.4358716 ], [ 77.0108427, 28.4359918 ], [ 77.0126425, 28.4380806 ], [ 77.0132696, 28.4377162 ], [ 77.0142908, 28.4387575 ], [ 77.0185736, 28.4360374 ], [ 77.0187357, 28.4358401 ], [ 77.018774, 28.4356585 ], [ 77.0188256, 28.435415 ] ] ] } },
{ "type": "Feature", "properties": { "element": "way", "id": 190049557, "name": null, "landuse": "industrial" }, "geometry": { "type": "Polygon", "coordinates": [ [ [ 77.0161646, 28.4322891 ], [ 77.017073, 28.4333572 ], [ 77.0181818, 28.4325916 ], [ 77.0172933, 28.4315707 ], [ 77.0161646, 28.4322891 ] ] ] } },
{ "type": "Feature", "properties": { "element": "way", "id": 203111503, "name": null, "landuse": "industrial" }, "geometry": { "type": "Polygon", "coordinates": [ [ [ 76.8555078, 28.2885498 ], [ 76.8559494, 28.2885394 ], [ 76.8565982, 28.2885242 ], [ 76.8580574, 28.28849 ], [ 76.8582165, 28.2870516 ], [ 76.8652935, 28.2949724 ], [ 76.8509269, 28.2951238 ], [ 76.8509269, 28.2987553 ], [ 76.8457944, 28.298723 ], [ 76.8457394, 28.2950593 ], [ 76.8488189, 28.2937358 ], [ 76.8487537, 28.2915406 ], [ 76.8487545, 28.2906477 ], [ 76.8487443, 28.2894795 ], [ 76.8494274, 28.2894727 ], [ 76.8494275, 28.2893506 ], [ 76.8500866, 28.2893511 ], [ 76.8500868, 28.2892208 ], [ 76.8507895, 28.2892212 ], [ 76.8507893, 28.2894969 ], [ 76.8521924, 28.2894978 ], [ 76.8527088, 28.2894959 ], [ 76.8527112, 28.2887115 ], [ 76.8541511, 28.2887149 ], [ 76.8541494, 28.2892881 ], [ 76.8548273, 28.2892861 ], [ 76.8548253, 28.2887419 ], [ 76.8551212, 28.2887411 ], [ 76.8555078, 28.2885498 ] ] ] } },
{ "type": "Feature", "properties": { "element": "way", "id": 203111511, "name": null, "landuse": "industrial" }, "geometry": { "type": "Polygon", "coordinates": [ [ [ 76.8692563, 28.3072395 ], [ 76.8676958, 28.3081148 ], [ 76.8678513, 28.3136835 ], [ 76.8728026, 28.3137748 ], [ 76.8728026, 28.3185672 ], [ 76.8755245, 28.3186813 ], [ 76.8793611, 28.3148474 ], [ 76.8789982, 28.314254 ], [ 76.8835088, 28.3122229 ], [ 76.884468, 28.3127478 ], [ 76.8853753, 28.3121088 ], [ 76.8775724, 28.3056728 ], [ 76.8776113, 28.3063346 ], [ 76.8720432, 28.3062646 ], [ 76.8719333, 28.306251 ], [ 76.8719977, 28.3055189 ], [ 76.8713969, 28.3055048 ], [ 76.8713969, 28.3053253 ], [ 76.8700209, 28.3052804 ], [ 76.8700317, 28.3050466 ], [ 76.8693423, 28.3050159 ], [ 76.8692563, 28.3072395 ] ] ] } },
{ "type": "Feature", "properties": { "element": "way", "id": 203111512, "name": null, "landuse": "industrial" }, "geometry": { "type": "Polygon", "coordinates": [ [ [ 76.8459184, 28.3950327 ], [ 76.8456447, 28.3954592 ], [ 76.8551863, 28.4001398 ], [ 76.8551736, 28.3992777 ], [ 76.8563347, 28.3995438 ], [ 76.8570793, 28.3987594 ], [ 76.857709, 28.3964984 ], [ 76.8577731, 28.3962682 ], [ 76.8588481, 28.3963022 ], [ 76.8589027, 28.3946677 ], [ 76.8584533, 28.394648 ], [ 76.8584389, 28.394372 ], [ 76.8601491, 28.3936852 ], [ 76.8613121, 28.3929464 ], [ 76.862205, 28.3925801 ], [ 76.8617498, 28.3923911 ], [ 76.8615784, 28.3926625 ], [ 76.8602069, 28.392654 ], [ 76.8602085, 28.3923739 ], [ 76.8595156, 28.3923735 ], [ 76.8595154, 28.3928136 ], [ 76.8588273, 28.3928029 ], [ 76.8588092, 28.3931645 ], [ 76.8581165, 28.3931674 ], [ 76.8581536, 28.3909976 ], [ 76.856859, 28.3904292 ], [ 76.856799, 28.3933846 ], [ 76.8578933, 28.3933698 ], [ 76.8578998, 28.3947153 ], [ 76.8574411, 28.3949807 ], [ 76.8569331, 28.3944983 ], [ 76.8565437, 28.394245 ], [ 76.8560228, 28.3941213 ], [ 76.8560591, 28.3955578 ], [ 76.853992, 28.3954832 ], [ 76.8539923, 28.3954024 ], [ 76.8533206, 28.3954051 ], [ 76.8533219, 28.3950477 ], [ 76.8505821, 28.395045 ], [ 76.850577, 28.3952976 ], [ 76.849904, 28.3952911 ], [ 76.8498937, 28.3955541 ], [ 76.8497761, 28.395554 ], [ 76.8497818, 28.3950218 ], [ 76.8485328, 28.3950147 ], [ 76.8485151, 28.3955546 ], [ 76.8478236, 28.3955493 ], [ 76.8478447, 28.3950308 ], [ 76.8459184, 28.3950327 ] ] ] } },
{ "type": "Feature", "properties": { "element": "way", "id": 240313011, "name": null, "landuse": "industrial" }, "geometry": { "type": "Polygon", "coordinates": [ [ [ 76.8118391, 28.3651576 ], [ 76.811815, 28.3684468 ], [ 76.8166623, 28.3685317 ], [ 76.8166382, 28.3710993 ], [ 76.8216785, 28.3711417 ], [ 76.8219197, 28.3744307 ], [ 76.8260194, 28.3727119 ], [ 76.8237766, 28.3710568 ], [ 76.8166623, 28.3678526 ], [ 76.8128037, 28.365773 ], [ 76.8118391, 28.3651576 ] ] ] } },
{ "type": "Feature", "properties": { "element": "way", "id": 240313013, "name": null, "landuse": "industrial" }, "geometry": { "type": "Polygon", "coordinates": [ [ [ 76.8288893, 28.3751521 ], [ 76.828624, 28.3804567 ], [ 76.8277558, 28.3803506 ], [ 76.8277558, 28.3845941 ], [ 76.8294681, 28.3846577 ], [ 76.8294922, 28.3863126 ], [ 76.8343395, 28.3863126 ], [ 76.8344601, 28.3811993 ], [ 76.8386563, 28.3812842 ], [ 76.8387046, 28.3833635 ], [ 76.843769, 28.3834059 ], [ 76.8435037, 28.379608 ], [ 76.8402962, 28.3794807 ], [ 76.8401033, 28.37825 ], [ 76.8374988, 28.3782076 ], [ 76.8373782, 28.3768072 ], [ 76.8359794, 28.3767435 ], [ 76.8359794, 28.3749824 ], [ 76.8338572, 28.3749824 ], [ 76.8317591, 28.3756402 ], [ 76.8316868, 28.3771255 ], [ 76.8298298, 28.3769557 ], [ 76.8297816, 28.3757887 ], [ 76.8288893, 28.3751521 ] ] ] } },
{ "type": "Feature", "properties": { "element": "way", "id": 270044352, "name": "Minda Industries", "landuse": "industrial" }, "geometry": { "type": "Polygon", "coordinates": [ [ [ 76.9387946, 28.3853467 ], [ 76.9395534, 28.3844553 ], [ 76.9404231, 28.3837046 ], [ 76.9413911, 28.3850616 ], [ 76.9418095, 28.3858014 ], [ 76.9389586, 28.38574 ], [ 76.9389669, 28.3853575 ], [ 76.9387946, 28.3853467 ] ] ] } },
{ "type": "Feature", "properties": { "element": "way", "id": 270044353, "name": "Mindarika", "landuse": "industrial" }, "geometry": { "type": "Polygon", "coordinates": [ [ [ 76.9389626, 28.3861211 ], [ 76.9389444, 28.3867973 ], [ 76.9413675, 28.3868477 ], [ 76.9413723, 28.3866676 ], [ 76.9411059, 28.3866621 ], [ 76.9411292, 28.3857972 ], [ 76.9389725, 28.3857523 ], [ 76.9389626, 28.3861211 ] ] ] } },
{ "type": "Feature", "properties": { "element": "way", "id": 272245403, "name": "Uno Minda", "landuse": "industrial" }, "geometry": { "type": "Polygon", "coordinates": [ [ [ 76.9387812, 28.3701082 ], [ 76.9368474, 28.3701328 ], [ 76.9368144, 28.3709687 ], [ 76.9369061, 28.3709737 ], [ 76.936866, 28.3727439 ], [ 76.937399, 28.3727439 ], [ 76.937399, 28.3731827 ], [ 76.9380639, 28.3731928 ], [ 76.9380869, 28.3726481 ], [ 76.9386772, 28.3726633 ], [ 76.9387812, 28.3701082 ] ] ] } },
{ "type": "Feature", "properties": { "element": "way", "id": 419164558, "name": "Sector 54 Gurgaon Metro Rail Depot", "landuse": "industrial" }, "geometry": { "type": "Polygon", "coordinates": [ [ [ 77.1043216, 28.4316828 ], [ 77.1027614, 28.4325841 ], [ 77.100857, 28.4338059 ], [ 77.0996774, 28.4327302 ], [ 77.1011911, 28.432274 ], [ 77.1034258, 28.4316056 ], [ 77.1042694, 28.4316071 ], [ 77.1043216, 28.4316828 ] ] ] } },
{ "type": "Feature", "properties": { "element": "way", "id": 419656566, "name": "Maruti Suzuki India Limited", "landuse": "industrial" }, "geometry": { "type": "Polygon", "coordinates": [ [ [ 77.0745815, 28.4989724 ], [ 77.0741564, 28.4989608 ], [ 77.0737553, 28.4989498 ], [ 77.0735997, 28.4989456 ], [ 77.0729539, 28.498928 ], [ 77.0717494, 28.498895 ], [ 77.0689307, 28.498818 ], [ 77.0666404, 28.4987731 ], [ 77.0651028, 28.4987438 ], [ 77.0644883, 28.4986332 ], [ 77.0602844, 28.493847 ], [ 77.0602784, 28.4938277 ], [ 77.0602863, 28.4935601 ], [ 77.0603823, 28.493274 ], [ 77.0606055, 28.4930457 ], [ 77.0608005, 28.4928983 ], [ 77.0610854, 28.4927153 ], [ 77.0617076, 28.4922645 ], [ 77.0619273, 28.4921559 ], [ 77.062457, 28.4921406 ], [ 77.0645023, 28.4921754 ], [ 77.067236, 28.4922539 ], [ 77.0680085, 28.4922721 ], [ 77.0717546, 28.4923754 ], [ 77.0730899, 28.492408 ], [ 77.0739526, 28.492429 ], [ 77.0754916, 28.4924666 ], [ 77.0786673, 28.4925229 ], [ 77.0786572, 28.4929194 ], [ 77.078464, 28.4929155 ], [ 77.0773423, 28.492886 ], [ 77.0772493, 28.4956159 ], [ 77.0772351, 28.496075 ], [ 77.0770922, 28.4990484 ], [ 77.0770463, 28.4990471 ], [ 77.0766397, 28.4990356 ], [ 77.0762563, 28.4990248 ], [ 77.0749863, 28.4989834 ], [ 77.0745815, 28.4989724 ] ] ] } },
{ "type": "Feature", "properties": { "element": "way", "id": 622455415, "name": "Maruti Suzuki India", "landuse": "industrial" }, "geometry": { "type": "Polygon", "coordinates": [ [ [ 76.8840751, 28.3686606 ], [ 76.8840793, 28.3689611 ], [ 76.8948716, 28.368846 ], [ 76.8967006, 28.3688265 ], [ 76.8967494, 28.3723672 ], [ 76.9026165, 28.3722695 ], [ 76.9025922, 28.3687319 ], [ 76.8988569, 28.3687632 ], [ 76.8988418, 28.3676682 ], [ 76.896784, 28.3676901 ], [ 76.8967626, 28.3661406 ], [ 76.8966844, 28.3661422 ], [ 76.8955099, 28.3661532 ], [ 76.8948486, 28.366161 ], [ 76.8948246, 28.3644155 ], [ 76.8926902, 28.3644383 ], [ 76.8926946, 28.3647587 ], [ 76.8898831, 28.3647887 ], [ 76.8898848, 28.3649099 ], [ 76.8877341, 28.3649328 ], [ 76.8877477, 28.3659201 ], [ 76.8840379, 28.3659597 ], [ 76.8840751, 28.3686606 ] ] ] } },
{ "type": "Feature", "properties": { "element": "way", "id": 705290297, "name": null, "landuse": "industrial" }, "geometry": { "type": "Polygon", "coordinates": [ [ [ 76.9368426, 28.3685415 ], [ 76.9386785, 28.3685301 ], [ 76.938687, 28.3695815 ], [ 76.9368511, 28.369593 ], [ 76.9368426, 28.3685415 ] ] ] } },
{ "type": "Feature", "properties": { "element": "way", "id": 705290302, "name": null, "landuse": "industrial" }, "geometry": { "type": "Polygon", "coordinates": [ [ [ 76.9353249, 28.360014 ], [ 76.9354307, 28.3573239 ], [ 76.9331885, 28.3572586 ], [ 76.9332257, 28.3600358 ], [ 76.9353249, 28.360014 ] ] ] } },
{ "type": "Feature", "properties": { "element": "way", "id": 705290303, "name": null, "landuse": "industrial" }, "geometry": { "type": "Polygon", "coordinates": [ [ [ 76.9311823, 28.360466 ], [ 76.9329164, 28.360459 ], [ 76.932905, 28.3582748 ], [ 76.9311709, 28.3582818 ], [ 76.9311823, 28.360466 ] ] ] } },
{ "type": "Feature", "properties": { "element": "way", "id": 705290304, "name": null, "landuse": "industrial" }, "geometry": { "type": "Polygon", "coordinates": [ [ [ 76.9311709, 28.3582818 ], [ 76.9295422, 28.3581887 ], [ 76.9295442, 28.3604815 ], [ 76.9311823, 28.360466 ], [ 76.9311709, 28.3582818 ] ] ] } },
{ "type": "Feature", "properties": { "element": "way", "id": 824913098, "name": null, "landuse": "industrial" }, "geometry": { "type": "Polygon", "coordinates": [ [ [ 76.8268376, 28.4678438 ], [ 76.8270546, 28.4688045 ], [ 76.8265504, 28.4688092 ], [ 76.8265718, 28.4693751 ], [ 76.8263197, 28.4693751 ], [ 76.8263411, 28.4700164 ], [ 76.8267006, 28.4700164 ], [ 76.8266791, 28.4697052 ], [ 76.8272477, 28.4697099 ], [ 76.8273175, 28.4701296 ], [ 76.8273818, 28.4704408 ], [ 76.8260407, 28.4704833 ], [ 76.8259978, 28.4693798 ], [ 76.8252629, 28.4693798 ], [ 76.8252468, 28.4688375 ], [ 76.8231281, 28.4688733 ], [ 76.8231171, 28.4687337 ], [ 76.8232942, 28.4683565 ], [ 76.8236697, 28.468116 ], [ 76.8237072, 28.4681773 ], [ 76.8252844, 28.4676963 ], [ 76.8253058, 28.4679273 ], [ 76.8265343, 28.4679321 ], [ 76.8265396, 28.4678519 ], [ 76.8268376, 28.4678438 ] ] ] } },
{ "type": "Feature", "properties": { "element": "way", "id": 844303348, "name": null, "landuse": "industrial" }, "geometry": { "type": "Polygon", "coordinates": [ [ [ 77.0009798, 28.3892767 ], [ 76.9993329, 28.3908294 ], [ 76.9995099, 28.3908671 ], [ 77.000159, 28.3908765 ], [ 77.0001429, 28.3949963 ], [ 77.0016181, 28.3968179 ], [ 77.0028359, 28.3968131 ], [ 77.0028466, 28.3962752 ], [ 77.0035225, 28.3962846 ], [ 77.002514, 28.3956948 ], [ 77.0024282, 28.3951993 ], [ 77.0023316, 28.3950388 ], [ 77.0022297, 28.394364 ], [ 77.00194, 28.3940856 ], [ 77.0020312, 28.3928964 ], [ 77.0019346, 28.3919997 ], [ 77.0018756, 28.3912541 ], [ 77.0013285, 28.3903386 ], [ 77.0011353, 28.3895646 ], [ 77.0009798, 28.3892767 ] ] ] } },
{ "type": "Feature", "properties": { "element": "way", "id": 844463482, "name": null, "landuse": "industrial" }, "geometry": { "type": "Polygon", "coordinates": [ [ [ 76.8008172, 28.4827244 ], [ 76.8005919, 28.4821822 ], [ 76.8011713, 28.4821727 ], [ 76.8011767, 28.4816305 ], [ 76.8008655, 28.4816352 ], [ 76.8008387, 28.4806875 ], [ 76.80152, 28.4806639 ], [ 76.80152, 28.4805507 ], [ 76.8021852, 28.4805507 ], [ 76.8022013, 28.4810883 ], [ 76.8042505, 28.4810458 ], [ 76.8042558, 28.480513 ], [ 76.8056238, 28.4804894 ], [ 76.8056023, 28.4788674 ], [ 76.8044275, 28.4788862 ], [ 76.804406, 28.478377 ], [ 76.8041968, 28.4783864 ], [ 76.8041861, 28.4774528 ], [ 76.8069112, 28.4759486 ], [ 76.8070024, 28.4795982 ], [ 76.8076676, 28.479603 ], [ 76.8076891, 28.4799472 ], [ 76.812619, 28.4798906 ], [ 76.8128389, 28.4819936 ], [ 76.8103713, 28.4828706 ], [ 76.8081719, 28.4833515 ], [ 76.80498, 28.483757 ], [ 76.8049693, 28.482682 ], [ 76.8008172, 28.4827244 ] ] ] } },
{ "type": "Feature", "properties": { "element": "way", "id": 844463484, "name": null, "landuse": "industrial" }, "geometry": { "type": "Polygon", "coordinates": [ [ [ 76.7977488, 28.4620042 ], [ 76.7977488, 28.4632869 ], [ 76.7977649, 28.4643009 ], [ 76.7977595, 28.4650884 ], [ 76.7952222, 28.4651592 ], [ 76.7946321, 28.4629851 ], [ 76.7945999, 28.4619947 ], [ 76.7977488, 28.4620042 ] ] ] } },
{ "type": "Feature", "properties": { "element": "way", "id": 844463485, "name": null, "landuse": "industrial" }, "geometry": { "type": "Polygon", "coordinates": [ [ [ 76.7978642, 28.4643004 ], [ 76.8034244, 28.4642726 ], [ 76.8034136, 28.4637019 ], [ 76.805613, 28.4635557 ], [ 76.8056995, 28.4635449 ], [ 76.8060163, 28.4654992 ], [ 76.806026, 28.466758 ], [ 76.8059726, 28.4684648 ], [ 76.8060648, 28.4699753 ], [ 76.8058221, 28.4712639 ], [ 76.8051426, 28.4736533 ], [ 76.805328, 28.4750622 ], [ 76.8048781, 28.4750904 ], [ 76.8048942, 28.4741709 ], [ 76.8048406, 28.4736427 ], [ 76.8049586, 28.4733409 ], [ 76.8050498, 28.4731382 ], [ 76.805082, 28.4729967 ], [ 76.8048137, 28.4730155 ], [ 76.8047279, 28.4722894 ], [ 76.8052912, 28.4723224 ], [ 76.8053019, 28.4717046 ], [ 76.8055218, 28.4708747 ], [ 76.8055916, 28.4701202 ], [ 76.8056828, 28.4695826 ], [ 76.8056399, 28.4690733 ], [ 76.8027431, 28.4691204 ], [ 76.8027323, 28.4679792 ], [ 76.8013966, 28.4679698 ], [ 76.8013644, 28.4668852 ], [ 76.7999482, 28.466904 ], [ 76.7999469, 28.4668663 ], [ 76.7978588, 28.4668922 ], [ 76.7978642, 28.4643004 ] ] ] } },
{ "type": "Feature", "properties": { "element": "way", "id": 844463490, "name": null, "landuse": "industrial" }, "geometry": { "type": "Polygon", "coordinates": [ [ [ 76.9253522, 28.4346382 ], [ 76.9229865, 28.4327984 ], [ 76.9167316, 28.4272696 ], [ 76.915721, 28.4264908 ], [ 76.9148906, 28.4262325 ], [ 76.9147521, 28.4267742 ], [ 76.9140708, 28.426727 ], [ 76.9140201, 28.4259563 ], [ 76.913486, 28.4258123 ], [ 76.9134647, 28.4278357 ], [ 76.9151169, 28.4278309 ], [ 76.9151276, 28.4289113 ], [ 76.9147414, 28.4290434 ], [ 76.9147468, 28.4286141 ], [ 76.9134325, 28.4286376 ], [ 76.913411, 28.4290764 ], [ 76.9140601, 28.4293311 ], [ 76.9154173, 28.4301331 ], [ 76.9178474, 28.4314304 ], [ 76.9218385, 28.4334164 ], [ 76.9227666, 28.4338032 ], [ 76.9248587, 28.4349118 ], [ 76.9260925, 28.4355156 ], [ 76.9271198, 28.4359731 ], [ 76.9314516, 28.4381383 ], [ 76.9315776, 28.4379237 ], [ 76.9273692, 28.435742 ], [ 76.9257331, 28.434716 ], [ 76.9256732, 28.4347464 ], [ 76.9256204, 28.4347726 ], [ 76.9253522, 28.4346382 ] ] ] } },
{ "type": "Feature", "properties": { "element": "way", "id": 849281457, "name": null, "landuse": "industrial" }, "geometry": { "type": "Polygon", "coordinates": [ [ [ 76.8892703, 28.2762238 ], [ 76.8894328, 28.2790968 ], [ 76.8881125, 28.2791547 ], [ 76.8881464, 28.2797533 ], [ 76.8867364, 28.2798152 ], [ 76.8867949, 28.280849 ], [ 76.8864277, 28.2808651 ], [ 76.8864581, 28.2814028 ], [ 76.8833346, 28.2815398 ], [ 76.8831766, 28.278747 ], [ 76.8892703, 28.2762238 ] ] ] } },
{ "type": "Feature", "properties": { "element": "way", "id": 849281458, "name": null, "landuse": "industrial" }, "geometry": { "type": "Polygon", "coordinates": [ [ [ 76.8812285, 28.2856334 ], [ 76.8812741, 28.2839765 ], [ 76.8811395, 28.2839737 ], [ 76.8811542, 28.2834401 ], [ 76.8805975, 28.2834282 ], [ 76.8806123, 28.2828936 ], [ 76.8792595, 28.2828647 ], [ 76.8792514, 28.2831579 ], [ 76.878592, 28.2831439 ], [ 76.8785307, 28.2853733 ], [ 76.8812285, 28.2856334 ] ] ] } },
{ "type": "Feature", "properties": { "element": "way", "id": 849281459, "name": null, "landuse": "industrial" }, "geometry": { "type": "Polygon", "coordinates": [ [ [ 76.8930422, 28.2735435 ], [ 76.8925823, 28.273561 ], [ 76.8924751, 28.2713779 ], [ 76.8931532, 28.2713521 ], [ 76.8931454, 28.2711935 ], [ 76.893864, 28.2711661 ], [ 76.8940006, 28.2739468 ], [ 76.8931181, 28.2743142 ], [ 76.8930422, 28.2735435 ] ] ] } },
{ "type": "Feature", "properties": { "element": "way", "id": 849281460, "name": null, "landuse": "industrial" }, "geometry": { "type": "Polygon", "coordinates": [ [ [ 76.8884771, 28.2734814 ], [ 76.8884024, 28.2720633 ], [ 76.8890897, 28.2720441 ], [ 76.88913, 28.2731589 ], [ 76.8891504, 28.2734614 ], [ 76.8884771, 28.2734814 ] ] ] } },
{ "type": "Feature", "properties": { "element": "way", "id": 849281461, "name": null, "landuse": "industrial" }, "geometry": { "type": "Polygon", "coordinates": [ [ [ 76.88913, 28.2731589 ], [ 76.8901397, 28.2731306 ], [ 76.8902258, 28.2755129 ], [ 76.8894452, 28.2758384 ], [ 76.8886167, 28.2761284 ], [ 76.8884771, 28.2734814 ], [ 76.8891504, 28.2734614 ], [ 76.88913, 28.2731589 ] ] ] } },
{ "type": "Feature", "properties": { "element": "way", "id": 849281462, "name": null, "landuse": "industrial" }, "geometry": { "type": "Polygon", "coordinates": [ [ [ 76.8692135, 28.2742649 ], [ 76.8691546, 28.2754008 ], [ 76.8691013, 28.2755309 ], [ 76.86815, 28.2755734 ], [ 76.8681093, 28.2748682 ], [ 76.8685055, 28.2748505 ], [ 76.8684736, 28.274298 ], [ 76.8692135, 28.2742649 ] ] ] } },
{ "type": "Feature", "properties": { "element": "way", "id": 849281463, "name": null, "landuse": "industrial" }, "geometry": { "type": "Polygon", "coordinates": [ [ [ 76.8706787, 28.2733307 ], [ 76.8705966, 28.2716826 ], [ 76.8725367, 28.2716077 ], [ 76.8725099, 28.271068 ], [ 76.8752957, 28.2709604 ], [ 76.8753761, 28.2725753 ], [ 76.8747557, 28.2725993 ], [ 76.8747899, 28.273287 ], [ 76.874079, 28.2733145 ], [ 76.8740733, 28.2731996 ], [ 76.8706787, 28.2733307 ] ] ] } },
{ "type": "Feature", "properties": { "element": "way", "id": 849466038, "name": null, "landuse": "industrial" }, "geometry": { "type": "Polygon", "coordinates": [ [ [ 76.7215081, 28.2930988 ], [ 76.7228532, 28.2930923 ], [ 76.7228565, 28.2936178 ], [ 76.7215113, 28.2936243 ], [ 76.7215081, 28.2930988 ] ] ] } },
{ "type": "Feature", "properties": { "element": "way", "id": 849466039, "name": null, "landuse": "industrial" }, "geometry": { "type": "Polygon", "coordinates": [ [ [ 76.719262, 28.2937438 ], [ 76.7215097, 28.2928133 ], [ 76.7215081, 28.2930988 ], [ 76.7215113, 28.2936243 ], [ 76.7228565, 28.2936178 ], [ 76.7228454, 28.294169 ], [ 76.7215258, 28.294169 ], [ 76.7215311, 28.2947027 ], [ 76.72019, 28.2947122 ], [ 76.7199191, 28.2946366 ], [ 76.7195946, 28.2943886 ], [ 76.719262, 28.2937438 ] ] ] } },
{ "type": "Feature", "properties": { "element": "way", "id": 849466040, "name": null, "landuse": "industrial" }, "geometry": { "type": "Polygon", "coordinates": [ [ [ 76.7984484, 28.318896 ], [ 76.7977446, 28.3191534 ], [ 76.7977785, 28.3216049 ], [ 76.7984627, 28.3215977 ], [ 76.7984484, 28.318896 ] ] ] } },
{ "type": "Feature", "properties": { "element": "way", "id": 849466041, "name": null, "landuse": "industrial" }, "geometry": { "type": "Polygon", "coordinates": [ [ [ 76.8333552, 28.2717598 ], [ 76.836065, 28.2718702 ], [ 76.836082, 28.2715858 ], [ 76.8346211, 28.2707212 ], [ 76.8334195, 28.2706929 ], [ 76.8333552, 28.2717598 ] ] ] } },
{ "type": "Feature", "properties": { "element": "way", "id": 849466042, "name": null, "landuse": "industrial" }, "geometry": { "type": "Polygon", "coordinates": [ [ [ 76.8316572, 28.2727708 ], [ 76.8331675, 28.2728325 ], [ 76.8332234, 28.2717712 ], [ 76.831932, 28.2717184 ], [ 76.8319433, 28.2715048 ], [ 76.8313045, 28.2714787 ], [ 76.8312644, 28.2722395 ], [ 76.8316843, 28.2722567 ], [ 76.8316572, 28.2727708 ] ] ] } },
{ "type": "Feature", "properties": { "element": "way", "id": 859811753, "name": "indus", "landuse": "industrial" }, "geometry": { "type": "Polygon", "coordinates": [ [ [ 77.0692809, 28.4623136 ], [ 77.0717413, 28.4642375 ], [ 77.0719236, 28.4640635 ], [ 77.0721549, 28.4629757 ], [ 77.0705152, 28.4614295 ], [ 77.0692809, 28.4623136 ] ] ] } },
{ "type": "Feature", "properties": { "element": "way", "id": 892668727, "name": "Vikas Spool Private Limted", "landuse": "industrial" }, "geometry": { "type": "Polygon", "coordinates": [ [ [ 76.7066171, 28.4069301 ], [ 76.7065896, 28.4048097 ], [ 76.7052936, 28.4048227 ], [ 76.7053005, 28.4053559 ], [ 76.7042642, 28.4053663 ], [ 76.7042701, 28.4058237 ], [ 76.7066171, 28.4069301 ] ] ] } },
{ "type": "Feature", "properties": { "element": "way", "id": 919872849, "name": null, "landuse": "industrial" }, "geometry": { "type": "Polygon", "coordinates": [ [ [ 76.9456149, 28.3723992 ], [ 76.9455775, 28.3736895 ], [ 76.9449007, 28.3736743 ], [ 76.9449479, 28.3720476 ], [ 76.9456149, 28.3723992 ] ] ] } },
{ "type": "Feature", "properties": { "element": "way", "id": 919872850, "name": null, "landuse": "industrial" }, "geometry": { "type": "Polygon", "coordinates": [ [ [ 76.9479581, 28.3746511 ], [ 76.9462644, 28.3745743 ], [ 76.9463303, 28.3734486 ], [ 76.9476255, 28.3735073 ], [ 76.9479954, 28.3739144 ], [ 76.9479581, 28.3746511 ] ] ] } },
{ "type": "Feature", "properties": { "element": "way", "id": 919872851, "name": null, "landuse": "industrial" }, "geometry": { "type": "Polygon", "coordinates": [ [ [ 76.9432646, 28.3704635 ], [ 76.9432801, 28.3703885 ], [ 76.9445246, 28.3715473 ], [ 76.9445166, 28.3720594 ], [ 76.9442832, 28.3720759 ], [ 76.9442779, 28.3721396 ], [ 76.944104, 28.3721634 ], [ 76.944092, 28.372358 ], [ 76.9431511, 28.3723133 ], [ 76.9432646, 28.3704635 ] ] ] } },
{ "type": "Feature", "properties": { "element": "way", "id": 962448479, "name": null, "landuse": "industrial" }, "geometry": { "type": "Polygon", "coordinates": [ [ [ 76.9248319, 28.4317748 ], [ 76.9264036, 28.4318031 ], [ 76.9263983, 28.4323361 ], [ 76.9269025, 28.432355 ], [ 76.9269133, 28.4334824 ], [ 76.9280451, 28.4327041 ], [ 76.9281256, 28.4344259 ], [ 76.9287693, 28.4344165 ], [ 76.9287854, 28.4355439 ], [ 76.9283831, 28.4355722 ], [ 76.9283616, 28.4361288 ], [ 76.9275409, 28.4357279 ], [ 76.9269079, 28.4353363 ], [ 76.9254434, 28.4344353 ], [ 76.924687, 28.43394 ], [ 76.9227934, 28.4323125 ], [ 76.923598, 28.4320295 ], [ 76.924231, 28.4330107 ], [ 76.9250464, 28.4327513 ], [ 76.9249392, 28.4323503 ], [ 76.9248426, 28.4323456 ], [ 76.9248319, 28.4317748 ] ] ] } },
{ "type": "Feature", "properties": { "element": "way", "id": 1003080762, "name": null, "landuse": "industrial" }, "geometry": { "type": "Polygon", "coordinates": [ [ [ 76.8601145, 28.2981117 ], [ 76.8616512, 28.2980908 ], [ 76.861632, 28.2969925 ], [ 76.8600953, 28.2970134 ], [ 76.8601145, 28.2981117 ] ] ] } },
{ "type": "Feature", "properties": { "element": "way", "id": 1036043359, "name": null, "landuse": "industrial" }, "geometry": { "type": "Polygon", "coordinates": [ [ [ 76.9875848, 28.3480789 ], [ 76.9882822, 28.3492969 ], [ 76.9888401, 28.3498445 ], [ 76.9889474, 28.3513741 ], [ 76.9882178, 28.3522995 ], [ 76.9835615, 28.3526771 ], [ 76.9835186, 28.3517896 ], [ 76.9801497, 28.3519407 ], [ 76.9801497, 28.3511475 ], [ 76.9764805, 28.351072 ], [ 76.9741094, 28.3510153 ], [ 76.972897, 28.3513647 ], [ 76.9707405, 28.3519595 ], [ 76.970365, 28.3505905 ], [ 76.9702792, 28.3500711 ], [ 76.9709444, 28.349939 ], [ 76.9705796, 28.3477861 ], [ 76.972307, 28.3475406 ], [ 76.9725001, 28.3484565 ], [ 76.9734549, 28.3493299 ], [ 76.9739377, 28.3491505 ], [ 76.9743937, 28.349448 ], [ 76.9758689, 28.3490561 ], [ 76.9762605, 28.3490089 ], [ 76.9762015, 28.3474651 ], [ 76.9790876, 28.346908 ], [ 76.9800103, 28.3470119 ], [ 76.9809008, 28.3480883 ], [ 76.983422, 28.3479089 ], [ 76.9834006, 28.3475123 ], [ 76.9845593, 28.3476445 ], [ 76.9863617, 28.3479844 ], [ 76.9875848, 28.3480789 ] ] ] } },
{ "type": "Feature", "properties": { "element": "way", "id": 1036043362, "name": null, "landuse": "industrial" }, "geometry": { "type": "Polygon", "coordinates": [ [ [ 77.0509171, 28.2938761 ], [ 77.0507562, 28.29603 ], [ 77.0495009, 28.2960772 ], [ 77.049458, 28.2971258 ], [ 77.0500696, 28.2971164 ], [ 77.0500266, 28.2998276 ], [ 77.0492434, 28.2999787 ], [ 77.0495438, 28.3010745 ], [ 77.0496082, 28.3049097 ], [ 77.0507669, 28.3042768 ], [ 77.0517218, 28.3040028 ], [ 77.0531165, 28.3030016 ], [ 77.0545542, 28.3024159 ], [ 77.05832, 28.301509 ], [ 77.0584917, 28.3013107 ], [ 77.0589852, 28.2987884 ], [ 77.0594466, 28.2970408 ], [ 77.0573544, 28.2977493 ], [ 77.0569038, 28.2978154 ], [ 77.0569897, 28.2939895 ], [ 77.0509171, 28.2938761 ] ] ] } },
{ "type": "Feature", "properties": { "element": "way", "id": 1036043379, "name": null, "landuse": "industrial" }, "geometry": { "type": "Polygon", "coordinates": [ [ [ 76.9203201, 28.2559537 ], [ 76.9229089, 28.2530489 ], [ 76.9233273, 28.2532589 ], [ 76.9233191, 28.253747 ], [ 76.9249565, 28.2536935 ], [ 76.9272039, 28.2536623 ], [ 76.9277348, 28.2542391 ], [ 76.9275047, 28.2542547 ], [ 76.9275401, 28.2565928 ], [ 76.9267261, 28.2566084 ], [ 76.926673, 28.2558758 ], [ 76.9252573, 28.2559381 ], [ 76.9252396, 28.2571072 ], [ 76.9244079, 28.257154 ], [ 76.9243725, 28.2576683 ], [ 76.9236293, 28.258136 ], [ 76.922886, 28.2581516 ], [ 76.9221782, 28.2575592 ], [ 76.9220366, 28.2570916 ], [ 76.9203201, 28.2559537 ] ] ] } },
{ "type": "Feature", "properties": { "element": "way", "id": 1165662007, "name": "City Bus Depot Sector 52/53", "landuse": "industrial" }, "geometry": { "type": "Polygon", "coordinates": [ [ [ 77.0996774, 28.4327302 ], [ 77.0993759, 28.4324456 ], [ 77.1008358, 28.4316486 ], [ 77.1009142, 28.4316441 ], [ 77.100988, 28.4316399 ], [ 77.1019728, 28.4316261 ], [ 77.1020076, 28.4316256 ], [ 77.1021387, 28.4316237 ], [ 77.1027057, 28.4316157 ], [ 77.1028197, 28.4316141 ], [ 77.1034258, 28.4316056 ], [ 77.0996774, 28.4327302 ] ] ] } },
{ "type": "Feature", "properties": { "element": "way", "id": 1194059692, "name": "Maruti Manesar Power Station", "landuse": "industrial" }, "geometry": { "type": "Polygon", "coordinates": [ [ [ 76.8962976, 28.3673387 ], [ 76.8949813, 28.3673641 ], [ 76.8949728, 28.3672209 ], [ 76.8936631, 28.3672263 ], [ 76.8936441, 28.3666431 ], [ 76.896719, 28.3665777 ], [ 76.8967125, 28.36699 ], [ 76.8963502, 28.3669962 ], [ 76.8962976, 28.3673387 ] ] ] } },
{ "type": "Feature", "properties": { "element": "way", "id": 1197493040, "name": null, "landuse": "industrial" }, "geometry": { "type": "Polygon", "coordinates": [ [ [ 76.8105692, 28.473265 ], [ 76.8158698, 28.470389 ], [ 76.8177903, 28.4693138 ], [ 76.816653, 28.4686724 ], [ 76.81602, 28.4680028 ], [ 76.8155606, 28.4669198 ], [ 76.8147472, 28.4673819 ], [ 76.8144039, 28.4669534 ], [ 76.8137106, 28.4672974 ], [ 76.8123446, 28.468631 ], [ 76.8111274, 28.4697961 ], [ 76.8101469, 28.4718612 ], [ 76.8101372, 28.4721898 ], [ 76.8105692, 28.473265 ] ] ] } },
{ "type": "Feature", "properties": { "element": "way", "id": 1311664250, "name": null, "landuse": "industrial" }, "geometry": { "type": "Polygon", "coordinates": [ [ [ 76.8193114, 28.36714 ], [ 76.8203083, 28.3671272 ], [ 76.8202959, 28.366756 ], [ 76.8254683, 28.3667526 ], [ 76.8254631, 28.3672566 ], [ 76.8247871, 28.3672566 ], [ 76.8248026, 28.3683418 ], [ 76.8245962, 28.3683509 ], [ 76.8246117, 28.3688912 ], [ 76.824106, 28.368873 ], [ 76.824106, 28.3694406 ], [ 76.8227643, 28.369427 ], [ 76.8227592, 28.3689048 ], [ 76.8213969, 28.3689139 ], [ 76.8213894, 28.3683507 ], [ 76.819682, 28.3683715 ], [ 76.8193258, 28.3682352 ], [ 76.8193114, 28.36714 ] ] ] } },
{ "type": "Feature", "properties": { "element": "way", "id": 1360369346, "name": null, "landuse": "industrial" }, "geometry": { "type": "Polygon", "coordinates": [ [ [ 76.8776384, 28.3378358 ], [ 76.8776384, 28.3382087 ], [ 76.8779953, 28.3382311 ], [ 76.8779762, 28.3389283 ], [ 76.8785172, 28.3389045 ], [ 76.8786328, 28.338738 ], [ 76.8786656, 28.3385268 ], [ 76.8786274, 28.3383491 ], [ 76.8783058, 28.3383625 ], [ 76.8783062, 28.3381377 ], [ 76.8782184, 28.3380133 ], [ 76.8780868, 28.3379914 ], [ 76.8779998, 28.3378588 ], [ 76.8776384, 28.3378358 ] ] ] } },
{ "type": "Feature", "properties": { "element": "way", "id": 1360369347, "name": null, "landuse": "industrial" }, "geometry": { "type": "Polygon", "coordinates": [ [ [ 76.8786553, 28.3379047 ], [ 76.8792055, 28.3378559 ], [ 76.8793144, 28.3378414 ], [ 76.8794719, 28.3376529 ], [ 76.8792626, 28.3375249 ], [ 76.8790587, 28.337478 ], [ 76.8786432, 28.3375018 ], [ 76.8786532, 28.3378345 ], [ 76.8786553, 28.3379047 ] ] ] } },
{ "type": "Feature", "properties": { "element": "way", "id": 1365512492, "name": null, "landuse": "industrial" }, "geometry": { "type": "Polygon", "coordinates": [ [ [ 77.0678665, 28.4971432 ], [ 77.0678776, 28.4968172 ], [ 77.0680994, 28.4968216 ], [ 77.0680871, 28.4971422 ], [ 77.0678665, 28.4971432 ] ] ] } },
{ "type": "Feature", "properties": { "element": "way", "id": 1395282848, "name": "Maersk", "landuse": "industrial" }, "geometry": { "type": "Polygon", "coordinates": [ [ [ 76.80215, 28.4324795 ], [ 76.800141, 28.4325842 ], [ 76.8002824, 28.435823 ], [ 76.801592, 28.4357902 ], [ 76.8015324, 28.434076 ], [ 76.8022319, 28.4340629 ], [ 76.80215, 28.4324795 ] ] ] } },
{ "type": "Feature", "properties": { "element": "way", "id": 1408786402, "name": null, "landuse": "industrial" }, "geometry": { "type": "Polygon", "coordinates": [ [ [ 76.9897543, 28.4573919 ], [ 76.9900128, 28.4572691 ], [ 76.9901545, 28.4571348 ], [ 76.9902391, 28.4570006 ], [ 76.9903697, 28.4567645 ], [ 76.9904672, 28.456588 ], [ 76.9906291, 28.4563309 ], [ 76.9906916, 28.4561417 ], [ 76.990813, 28.4559492 ], [ 76.9908774, 28.4558256 ], [ 76.9910577, 28.4557172 ], [ 76.9912471, 28.4555975 ], [ 76.9914579, 28.4554698 ], [ 76.9917706, 28.4553161 ], [ 76.9921367, 28.4551285 ], [ 76.9924492, 28.4549652 ], [ 76.992657, 28.4548584 ], [ 76.9927324, 28.4547889 ], [ 76.9927784, 28.4547129 ], [ 76.9927766, 28.4546595 ], [ 76.9927508, 28.4546336 ], [ 76.9925908, 28.4545997 ], [ 76.9921475, 28.4545301 ], [ 76.9916637, 28.4544412 ], [ 76.990901, 28.4543187 ], [ 76.990614, 28.4542767 ], [ 76.9902976, 28.4542314 ], [ 76.9891468, 28.4540519 ], [ 76.9885967, 28.4539661 ], [ 76.987661, 28.4538707 ], [ 76.9867811, 28.453785 ], [ 76.9857674, 28.4536977 ], [ 76.9847966, 28.4535929 ], [ 76.9840574, 28.453494 ], [ 76.9837235, 28.4534371 ], [ 76.9827285, 28.4532874 ], [ 76.9819519, 28.4531676 ], [ 76.9814186, 28.4530929 ], [ 76.9813607, 28.4530809 ], [ 76.9813591, 28.4531926 ], [ 76.9814419, 28.4532703 ], [ 76.9816442, 28.4534789 ], [ 76.9818411, 28.4536859 ], [ 76.9820232, 28.4538929 ], [ 76.9821924, 28.4540805 ], [ 76.9825504, 28.4544575 ], [ 76.9827631, 28.4546776 ], [ 76.9827925, 28.4547004 ], [ 76.982626, 28.4547918 ], [ 76.9824621, 28.4548886 ], [ 76.9824264, 28.4549046 ], [ 76.9822837, 28.4549838 ], [ 76.9822074, 28.4550333 ], [ 76.9820087, 28.455149 ], [ 76.9819148, 28.4552095 ], [ 76.9818322, 28.4552629 ], [ 76.9817309, 28.4553146 ], [ 76.9816539, 28.4553564 ], [ 76.9816062, 28.4553867 ], [ 76.9814711, 28.4554689 ], [ 76.9814183, 28.4554946 ], [ 76.9813676, 28.4554378 ], [ 76.9810726, 28.4556151 ], [ 76.9807535, 28.455813 ], [ 76.9807128, 28.455845 ], [ 76.9806661, 28.4558787 ], [ 76.9808679, 28.4561177 ], [ 76.9811762, 28.4565103 ], [ 76.9813048, 28.4566825 ], [ 76.9815185, 28.4569663 ], [ 76.9816182, 28.4570868 ], [ 76.981866, 28.457421 ], [ 76.9819877, 28.4576013 ], [ 76.9820688, 28.4577486 ], [ 76.9820798, 28.4577659 ], [ 76.9821679, 28.4577414 ], [ 76.9823915, 28.4576874 ], [ 76.9826685, 28.4576568 ], [ 76.9828458, 28.4576334 ], [ 76.9830741, 28.4576385 ], [ 76.9833105, 28.4576079 ], [ 76.9836419, 28.4575916 ], [ 76.9838846, 28.4575804 ], [ 76.9842671, 28.457555 ], [ 76.9849039, 28.4575438 ], [ 76.9854992, 28.4575285 ], [ 76.9897543, 28.4573919 ] ] ] } },
{ "type": "Feature", "properties": { "element": "way", "id": 1409695443, "name": "Rico Auto Industries Ltd", "landuse": "industrial" }, "geometry": { "type": "Polygon", "coordinates": [ [ [ 77.0011859, 28.4248535 ], [ 77.0018211, 28.424528 ], [ 77.0021077, 28.4243972 ], [ 77.0022941, 28.424314 ], [ 77.0027267, 28.4241166 ], [ 77.0029727, 28.4239918 ], [ 77.0032209, 28.423877 ], [ 77.003553, 28.4237206 ], [ 77.0037964, 28.4235934 ], [ 77.0041397, 28.4234317 ], [ 77.0042911, 28.4233675 ], [ 77.004575, 28.4237753 ], [ 77.004598, 28.4238133 ], [ 77.0050968, 28.4235446 ], [ 77.0054726, 28.4241153 ], [ 77.0057935, 28.4245986 ], [ 77.0061965, 28.4252045 ], [ 77.00699, 28.4266319 ], [ 77.0070971, 28.4267982 ], [ 77.0073904, 28.4272952 ], [ 77.0065598, 28.4279651 ], [ 77.0062183, 28.4276174 ], [ 77.0060373, 28.4274441 ], [ 77.0059519, 28.4273621 ], [ 77.0057064, 28.4271137 ], [ 77.0055651, 28.4269694 ], [ 77.0053534, 28.4267716 ], [ 77.0052499, 28.4266764 ], [ 77.0052121, 28.4266417 ], [ 77.0051168, 28.4265456 ], [ 77.0049809, 28.426426 ], [ 77.004934, 28.426334 ], [ 77.0049559, 28.4262731 ], [ 77.0051564, 28.4261442 ], [ 77.0052503, 28.4260838 ], [ 77.0053372, 28.4260184 ], [ 77.0049837, 28.4255548 ], [ 77.0046112, 28.4250776 ], [ 77.0043322, 28.4252302 ], [ 77.0042546, 28.4252761 ], [ 77.0041538, 28.4253357 ], [ 77.0039393, 28.425462 ], [ 77.0037398, 28.4255778 ], [ 77.0035809, 28.4256805 ], [ 77.0034699, 28.4257829 ], [ 77.003461, 28.4258035 ], [ 77.0031138, 28.4260132 ], [ 77.0030652, 28.4259863 ], [ 77.0028496, 28.4261168 ], [ 77.0024485, 28.4263391 ], [ 77.0011859, 28.4248535 ] ] ] } },
{ "type": "Feature", "properties": { "element": "way", "id": 1462771383, "name": null, "landuse": "industrial" }, "geometry": { "type": "Polygon", "coordinates": [ [ [ 76.9181218, 28.4282811 ], [ 76.9197067, 28.4296435 ], [ 76.9207687, 28.4297006 ], [ 76.9208076, 28.4284811 ], [ 76.9181218, 28.4282811 ] ] ] } },
{ "type": "Feature", "properties": { "element": "way", "id": 1565156209, "name": "Kadipur Industrial Area", "landuse": "industrial" }, "geometry": { "type": "Polygon", "coordinates": [ [ [ 76.9796351, 28.4625499 ], [ 76.9880391, 28.4670804 ], [ 76.989787, 28.463525 ], [ 76.9905479, 28.4617651 ], [ 76.9910906, 28.4603689 ], [ 76.9909832, 28.4597693 ], [ 76.9898169, 28.4577321 ], [ 76.9899065, 28.457434 ], [ 76.9720383, 28.45838 ], [ 76.9796351, 28.4625499 ] ] ] } }
]
}
