{
"type": "FeatureCollection",
"name": "warehouse_features",
"crs": { "type": "name", "properties": { "name": "urn:ogc:def:crs:OGC:1.3:CRS84" } },
"features": [
{ "type": "Feature", "properties": { "element": "way", "id": 351339594, "building": "warehouse" }, "geometry": { "type": "Polygon", "coordinates": [ [ [ 76.9519013, 28.4511578 ], [ 76.9523878, 28.4511613 ], [ 76.9523932, 28.4505849 ], [ 76.9519067, 28.4505814 ], [ 76.9519013, 28.4511578 ] ] ] } },
{ "type": "Feature", "properties": { "element": "way", "id": 351339607, "building": "warehouse" }, "geometry": { "type": "Polygon", "coordinates": [ [ [ 76.9532398, 28.4510919 ], [ 76.9532357, 28.4515314 ], [ 76.9537062, 28.4515348 ], [ 76.9537103, 28.4510953 ], [ 76.9532398, 28.4510919 ] ] ] } },
{ "type": "Feature", "properties": { "element": "way", "id": 351339632, "building": "warehouse" }, "geometry": { "type": "Polygon", "coordinates": [ [ [ 76.9531876, 28.4500415 ], [ 76.9531835, 28.4504827 ], [ 76.9537219, 28.4504866 ], [ 76.953726, 28.4500453 ], [ 76.9531876, 28.4500415 ] ] ] } },
{ "type": "Feature", "properties": { "element": "way", "id": 351339663, "building": "warehouse" }, "geometry": { "type": "Polygon", "coordinates": [ [ [ 76.9524059, 28.4519553 ], [ 76.9524252, 28.4512568 ], [ 76.9519332, 28.4512533 ], [ 76.9519331, 28.4517103 ], [ 76.9524059, 28.4519553 ] ] ] } },
{ "type": "Feature", "properties": { "element": "way", "id": 351339679, "building": "warehouse" }, "geometry": { "type": "Polygon", "coordinates": [ [ [ 76.9532237, 28.4520034 ], [ 76.9537477, 28.4519955 ], [ 76.9537393, 28.4515657 ], [ 76.9532153, 28.4515737 ], [ 76.9532237, 28.4520034 ] ] ] } },
{ "type": "Feature", "properties": { "element": "way", "id": 351339700, "building": "warehouse" }, "geometry": { "type": "Polygon", "coordinates": [ [ [ 76.9519204, 28.4505062 ], [ 76.9523577, 28.4505094 ], [ 76.9523676, 28.4494447 ], [ 76.9519304, 28.4494415 ], [ 76.9519204, 28.4505062 ] ] ] } },
{ "type": "Feature", "properties": { "element": "way", "id": 351339727, "building": "warehouse" }, "geometry": { "type": "Polygon", "coordinates": [ [ [ 76.9531876, 28.4509708 ], [ 76.9537343, 28.4509748 ], [ 76.9537387, 28.4505101 ], [ 76.9531919, 28.4505062 ], [ 76.9531876, 28.4509708 ] ] ] } },
{ "type": "Feature", "properties": { "element": "way", "id": 351339778, "building": "warehouse" }, "geometry": { "type": "Polygon", "coordinates": [ [ [ 76.9525823, 28.4519161 ], [ 76.9530416, 28.4518966 ], [ 76.9530172, 28.4494971 ], [ 76.9525499, 28.4494941 ], [ 76.9525823, 28.4519161 ] ] ] } },
{ "type": "Feature", "properties": { "element": "way", "id": 415498447, "building": "warehouse" }, "geometry": { "type": "Polygon", "coordinates": [ [ [ 76.8943717, 28.4261448 ], [ 76.8950083, 28.4261429 ], [ 76.8950074, 28.4259231 ], [ 76.8943709, 28.425925 ], [ 76.8943717, 28.4261448 ] ] ] } },
{ "type": "Feature", "properties": { "element": "way", "id": 415498479, "building": "warehouse" }, "geometry": { "type": "Polygon", "coordinates": [ [ [ 76.89442, 28.4254537 ], [ 76.8949609, 28.4254521 ], [ 76.8949591, 28.4250079 ], [ 76.8944183, 28.4250095 ], [ 76.89442, 28.4254537 ] ] ] } },
{ "type": "Feature", "properties": { "element": "way", "id": 415498485, "building": "warehouse" }, "geometry": { "type": "Polygon", "coordinates": [ [ [ 76.8935865, 28.4268658 ], [ 76.8942354, 28.4268532 ], [ 76.8942289, 28.4265938 ], [ 76.89358, 28.4266064 ], [ 76.8935865, 28.4268658 ] ] ] } },
{ "type": "Feature", "properties": { "element": "way", "id": 415498578, "building": "warehouse" }, "geometry": { "type": "Polygon", "coordinates": [ [ [ 76.893681, 28.4262428 ], [ 76.894202, 28.4262482 ], [ 76.8942193, 28.4249501 ], [ 76.8936983, 28.4249448 ], [ 76.893681, 28.4262428 ] ] ] } },
{ "type": "Feature", "properties": { "element": "way", "id": 415498600, "building": "warehouse" }, "geometry": { "type": "Polygon", "coordinates": [ [ [ 76.8943798, 28.4258571 ], [ 76.8950029, 28.4258552 ], [ 76.8950021, 28.4256377 ], [ 76.8943789, 28.4256396 ], [ 76.8943798, 28.4258571 ] ] ] } },
{ "type": "Feature", "properties": { "element": "way", "id": 415498604, "building": "warehouse" }, "geometry": { "type": "Polygon", "coordinates": [ [ [ 76.8935751, 28.4265293 ], [ 76.8942492, 28.4265273 ], [ 76.8942484, 28.4263217 ], [ 76.8935743, 28.4263238 ], [ 76.8935751, 28.4265293 ] ] ] } },
{ "type": "Feature", "properties": { "element": "way", "id": 415498733, "building": "warehouse" }, "geometry": { "type": "Polygon", "coordinates": [ [ [ 76.8943397, 28.4264626 ], [ 76.8950028, 28.4264606 ], [ 76.8950018, 28.4262072 ], [ 76.8943387, 28.4262092 ], [ 76.8943397, 28.4264626 ] ] ] } },
{ "type": "Feature", "properties": { "element": "way", "id": 415498739, "building": "warehouse" }, "geometry": { "type": "Polygon", "coordinates": [ [ [ 76.8943342, 28.4268619 ], [ 76.8949896, 28.4268492 ], [ 76.8949833, 28.4265954 ], [ 76.8943278, 28.4266081 ], [ 76.8943342, 28.4268619 ] ] ] } },
{ "type": "Feature", "properties": { "element": "way", "id": 1257470011, "building": "warehouse" }, "geometry": { "type": "Polygon", "coordinates": [ [ [ 76.938654, 28.3701689 ], [ 76.9369754, 28.3702219 ], [ 76.9369413, 28.3706606 ], [ 76.9386098, 28.3707261 ], [ 76.938654, 28.3701689 ] ] ] } }
]
}
